{
 "type": "FeatureCollection",
 "features": [
  {
   "type": "Feature",
   "properties": {
    "fid": 3038,
    "iso3": "CHL",
    "area_km2": 32.5651
   },
   "geometry": {
    "type": "Polygon",
    "coordinates": [
     [
      [
       -68.71549999999999,
       -20.942
      ],
      [
       -68.7186,
       -20.941599999999998
      ],
      [
       -68.7203,
       -20.943300000000008
      ],
      [
       -68.7221,
       -20.9451
      ],
      [
       -68.7233,
       -20.94719999999999
      ],
      [
       -68.7291,
       -20.94889999999999
      ],
      [
       -68.7336,
       -20.9504
      ],
      [
       -68.7387,
       -20.951999999999998
      ],
      [
       -68.743,
       -20.9528
      ],
      [
       -68.743,
       -20.9558
      ],
      [
       -68.7427,
       -20.959699999999998
      ],
      [
       -68.74329999999999,
       -20.9616
      ],
      [
       -68.74419999999999,
       -20.9633
      ],
      [
       -68.7457,
       -20.964800000000007
      ],
      [
       -68.7469,
       -20.965999999999998
      ],
      [
       -68.7481,
       -20.9649
      ],
      [
       -68.7517,
       -20.9634
      ],
      [
       -68.7543,
       -20.963499999999993
      ],
      [
       -68.7559,
       -20.964499999999997
      ],
      [
       -68.7589,
       -20.9663
      ],
      [
       -68.7628,
       -20.9679
      ],
      [
       -68.7649,
       -20.969099999999997
      ],
      [
       -68.7657,
       -20.970299999999998
      ],
      [
       -68.7632,
       -20.972800000000007
      ],
      [
       -68.762,
       -20.975099999999998
      ],
      [
       -68.7608,
       -20.9778
      ],
      [
       -68.7581,
       -20.979900000000004
      ],
      [
       -68.75319999999999,
       -20.9792
      ],
      [
       -68.75099999999999,
       -20.9791
      ],
      [
       -68.7475,
       -20.979699999999998
      ],
      [
       -68.7451,
       -20.981400000000008
      ],
      [
       -68.74249999999999,
       -20.987200000000005
      ],
      [
       -68.7411,
       -20.990299999999998
      ],
      [
       -68.7387,
       -20.993699999999997
      ],
      [
       -68.7349,
       -20.996399999999998
      ],
      [
       -68.73049999999999,
       -20.9938
      ],
      [
       -68.7251,
       -20.990599999999993
      ],
      [
       -68.7203,
       -20.987199999999998
      ],
      [
       -68.7143,
       -20.9848
      ],
      [
       -68.7109,
       -20.9882
      ],
      [
       -68.7076,
       -20.99
      ],
      [
       -68.7028,
       -20.988700000000005
      ],
      [
       -68.6961,
       -20.989499999999992
      ],
      [
       -68.6878,
       -20.9875
      ],
      [
       -68.6858,
       -20.987199999999998
      ],
      [
       -68.6837,
       -20.9868
      ],
      [
       -68.6829,
       -20.9855
      ],
      [
       -68.6841,
       -20.98429999999999
      ],
      [
       -68.6845,
       -20.982500000000005
      ],
      [
       -68.6828,
       -20.981299999999997
      ],
      [
       -68.68119999999999,
       -20.980400000000007
      ],
      [
       -68.6797,
       -20.979900000000008
      ],
      [
       -68.6783,
       -20.979
      ],
      [
       -68.67779999999999,
       -20.977199999999993
      ],
      [
       -68.6792,
       -20.975099999999998
      ],
      [
       -68.6801,
       -20.9739
      ],
      [
       -68.682,
       -20.9725
      ],
      [
       -68.6806,
       -20.9723
      ],
      [
       -68.67909999999999,
       -20.970599999999997
      ],
      [
       -68.6785,
       -20.9697
      ],
      [
       -68.6775,
       -20.969199999999994
      ],
      [
       -68.6756,
       -20.969400000000007
      ],
      [
       -68.6721,
       -20.969599999999993
      ],
      [
       -68.67229999999999,
       -20.9683
      ],
      [
       -68.67399999999999,
       -20.966099999999997
      ],
      [
       -68.6764,
       -20.9641
      ],
      [
       -68.6785,
       -20.961499999999997
      ],
      [
       -68.6801,
       -20.959899999999998
      ],
      [
       -68.68249999999999,
       -20.958399999999997
      ],
      [
       -68.68509999999999,
       -20.9576
      ],
      [
       -68.688,
       -20.956899999999997
      ],
      [
       -68.69,
       -20.9557
      ],
      [
       -68.6927,
       -20.9557
      ],
      [
       -68.69449999999999,
       -20.9548
      ],
      [
       -68.6963,
       -20.9531
      ],
      [
       -68.6981,
       -20.9509
      ],
      [
       -68.69919999999999,
       -20.9495
      ],
      [
       -68.70049999999999,
       -20.947899999999997
      ],
      [
       -68.7025,
       -20.9468
      ],
      [
       -68.7045,
       -20.946900000000007
      ],
      [
       -68.7063,
       -20.946900000000007
      ],
      [
       -68.7076,
       -20.946199999999997
      ],
      [
       -68.7088,
       -20.945300000000003
      ],
      [
       -68.70989999999999,
       -20.944599999999998
      ],
      [
       -68.7113,
       -20.9436
      ],
      [
       -68.713,
       -20.942899999999998
      ],
      [
       -68.71549999999999,
       -20.942
      ]
     ]
    ]
   }
  },
  {
   "type": "Feature",
   "properties": {
    "fid": 3036,
    "iso3": "CHL",
    "area_km2": 1.1836
   },
   "geometry": {
    "type": "Polygon",
    "coordinates": [
     [
      [
       -68.71679999999999,
       -21.009
      ],
      [
       -68.71419999999999,
       -21.0093
      ],
      [
       -68.7127,
       -21.0084
      ],
      [
       -68.70989999999999,
       -21.0082
      ],
      [
       -68.71,
       -21.0095
      ],
      [
       -68.712,
       -21.01
      ],
      [
       -68.713,
       -21.011699999999998
      ],
      [
       -68.7136,
       -21.013299999999997
      ],
      [
       -68.7117,
       -21.014599999999998
      ],
      [
       -68.7084,
       -21.0138
      ],
      [
       -68.7077,
       -21.0112
      ],
      [
       -68.70389999999999,
       -21.0114
      ],
      [
       -68.7027,
       -21.0095
      ],
      [
       -68.7021,
       -21.0077
      ],
      [
       -68.70089999999999,
       -21.0046
      ],
      [
       -68.7019,
       -21.002399999999998
      ],
      [
       -68.705,
       -21.003000000000007
      ],
      [
       -68.7054,
       -21.005999999999993
      ],
      [
       -68.7072,
       -21.0065
      ],
      [
       -68.7079,
       -21.0036
      ],
      [
       -68.7102,
       -21.003200000000007
      ],
      [
       -68.7118,
       -21.003800000000002
      ],
      [
       -68.7147,
       -21.005499999999998
      ],
      [
       -68.715,
       -21.0062
      ],
      [
       -68.7164,
       -21.007199999999997
      ],
      [
       -68.7173,
       -21.0084
      ],
      [
       -68.71679999999999,
       -21.009
      ]
     ]
    ]
   }
  },
  {
   "type": "Feature",
   "properties": {
    "fid": 3037,
    "iso3": "CHL",
    "area_km2": 0.0417
   },
   "geometry": {
    "type": "Polygon",
    "coordinates": [
     [
      [
       -68.6983,
       -21.0013
      ],
      [
       -68.6986,
       -21.002399999999998
      ],
      [
       -68.698,
       -21.002399999999998
      ],
      [
       -68.69789999999999,
       -21.0031
      ],
      [
       -68.6972,
       -21.0031
      ],
      [
       -68.6959,
       -21.002
      ],
      [
       -68.6957,
       -21.001700000000007
      ],
      [
       -68.69619999999999,
       -21.001199999999997
      ],
      [
       -68.6972,
       -21.0013
      ],
      [
       -68.6983,
       -21.0013
      ]
     ]
    ]
   }
  },
  {
   "type": "Feature",
   "properties": {
    "fid": 3039,
    "iso3": "CHL",
    "area_km2": 24.8583
   },
   "geometry": {
    "type": "Polygon",
    "coordinates": [
     [
      [
       -68.6481,
       -20.9791
      ],
      [
       -68.6482,
       -20.982
      ],
      [
       -68.6505,
       -20.9869
      ],
      [
       -68.6541,
       -20.9927
      ],
      [
       -68.65559999999999,
       -20.997200000000003
      ],
      [
       -68.6529,
       -21.000399999999992
      ],
      [
       -68.6488,
       -21.003099999999993
      ],
      [
       -68.6455,
       -21.0076
      ],
      [
       -68.64,
       -21.0114
      ],
      [
       -68.6349,
       -21.013700000000004
      ],
      [
       -68.6292,
       -21.0138
      ],
      [
       -68.6227,
       -21.009700000000002
      ],
      [
       -68.61529999999999,
       -21.005499999999998
      ],
      [
       -68.6105,
       -21.002
      ],
      [
       -68.607,
       -20.996400000000005
      ],
      [
       -68.60889999999999,
       -20.9916
      ],
      [
       -68.60929999999999,
       -20.987399999999997
      ],
      [
       -68.59949999999999,
       -20.9855
      ],
      [
       -68.5921,
       -20.980999999999998
      ],
      [
       -68.58730000000001,
       -20.976199999999995
      ],
      [
       -68.58709999999999,
       -20.970399999999998
      ],
      [
       -68.5863,
       -20.9651
      ],
      [
       -68.5894,
       -20.961800000000007
      ],
      [
       -68.594,
       -20.9634
      ],
      [
       -68.59609999999999,
       -20.967400000000005
      ],
      [
       -68.6019,
       -20.9685
      ],
      [
       -68.60759999999999,
       -20.9626
      ],
      [
       -68.6124,
       -20.9608
      ],
      [
       -68.6206,
       -20.9622
      ],
      [
       -68.62729999999999,
       -20.964299999999998
      ],
      [
       -68.63210000000001,
       -20.967
      ],
      [
       -68.6349,
       -20.971400000000003
      ],
      [
       -68.6426,
       -20.973100000000002
      ],
      [
       -68.6481,
       -20.9791
      ]
     ]
    ]
   }
  },
  {
   "type": "Feature",
   "properties": {
    "fid": 25346,
    "iso3": "CHL",
    "area_km2": 0.1969
   },
   "geometry": {
    "type": "Polygon",
    "coordinates": [
     [
      [
       -68.640175,
       -20.945649
      ],
      [
       -68.642707,
       -20.94476699999999
      ],
      [
       -68.644252,
       -20.944927999999997
      ],
      [
       -68.64502399999999,
       -20.946611
      ],
      [
       -68.644896,
       -20.948735
      ],
      [
       -68.641977,
       -20.949897
      ],
      [
       -68.640175,
       -20.945649
      ]
     ]
    ]
   }
  },
  {
   "type": "Feature",
   "properties": {
    "fid": 3009,
    "iso3": "CHL",
    "area_km2": 19.2285
   },
   "geometry": {
    "type": "Polygon",
    "coordinates": [
     [
      [
       -68.6177,
       -20.926500000000008
      ],
      [
       -68.6206,
       -20.930200000000003
      ],
      [
       -68.622,
       -20.9331
      ],
      [
       -68.62389999999999,
       -20.9358
      ],
      [
       -68.6246,
       -20.939799999999995
      ],
      [
       -68.6266,
       -20.9424
      ],
      [
       -68.6287,
       -20.944399999999998
      ],
      [
       -68.6283,
       -20.947
      ],
      [
       -68.62989999999999,
       -20.9486
      ],
      [
       -68.63369999999999,
       -20.949099999999998
      ],
      [
       -68.63499999999999,
       -20.9464
      ],
      [
       -68.63790000000002,
       -20.947799999999997
      ],
      [
       -68.6407,
       -20.950099999999992
      ],
      [
       -68.63969999999999,
       -20.9528
      ],
      [
       -68.63470000000001,
       -20.955
      ],
      [
       -68.6294,
       -20.95809999999999
      ],
      [
       -68.6232,
       -20.958099999999998
      ],
      [
       -68.6201,
       -20.9576
      ],
      [
       -68.6146,
       -20.9571
      ],
      [
       -68.6112,
       -20.957400000000003
      ],
      [
       -68.6048,
       -20.957800000000006
      ],
      [
       -68.59949999999999,
       -20.9573
      ],
      [
       -68.5949,
       -20.956500000000005
      ],
      [
       -68.5878,
       -20.9558
      ],
      [
       -68.5815,
       -20.953900000000004
      ],
      [
       -68.578,
       -20.950700000000005
      ],
      [
       -68.57549999999999,
       -20.946900000000007
      ],
      [
       -68.5737,
       -20.940900000000003
      ],
      [
       -68.5756,
       -20.935800000000004
      ],
      [
       -68.5773,
       -20.932299999999998
      ],
      [
       -68.5789,
       -20.9291
      ],
      [
       -68.5792,
       -20.925200000000007
      ],
      [
       -68.5803,
       -20.922200000000007
      ],
      [
       -68.582,
       -20.918599999999998
      ],
      [
       -68.5842,
       -20.9162
      ],
      [
       -68.5876,
       -20.9156
      ],
      [
       -68.59,
       -20.917799999999993
      ],
      [
       -68.5916,
       -20.9199
      ],
      [
       -68.5933,
       -20.9225
      ],
      [
       -68.5949,
       -20.9238
      ],
      [
       -68.59729999999999,
       -20.925400000000007
      ],
      [
       -68.6028,
       -20.9266
      ],
      [
       -68.60810000000001,
       -20.9281
      ],
      [
       -68.61189999999999,
       -20.928300000000004
      ],
      [
       -68.6177,
       -20.926500000000008
      ]
     ]
    ]
   }
  },
  {
   "type": "Feature",
   "properties": {
    "fid": 25345,
    "iso3": "CHL",
    "area_km2": 0.3887
   },
   "geometry": {
    "type": "Polygon",
    "coordinates": [
     [
      [
       -68.625627,
       -20.936550999999994
      ],
      [
       -68.62901699999999,
       -20.936912
      ],
      [
       -68.630605,
       -20.938435
      ],
      [
       -68.633394,
       -20.941760999999993
      ],
      [
       -68.629832,
       -20.944166
      ],
      [
       -68.62875900000002,
       -20.943645000000004
      ],
      [
       -68.625884,
       -20.939757000000004
      ],
      [
       -68.625627,
       -20.936550999999994
      ]
     ]
    ]
   }
  }
 ],
 "license": "CC-BY-SA-4.0",
 "attribution": "Maus et al. 2022 (doi:10.1594/PANGAEA.942325)"
}
