{
 "type": "FeatureCollection",
 "features": [
  {
   "type": "Feature",
   "properties": {
    "fid": 19103,
    "iso3": "RUS",
    "area_km2": 0.3931
   },
   "geometry": {
    "type": "Polygon",
    "coordinates": [
     [
      [
       112.2516,
       66.3783
      ],
      [
       112.23979999999999,
       66.3787
      ],
      [
       112.23949999999999,
       66.3772
      ],
      [
       112.23689999999999,
       66.377
      ],
      [
       112.23649999999999,
       66.3741
      ],
      [
       112.24749999999999,
       66.3738
      ],
      [
       112.2477,
       66.3728
      ],
      [
       112.2495,
       66.3728
      ],
      [
       112.2515,
       66.3731
      ],
      [
       112.25229999999999,
       66.37389999999999
      ],
      [
       112.25529999999999,
       66.3737
      ],
      [
       112.2558,
       66.37429999999999
      ],
      [
       112.2556,
       66.3749
      ],
      [
       112.2551,
       66.3753
      ],
      [
       112.2546,
       66.3757
      ],
      [
       112.2516,
       66.3783
      ]
     ]
    ]
   }
  },
  {
   "type": "Feature",
   "properties": {
    "fid": 19106,
    "iso3": "RUS",
    "area_km2": 0.1749
   },
   "geometry": {
    "type": "Polygon",
    "coordinates": [
     [
      [
       112.2349,
       66.4293
      ],
      [
       112.2355,
       66.4296
      ],
      [
       112.2361,
       66.4295
      ],
      [
       112.2368,
       66.4295
      ],
      [
       112.23740000000001,
       66.4295
      ],
      [
       112.23819999999999,
       66.4296
      ],
      [
       112.2392,
       66.4298
      ],
      [
       112.2394,
       66.4301
      ],
      [
       112.2394,
       66.43039999999999
      ],
      [
       112.2389,
       66.4307
      ],
      [
       112.23819999999999,
       66.4311
      ],
      [
       112.2375,
       66.4312
      ],
      [
       112.23639999999999,
       66.4315
      ],
      [
       112.2353,
       66.4315
      ],
      [
       112.2345,
       66.4313
      ],
      [
       112.2337,
       66.4312
      ],
      [
       112.2323,
       66.4312
      ],
      [
       112.23079999999999,
       66.431
      ],
      [
       112.2282,
       66.4319
      ],
      [
       112.228,
       66.4323
      ],
      [
       112.22789999999999,
       66.4328
      ],
      [
       112.2271,
       66.4332
      ],
      [
       112.22619999999999,
       66.4333
      ],
      [
       112.22529999999999,
       66.43339999999999
      ],
      [
       112.2242,
       66.4336
      ],
      [
       112.2234,
       66.4337
      ],
      [
       112.2224,
       66.4337
      ],
      [
       112.2217,
       66.4337
      ],
      [
       112.2209,
       66.4336
      ],
      [
       112.2203,
       66.4333
      ],
      [
       112.22009999999999,
       66.4329
      ],
      [
       112.2203,
       66.43249999999999
      ],
      [
       112.22099999999999,
       66.4319
      ],
      [
       112.22189999999999,
       66.4315
      ],
      [
       112.22309999999999,
       66.4313
      ],
      [
       112.2271,
       66.4306
      ],
      [
       112.231,
       66.42999999999999
      ],
      [
       112.23179999999999,
       66.4299
      ],
      [
       112.2323,
       66.4296
      ],
      [
       112.2327,
       66.4294
      ],
      [
       112.23379999999999,
       66.4292
      ],
      [
       112.2349,
       66.4293
      ]
     ]
    ]
   }
  },
  {
   "type": "Feature",
   "properties": {
    "fid": 19104,
    "iso3": "RUS",
    "area_km2": 0.1409
   },
   "geometry": {
    "type": "Polygon",
    "coordinates": [
     [
      [
       112.39779999999999,
       66.45989999999999
      ],
      [
       112.39399999999999,
       66.4566
      ],
      [
       112.4015,
       66.4555
      ],
      [
       112.4052,
       66.45870000000001
      ],
      [
       112.39779999999999,
       66.45989999999999
      ]
     ]
    ]
   }
  },
  {
   "type": "Feature",
   "properties": {
    "fid": 44620,
    "iso3": "RUS",
    "area_km2": 50.2066
   },
   "geometry": {
    "type": "Polygon",
    "coordinates": [
     [
      [
       112.3855,
       66.3539
      ],
      [
       112.3865,
       66.3597
      ],
      [
       112.38289999999999,
       66.3672
      ],
      [
       112.3793,
       66.3703
      ],
      [
       112.3694,
       66.3727
      ],
      [
       112.3531,
       66.3721
      ],
      [
       112.3414,
       66.37169999999999
      ],
      [
       112.327,
       66.3741
      ],
      [
       112.3202985484836,
       66.37573332101671
      ],
      [
       112.31762789335923,
       66.38515770524454
      ],
      [
       112.31739999999999,
       66.3885
      ],
      [
       112.31739999999999,
       66.3903
      ],
      [
       112.3307,
       66.393
      ],
      [
       112.3347,
       66.3962
      ],
      [
       112.3385,
       66.3984
      ],
      [
       112.34169999999999,
       66.4014
      ],
      [
       112.3436,
       66.4029
      ],
      [
       112.34639999999999,
       66.4046
      ],
      [
       112.3505,
       66.4054
      ],
      [
       112.35239999999999,
       66.40599999999999
      ],
      [
       112.35679999999999,
       66.4084
      ],
      [
       112.3663,
       66.40769999999999
      ],
      [
       112.3706,
       66.40870000000001
      ],
      [
       112.3706,
       66.4094501826594
      ],
      [
       112.3713691,
       66.4093597
      ],
      [
       112.376824,
       66.4120092
      ],
      [
       112.37971832331486,
       66.41293544324145
      ],
      [
       112.39649999999999,
       66.4071
      ],
      [
       112.4037,
       66.4104
      ],
      [
       112.39290037567626,
       66.41744438969168
      ],
      [
       112.3938122,
       66.4177759
      ],
      [
       112.3995788,
       66.41839929999999
      ],
      [
       112.4031634,
       66.4160615
      ],
      [
       112.40752739999999,
       66.4162173
      ],
      [
       112.4098652,
       66.4201137
      ],
      [
       112.4114237,
       66.4238542
      ],
      [
       112.4129823,
       66.4266596
      ],
      [
       112.40970929999999,
       66.4314911
      ],
      [
       112.40643639999999,
       66.4336731
      ],
      [
       112.39989050000001,
       66.4364784
      ],
      [
       112.3953707,
       66.4399072
      ],
      [
       112.3903834,
       66.44162159999999
      ],
      [
       112.37230419999999,
       66.44863509999999
      ],
      [
       112.3651349,
       66.4506612
      ],
      [
       112.35469259999999,
       66.4515964
      ],
      [
       112.3481467,
       66.45393419999999
      ],
      [
       112.34331519999999,
       66.4559603
      ],
      [
       112.33817200000001,
       66.4565837
      ],
      [
       112.33193779999999,
       66.457363
      ],
      [
       112.32383340000001,
       66.4582981
      ],
      [
       112.3035723,
       66.4589215
      ],
      [
       112.2926624,
       66.4587657
      ],
      [
       112.29211803177549,
       66.45858426306732
      ],
      [
       112.292,
       66.45859999999999
      ],
      [
       112.2903,
       66.45870000000001
      ],
      [
       112.289,
       66.45870000000001
      ],
      [
       112.2875,
       66.45859999999999
      ],
      [
       112.2861,
       66.4585
      ],
      [
       112.28529999999999,
       66.45819999999999
      ],
      [
       112.2848,
       66.4581
      ],
      [
       112.2841,
       66.4577
      ],
      [
       112.28359999999999,
       66.45689999999999
      ],
      [
       112.2834,
       66.4566
      ],
      [
       112.28219999999999,
       66.456
      ],
      [
       112.2804,
       66.456
      ],
      [
       112.2774,
       66.45519999999999
      ],
      [
       112.2764,
       66.4548
      ],
      [
       112.2756,
       66.4547
      ],
      [
       112.2743,
       66.4545
      ],
      [
       112.2727,
       66.45439999999999
      ],
      [
       112.27149999999999,
       66.4541
      ],
      [
       112.2704,
       66.45389999999999
      ],
      [
       112.26920000000001,
       66.4534
      ],
      [
       112.267,
       66.4532
      ],
      [
       112.2662,
       66.4526
      ],
      [
       112.26559999999999,
       66.4517
      ],
      [
       112.26549999999999,
       66.45009999999999
      ],
      [
       112.26559999999999,
       66.44969999999999
      ],
      [
       112.2662,
       66.449
      ],
      [
       112.26719999999999,
       66.4481
      ],
      [
       112.2673,
       66.44749999999999
      ],
      [
       112.2654,
       66.44619999999999
      ],
      [
       112.26509999999999,
       66.4451
      ],
      [
       112.26509999999999,
       66.4439
      ],
      [
       112.2652,
       66.44279999999999
      ],
      [
       112.2659,
       66.44149999999999
      ],
      [
       112.2673,
       66.44069999999999
      ],
      [
       112.2713,
       66.439
      ],
      [
       112.2695,
       66.4387
      ],
      [
       112.26790000000001,
       66.4384
      ],
      [
       112.2667,
       66.43809999999999
      ],
      [
       112.266,
       66.4376
      ],
      [
       112.26559999999999,
       66.4371
      ],
      [
       112.2657,
       66.4365
      ],
      [
       112.2667,
       66.4357
      ],
      [
       112.26769999999999,
       66.4352
      ],
      [
       112.2686,
       66.4348
      ],
      [
       112.2696,
       66.43419999999999
      ],
      [
       112.2708,
       66.43379999999999
      ],
      [
       112.2727,
       66.43339999999999
      ],
      [
       112.27311038424656,
       66.43337264255979
      ],
      [
       112.2728689,
       66.4318028
      ],
      [
       112.2720896,
       66.4293091
      ],
      [
       112.27006349999999,
       66.4263479
      ],
      [
       112.266323,
       66.4226074
      ],
      [
       112.26566454818133,
       66.42183455194929
      ],
      [
       112.2619,
       66.4211
      ],
      [
       112.2576,
       66.4192
      ],
      [
       112.25659999999999,
       66.4181
      ],
      [
       112.2554,
       66.4185
      ],
      [
       112.25439999999999,
       66.4194
      ],
      [
       112.25040000000001,
       66.4194
      ],
      [
       112.24889999999999,
       66.4187
      ],
      [
       112.24709999999999,
       66.4187
      ],
      [
       112.2453,
       66.419
      ],
      [
       112.24369999999999,
       66.4196
      ],
      [
       112.23979999999999,
       66.4196
      ],
      [
       112.23979999999999,
       66.4182
      ],
      [
       112.23819999999999,
       66.4166
      ],
      [
       112.23819999999999,
       66.4153
      ],
      [
       112.235,
       66.4146
      ],
      [
       112.2327,
       66.41320000000002
      ],
      [
       112.2312,
       66.4121
      ],
      [
       112.2303,
       66.4109
      ],
      [
       112.2277,
       66.4104
      ],
      [
       112.2235,
       66.4102
      ],
      [
       112.2235,
       66.4082
      ],
      [
       112.24539999999999,
       66.4071
      ],
      [
       112.2507,
       66.408
      ],
      [
       112.25739999999999,
       66.4095
      ],
      [
       112.2605,
       66.4101
      ],
      [
       112.261,
       66.4118
      ],
      [
       112.2641,
       66.4125
      ],
      [
       112.2657,
       66.413
      ],
      [
       112.26719999999999,
       66.414
      ],
      [
       112.26809999999999,
       66.4152
      ],
      [
       112.2683,
       66.4169
      ],
      [
       112.27289999999999,
       66.4183
      ],
      [
       112.27282969363681,
       66.41853905569593
      ],
      [
       112.273804,
       66.418711
      ],
      [
       112.2772328,
       66.4210488
      ],
      [
       112.2814409,
       66.4207371
      ],
      [
       112.2825319,
       66.4173083
      ],
      [
       112.2815968,
       66.41419119999999
      ],
      [
       112.28138562968977,
       66.41376891337006
      ],
      [
       112.2799,
       66.41279999999999
      ],
      [
       112.28018358318297,
       66.41219234380311
      ],
      [
       112.2798823,
       66.4118534
      ],
      [
       112.2795706,
       66.4096714
      ],
      [
       112.2797265,
       66.4092039
      ],
      [
       112.2806616,
       66.4082687
      ],
      [
       112.28284359999999,
       66.4076453
      ],
      [
       112.28424629999999,
       66.4076453
      ],
      [
       112.2865841,
       66.4071778
      ],
      [
       112.2873634,
       66.40671019999999
      ],
      [
       112.2881426,
       66.4051516
      ],
      [
       112.28845439999999,
       66.4029697
      ],
      [
       112.28876609999999,
       66.4007877
      ],
      [
       112.2890778,
       66.3995409
      ],
      [
       112.2890778,
       66.3978265
      ],
      [
       112.2904805,
       66.3964238
      ],
      [
       112.29780559999999,
       66.3959562
      ],
      [
       112.3026371,
       66.3950211
      ],
      [
       112.3082479,
       66.392995
      ],
      [
       112.3084038,
       66.392995
      ],
      [
       112.3107,
       66.39017708285255
      ],
      [
       112.3107,
       66.39
      ],
      [
       112.3119,
       66.38539999999999
      ],
      [
       112.3134,
       66.3835
      ],
      [
       112.31354838553652,
       66.3835207074107
      ],
      [
       112.31490840176448,
       66.37689106712963
      ],
      [
       112.30999999999999,
       66.3741
      ],
      [
       112.2918,
       66.3635
      ],
      [
       112.2851,
       66.35119999999999
      ],
      [
       112.30669999999999,
       66.3458
      ],
      [
       112.318,
       66.3454
      ],
      [
       112.3287,
       66.3444
      ],
      [
       112.32589999999999,
       66.3374
      ],
      [
       112.3352,
       66.33619999999999
      ],
      [
       112.34089999999999,
       66.3363
      ],
      [
       112.3596,
       66.3334
      ],
      [
       112.37039999999999,
       66.33470000000001
      ],
      [
       112.3759,
       66.3352
      ],
      [
       112.3791,
       66.33619999999999
      ],
      [
       112.3776,
       66.3381
      ],
      [
       112.3742,
       66.3398
      ],
      [
       112.3716,
       66.3412
      ],
      [
       112.3714,
       66.3427
      ],
      [
       112.37500000000001,
       66.3445
      ],
      [
       112.3855,
       66.3481
      ],
      [
       112.3855,
       66.3539
      ]
     ]
    ]
   }
  }
 ],
 "license": "CC-BY-SA-4.0",
 "attribution": "Maus et al. 2022 (doi:10.1594/PANGAEA.942325)"
}
