{
 "type": "FeatureCollection",
 "features": [
  {
   "type": "Feature",
   "properties": {
    "fid": 1909,
    "iso3": "CHL",
    "area_km2": 38.4814
   },
   "geometry": {
    "type": "Polygon",
    "coordinates": [
     [
      [
       -70.249,
       -33.122499999999995
      ],
      [
       -70.2559,
       -33.1234
      ],
      [
       -70.2621,
       -33.1229
      ],
      [
       -70.2666,
       -33.1244
      ],
      [
       -70.2727,
       -33.1242
      ],
      [
       -70.2765,
       -33.1229
      ],
      [
       -70.28009999999999,
       -33.123599999999996
      ],
      [
       -70.28309999999999,
       -33.128099999999996
      ],
      [
       -70.2847,
       -33.1319
      ],
      [
       -70.2838,
       -33.134
      ],
      [
       -70.2854,
       -33.1372
      ],
      [
       -70.2883,
       -33.1358
      ],
      [
       -70.2959,
       -33.1349
      ],
      [
       -70.2979,
       -33.1425
      ],
      [
       -70.3027,
       -33.15
      ],
      [
       -70.30449999999999,
       -33.1538
      ],
      [
       -70.3133,
       -33.1616
      ],
      [
       -70.3219,
       -33.1642
      ],
      [
       -70.3252,
       -33.164
      ],
      [
       -70.3295,
       -33.166599999999995
      ],
      [
       -70.328,
       -33.1616
      ],
      [
       -70.33109999999999,
       -33.15559999999999
      ],
      [
       -70.33189999999999,
       -33.13830000000001
      ],
      [
       -70.34049999999999,
       -33.1184
      ],
      [
       -70.3455,
       -33.108100000000015
      ],
      [
       -70.34949999999999,
       -33.11
      ],
      [
       -70.351,
       -33.1171
      ],
      [
       -70.3458,
       -33.1235
      ],
      [
       -70.3368,
       -33.1348
      ],
      [
       -70.3338,
       -33.146499999999996
      ],
      [
       -70.33539999999999,
       -33.1584
      ],
      [
       -70.34009999999999,
       -33.1687
      ],
      [
       -70.33919999999999,
       -33.1787
      ],
      [
       -70.34259999999999,
       -33.19870000000001
      ],
      [
       -70.3442,
       -33.2117
      ],
      [
       -70.3505,
       -33.2222
      ],
      [
       -70.3494,
       -33.2295
      ],
      [
       -70.3454,
       -33.234899999999996
      ],
      [
       -70.3425,
       -33.2281
      ],
      [
       -70.3397,
       -33.22049999999999
      ],
      [
       -70.3355,
       -33.1766
      ],
      [
       -70.3356,
       -33.17
      ],
      [
       -70.3317,
       -33.168000000000006
      ],
      [
       -70.33489999999999,
       -33.1714
      ],
      [
       -70.3335,
       -33.1762
      ],
      [
       -70.32939999999999,
       -33.17630000000001
      ],
      [
       -70.3241,
       -33.177099999999996
      ],
      [
       -70.313,
       -33.175399999999996
      ],
      [
       -70.30579999999999,
       -33.172699999999985
      ],
      [
       -70.297,
       -33.1682
      ],
      [
       -70.2875,
       -33.1622
      ],
      [
       -70.2843,
       -33.1659
      ],
      [
       -70.2808,
       -33.174
      ],
      [
       -70.27499999999999,
       -33.17630000000001
      ],
      [
       -70.2665,
       -33.18029999999999
      ],
      [
       -70.25529999999999,
       -33.1777
      ],
      [
       -70.2486,
       -33.17699999999999
      ],
      [
       -70.24549999999999,
       -33.1736
      ],
      [
       -70.2423,
       -33.1672
      ],
      [
       -70.2415,
       -33.16
      ],
      [
       -70.23219999999999,
       -33.156699999999994
      ],
      [
       -70.235,
       -33.1506
      ],
      [
       -70.2392,
       -33.1472
      ],
      [
       -70.2458,
       -33.141999999999996
      ],
      [
       -70.2529,
       -33.141400000000004
      ],
      [
       -70.2559,
       -33.133700000000005
      ],
      [
       -70.2538,
       -33.12999999999999
      ],
      [
       -70.249,
       -33.122499999999995
      ]
     ]
    ]
   }
  },
  {
   "type": "Feature",
   "properties": {
    "fid": 1910,
    "iso3": "CHL",
    "area_km2": 2.3745
   },
   "geometry": {
    "type": "Polygon",
    "coordinates": [
     [
      [
       -70.3172,
       -33.1493
      ],
      [
       -70.3235,
       -33.1569
      ],
      [
       -70.3253,
       -33.1627
      ],
      [
       -70.3172,
       -33.1532
      ],
      [
       -70.3117,
       -33.1498
      ],
      [
       -70.3047,
       -33.1524
      ],
      [
       -70.2989,
       -33.142700000000005
      ],
      [
       -70.3074,
       -33.1396
      ],
      [
       -70.3117,
       -33.1326
      ],
      [
       -70.315,
       -33.1282
      ],
      [
       -70.31689999999999,
       -33.1304
      ],
      [
       -70.3147,
       -33.1356
      ],
      [
       -70.31309999999999,
       -33.1429
      ],
      [
       -70.3172,
       -33.1493
      ]
     ]
    ]
   }
  },
  {
   "type": "Feature",
   "properties": {
    "fid": 1914,
    "iso3": "CHL",
    "area_km2": 1.9973
   },
   "geometry": {
    "type": "Polygon",
    "coordinates": [
     [
      [
       -70.2563,
       -33.0987
      ],
      [
       -70.25319999999999,
       -33.108
      ],
      [
       -70.2515,
       -33.11499999999999
      ],
      [
       -70.2521,
       -33.121800000000015
      ],
      [
       -70.24849999999999,
       -33.1225
      ],
      [
       -70.2478,
       -33.1142
      ],
      [
       -70.2474,
       -33.1103
      ],
      [
       -70.2495,
       -33.1064
      ],
      [
       -70.2512,
       -33.102
      ],
      [
       -70.2512,
       -33.0973
      ],
      [
       -70.2537,
       -33.09090000000001
      ],
      [
       -70.2539,
       -33.088300000000004
      ],
      [
       -70.2515,
       -33.0848
      ],
      [
       -70.25269999999999,
       -33.08040000000001
      ],
      [
       -70.2534,
       -33.07659999999999
      ],
      [
       -70.2541,
       -33.0717
      ],
      [
       -70.25569999999999,
       -33.0717
      ],
      [
       -70.2571,
       -33.072199999999995
      ],
      [
       -70.25659999999999,
       -33.076699999999995
      ],
      [
       -70.2556,
       -33.08
      ],
      [
       -70.2561,
       -33.084700000000005
      ],
      [
       -70.2563,
       -33.089
      ],
      [
       -70.2565,
       -33.0943
      ],
      [
       -70.2563,
       -33.0987
      ]
     ]
    ]
   }
  }
 ],
 "license": "CC-BY-SA-4.0",
 "attribution": "Maus et al. 2022 (doi:10.1594/PANGAEA.942325)"
}
