{
 "type": "FeatureCollection",
 "features": [
  {
   "type": "Feature",
   "properties": {
    "fid": 3001,
    "iso3": "CHL",
    "area_km2": 0.2123
   },
   "geometry": {
    "type": "Polygon",
    "coordinates": [
     [
      [
       -68.8502,
       -20.97219999999999
      ],
      [
       -68.8507,
       -20.9717
      ],
      [
       -68.8513,
       -20.9713
      ],
      [
       -68.8517,
       -20.971400000000006
      ],
      [
       -68.8519,
       -20.9716
      ],
      [
       -68.852,
       -20.97199999999999
      ],
      [
       -68.85159999999999,
       -20.973100000000002
      ],
      [
       -68.85119999999999,
       -20.9738
      ],
      [
       -68.8506,
       -20.9745
      ],
      [
       -68.8502,
       -20.974999999999998
      ],
      [
       -68.8498,
       -20.9755
      ],
      [
       -68.8501,
       -20.9761
      ],
      [
       -68.8498,
       -20.976800000000008
      ],
      [
       -68.84949999999999,
       -20.977500000000006
      ],
      [
       -68.849,
       -20.978099999999998
      ],
      [
       -68.84859999999999,
       -20.9791
      ],
      [
       -68.84819999999999,
       -20.9794
      ],
      [
       -68.8475,
       -20.979499999999998
      ],
      [
       -68.8467,
       -20.979699999999998
      ],
      [
       -68.8457,
       -20.980000000000004
      ],
      [
       -68.8451,
       -20.980000000000004
      ],
      [
       -68.8445,
       -20.9803
      ],
      [
       -68.8438,
       -20.979900000000008
      ],
      [
       -68.8437,
       -20.97959999999999
      ],
      [
       -68.84389999999999,
       -20.9793
      ],
      [
       -68.84429999999999,
       -20.979100000000006
      ],
      [
       -68.8445,
       -20.9793
      ],
      [
       -68.845,
       -20.97929999999999
      ],
      [
       -68.8454,
       -20.9792
      ],
      [
       -68.8459,
       -20.9789
      ],
      [
       -68.8466,
       -20.978099999999998
      ],
      [
       -68.84689999999999,
       -20.9776
      ],
      [
       -68.8474,
       -20.976699999999997
      ],
      [
       -68.84779999999999,
       -20.97619999999999
      ],
      [
       -68.8484,
       -20.975300000000008
      ],
      [
       -68.849,
       -20.9745
      ],
      [
       -68.84909999999999,
       -20.9741
      ],
      [
       -68.8497,
       -20.973499999999998
      ],
      [
       -68.8502,
       -20.97219999999999
      ]
     ]
    ]
   }
  },
  {
   "type": "Feature",
   "properties": {
    "fid": 3025,
    "iso3": "CHL",
    "area_km2": 18.0991
   },
   "geometry": {
    "type": "Polygon",
    "coordinates": [
     [
      [
       -68.81909999999999,
       -20.9808
      ],
      [
       -68.81989999999999,
       -20.9806
      ],
      [
       -68.8205,
       -20.9805
      ],
      [
       -68.82079999999999,
       -20.980999999999998
      ],
      [
       -68.8209,
       -20.9814
      ],
      [
       -68.82119999999999,
       -20.982
      ],
      [
       -68.8218,
       -20.982099999999992
      ],
      [
       -68.82209999999999,
       -20.982799999999994
      ],
      [
       -68.8223,
       -20.9836
      ],
      [
       -68.8228,
       -20.9845
      ],
      [
       -68.8235,
       -20.985599999999998
      ],
      [
       -68.8239,
       -20.986100000000008
      ],
      [
       -68.8244,
       -20.9866
      ],
      [
       -68.82509999999999,
       -20.987599999999997
      ],
      [
       -68.8257,
       -20.98849999999999
      ],
      [
       -68.82639999999999,
       -20.989700000000003
      ],
      [
       -68.82639999999999,
       -20.9909
      ],
      [
       -68.82639999999999,
       -20.9923
      ],
      [
       -68.8263,
       -20.993499999999997
      ],
      [
       -68.8257,
       -20.994799999999998
      ],
      [
       -68.82549999999999,
       -20.9954
      ],
      [
       -68.82549999999999,
       -20.99619999999999
      ],
      [
       -68.826,
       -20.9973
      ],
      [
       -68.8265,
       -20.9982
      ],
      [
       -68.82719999999999,
       -20.9991
      ],
      [
       -68.8274,
       -20.9998
      ],
      [
       -68.82719999999999,
       -21.0007
      ],
      [
       -68.8266,
       -21.001600000000007
      ],
      [
       -68.82639999999999,
       -21.002399999999998
      ],
      [
       -68.8265,
       -21.0035
      ],
      [
       -68.8271,
       -21.0045
      ],
      [
       -68.8276,
       -21.0059
      ],
      [
       -68.82719999999999,
       -21.006800000000005
      ],
      [
       -68.8274,
       -21.0083
      ],
      [
       -68.8284,
       -21.00979999999999
      ],
      [
       -68.82889999999999,
       -21.010800000000007
      ],
      [
       -68.8293,
       -21.0114
      ],
      [
       -68.83,
       -21.012499999999992
      ],
      [
       -68.831,
       -21.0134
      ],
      [
       -68.8322,
       -21.014099999999996
      ],
      [
       -68.83260000000001,
       -21.014599999999998
      ],
      [
       -68.8322,
       -21.014999999999997
      ],
      [
       -68.83189999999999,
       -21.015700000000002
      ],
      [
       -68.83200000000001,
       -21.0166
      ],
      [
       -68.83279999999999,
       -21.017700000000005
      ],
      [
       -68.83359999999999,
       -21.019099999999998
      ],
      [
       -68.8342,
       -21.020200000000006
      ],
      [
       -68.83539999999999,
       -21.0215
      ],
      [
       -68.8355,
       -21.0229
      ],
      [
       -68.83239999999999,
       -21.0236
      ],
      [
       -68.8301,
       -21.023
      ],
      [
       -68.8295,
       -21.0233
      ],
      [
       -68.8292,
       -21.023699999999998
      ],
      [
       -68.8284,
       -21.023699999999998
      ],
      [
       -68.8276,
       -21.023799999999998
      ],
      [
       -68.8269,
       -21.0244
      ],
      [
       -68.8267,
       -21.025500000000005
      ],
      [
       -68.8269,
       -21.0263
      ],
      [
       -68.8262,
       -21.026799999999998
      ],
      [
       -68.8248,
       -21.0263
      ],
      [
       -68.8228,
       -21.025499999999997
      ],
      [
       -68.8216,
       -21.0245
      ],
      [
       -68.8213,
       -21.0251
      ],
      [
       -68.82079999999999,
       -21.0259
      ],
      [
       -68.8201,
       -21.0265
      ],
      [
       -68.8186,
       -21.0266
      ],
      [
       -68.81779999999999,
       -21.0259
      ],
      [
       -68.8167,
       -21.025600000000004
      ],
      [
       -68.8158,
       -21.025299999999998
      ],
      [
       -68.815,
       -21.0251
      ],
      [
       -68.8137,
       -21.02489999999999
      ],
      [
       -68.81269999999999,
       -21.024500000000007
      ],
      [
       -68.81219999999999,
       -21.023699999999998
      ],
      [
       -68.8119,
       -21.0234
      ],
      [
       -68.8117,
       -21.0229
      ],
      [
       -68.812,
       -21.02239999999999
      ],
      [
       -68.8126,
       -21.021999999999995
      ],
      [
       -68.813,
       -21.0214
      ],
      [
       -68.81250000000001,
       -21.0211
      ],
      [
       -68.8119,
       -21.021
      ],
      [
       -68.81139999999999,
       -21.020400000000002
      ],
      [
       -68.8111,
       -21.0198
      ],
      [
       -68.81120000000001,
       -21.019
      ],
      [
       -68.81139999999999,
       -21.0182
      ],
      [
       -68.8108,
       -21.017799999999998
      ],
      [
       -68.80990000000001,
       -21.017899999999997
      ],
      [
       -68.809,
       -21.0184
      ],
      [
       -68.8079,
       -21.019
      ],
      [
       -68.807,
       -21.019500000000008
      ],
      [
       -68.8055,
       -21.02
      ],
      [
       -68.8039,
       -21.020599999999998
      ],
      [
       -68.80239999999999,
       -21.020599999999998
      ],
      [
       -68.8012,
       -21.021
      ],
      [
       -68.8005,
       -21.0216
      ],
      [
       -68.7996,
       -21.0216
      ],
      [
       -68.7993,
       -21.0211
      ],
      [
       -68.7989,
       -21.020400000000002
      ],
      [
       -68.7992,
       -21.019700000000007
      ],
      [
       -68.8001,
       -21.0195
      ],
      [
       -68.8018,
       -21.019299999999998
      ],
      [
       -68.80239999999999,
       -21.019
      ],
      [
       -68.8033,
       -21.0189
      ],
      [
       -68.8034,
       -21.0195
      ],
      [
       -68.8048,
       -21.019099999999998
      ],
      [
       -68.8063,
       -21.0188
      ],
      [
       -68.8066,
       -21.0183
      ],
      [
       -68.8072,
       -21.018
      ],
      [
       -68.8076,
       -21.0175
      ],
      [
       -68.8063,
       -21.017700000000005
      ],
      [
       -68.8051,
       -21.0175
      ],
      [
       -68.8053,
       -21.016800000000007
      ],
      [
       -68.80619999999999,
       -21.0169
      ],
      [
       -68.8064,
       -21.016299999999998
      ],
      [
       -68.8068,
       -21.016199999999998
      ],
      [
       -68.8074,
       -21.016199999999998
      ],
      [
       -68.80799999999999,
       -21.0156
      ],
      [
       -68.80860000000001,
       -21.014999999999997
      ],
      [
       -68.809,
       -21.014799999999997
      ],
      [
       -68.80919999999999,
       -21.0143
      ],
      [
       -68.8091,
       -21.0136
      ],
      [
       -68.8085,
       -21.0134
      ],
      [
       -68.80799999999999,
       -21.013499999999997
      ],
      [
       -68.80730000000001,
       -21.013500000000004
      ],
      [
       -68.8067,
       -21.013499999999997
      ],
      [
       -68.8055,
       -21.013299999999997
      ],
      [
       -68.80449999999999,
       -21.01319999999999
      ],
      [
       -68.80369999999999,
       -21.0134
      ],
      [
       -68.8025,
       -21.013199999999994
      ],
      [
       -68.80109999999999,
       -21.01309999999999
      ],
      [
       -68.7996,
       -21.0123
      ],
      [
       -68.7988,
       -21.0123
      ],
      [
       -68.7979,
       -21.012599999999992
      ],
      [
       -68.7962,
       -21.0121
      ],
      [
       -68.7957,
       -21.01309999999999
      ],
      [
       -68.79549999999999,
       -21.014
      ],
      [
       -68.7959,
       -21.0152
      ],
      [
       -68.7958,
       -21.016199999999998
      ],
      [
       -68.7958,
       -21.0171
      ],
      [
       -68.7952,
       -21.0179
      ],
      [
       -68.79469999999999,
       -21.019
      ],
      [
       -68.794,
       -21.021
      ],
      [
       -68.7928,
       -21.022100000000005
      ],
      [
       -68.7912,
       -21.022499999999997
      ],
      [
       -68.7892,
       -21.022599999999994
      ],
      [
       -68.7875,
       -21.02239999999999
      ],
      [
       -68.78650000000002,
       -21.0223
      ],
      [
       -68.7855,
       -21.0219
      ],
      [
       -68.785,
       -21.0214
      ],
      [
       -68.7852,
       -21.020599999999998
      ],
      [
       -68.78529999999999,
       -21.0199
      ],
      [
       -68.7856,
       -21.01909999999999
      ],
      [
       -68.786,
       -21.018499999999992
      ],
      [
       -68.78609999999999,
       -21.017799999999998
      ],
      [
       -68.7862,
       -21.0172
      ],
      [
       -68.78590000000001,
       -21.0166
      ],
      [
       -68.7854,
       -21.016399999999997
      ],
      [
       -68.785,
       -21.015700000000002
      ],
      [
       -68.7852,
       -21.014999999999997
      ],
      [
       -68.7854,
       -21.014500000000005
      ],
      [
       -68.78569999999999,
       -21.014
      ],
      [
       -68.7858,
       -21.0136
      ],
      [
       -68.7852,
       -21.013199999999998
      ],
      [
       -68.7842,
       -21.012800000000006
      ],
      [
       -68.7839,
       -21.012
      ],
      [
       -68.78309999999999,
       -21.011200000000006
      ],
      [
       -68.7824,
       -21.010299999999997
      ],
      [
       -68.7824,
       -21.0095
      ],
      [
       -68.7822,
       -21.008699999999997
      ],
      [
       -68.78200000000001,
       -21.008299999999995
      ],
      [
       -68.7819,
       -21.0076
      ],
      [
       -68.78229999999999,
       -21.007199999999997
      ],
      [
       -68.78269999999999,
       -21.00659999999999
      ],
      [
       -68.7824,
       -21.0059
      ],
      [
       -68.7822,
       -21.0049
      ],
      [
       -68.78059999999999,
       -21.004700000000007
      ],
      [
       -68.7792,
       -21.004700000000007
      ],
      [
       -68.7777,
       -21.004700000000007
      ],
      [
       -68.77629999999999,
       -21.004399999999993
      ],
      [
       -68.7765,
       -21.003399999999996
      ],
      [
       -68.77629999999999,
       -21.002599999999997
      ],
      [
       -68.776,
       -21.0022
      ],
      [
       -68.7752,
       -21.0021
      ],
      [
       -68.7735,
       -21.0015
      ],
      [
       -68.7735,
       -21.0005
      ],
      [
       -68.7743,
       -20.999299999999998
      ],
      [
       -68.7758,
       -20.9987
      ],
      [
       -68.7766,
       -20.9987
      ],
      [
       -68.7773,
       -20.999399999999998
      ],
      [
       -68.77839999999999,
       -20.9991
      ],
      [
       -68.7802,
       -20.998500000000007
      ],
      [
       -68.7808,
       -20.997600000000006
      ],
      [
       -68.779,
       -20.9967
      ],
      [
       -68.7778,
       -20.9957
      ],
      [
       -68.7778,
       -20.994800000000005
      ],
      [
       -68.7778,
       -20.993800000000007
      ],
      [
       -68.7778,
       -20.99289999999999
      ],
      [
       -68.77799999999999,
       -20.9921
      ],
      [
       -68.7788,
       -20.991500000000002
      ],
      [
       -68.7794,
       -20.9909
      ],
      [
       -68.78070000000001,
       -20.990199999999998
      ],
      [
       -68.78139999999999,
       -20.9892
      ],
      [
       -68.7835,
       -20.988799999999998
      ],
      [
       -68.7851,
       -20.98859999999999
      ],
      [
       -68.78569999999999,
       -20.988899999999997
      ],
      [
       -68.78739999999999,
       -20.9896
      ],
      [
       -68.78829999999999,
       -20.990099999999998
      ],
      [
       -68.7893,
       -20.990499999999997
      ],
      [
       -68.7902,
       -20.9907
      ],
      [
       -68.7912,
       -20.9907
      ],
      [
       -68.792,
       -20.991
      ],
      [
       -68.79209999999999,
       -20.991500000000002
      ],
      [
       -68.7927,
       -20.9925
      ],
      [
       -68.7928,
       -20.993299999999994
      ],
      [
       -68.7931,
       -20.994999999999997
      ],
      [
       -68.79429999999999,
       -20.994999999999997
      ],
      [
       -68.7949,
       -20.994699999999998
      ],
      [
       -68.7959,
       -20.99449999999999
      ],
      [
       -68.79679999999999,
       -20.993900000000004
      ],
      [
       -68.7979,
       -20.9936
      ],
      [
       -68.7975,
       -20.9931
      ],
      [
       -68.79729999999999,
       -20.9925
      ],
      [
       -68.7971,
       -20.992100000000004
      ],
      [
       -68.7971,
       -20.991200000000003
      ],
      [
       -68.79679999999999,
       -20.9906
      ],
      [
       -68.7963,
       -20.99
      ],
      [
       -68.7954,
       -20.989999999999995
      ],
      [
       -68.7946,
       -20.99
      ],
      [
       -68.7933,
       -20.9905
      ],
      [
       -68.7926,
       -20.990499999999997
      ],
      [
       -68.7916,
       -20.99
      ],
      [
       -68.78999999999999,
       -20.9892
      ],
      [
       -68.78909999999999,
       -20.9885
      ],
      [
       -68.7892,
       -20.987699999999997
      ],
      [
       -68.7892,
       -20.98679999999999
      ],
      [
       -68.7899,
       -20.9862
      ],
      [
       -68.791,
       -20.985899999999997
      ],
      [
       -68.79209999999999,
       -20.985799999999998
      ],
      [
       -68.7931,
       -20.985899999999997
      ],
      [
       -68.79379999999999,
       -20.986
      ],
      [
       -68.7945,
       -20.986000000000008
      ],
      [
       -68.79509999999999,
       -20.985799999999998
      ],
      [
       -68.7958,
       -20.986
      ],
      [
       -68.7959,
       -20.9862
      ],
      [
       -68.7965,
       -20.9864
      ],
      [
       -68.7971,
       -20.9864
      ],
      [
       -68.7975,
       -20.9865
      ],
      [
       -68.79809999999999,
       -20.9867
      ],
      [
       -68.7986,
       -20.9867
      ],
      [
       -68.79899999999999,
       -20.9865
      ],
      [
       -68.7996,
       -20.9865
      ],
      [
       -68.8,
       -20.98689999999999
      ],
      [
       -68.8,
       -20.98729999999999
      ],
      [
       -68.8004,
       -20.9875
      ],
      [
       -68.8008,
       -20.987599999999997
      ],
      [
       -68.80109999999999,
       -20.988
      ],
      [
       -68.8014,
       -20.9883
      ],
      [
       -68.8019,
       -20.9885
      ],
      [
       -68.8026,
       -20.988699999999998
      ],
      [
       -68.803,
       -20.989
      ],
      [
       -68.8031,
       -20.988699999999998
      ],
      [
       -68.8032,
       -20.9881
      ],
      [
       -68.8035,
       -20.987899999999993
      ],
      [
       -68.8042,
       -20.9879
      ],
      [
       -68.8048,
       -20.9884
      ],
      [
       -68.8054,
       -20.988799999999994
      ],
      [
       -68.8057,
       -20.989299999999993
      ],
      [
       -68.8059,
       -20.989700000000003
      ],
      [
       -68.8057,
       -20.990099999999998
      ],
      [
       -68.8053,
       -20.99029999999999
      ],
      [
       -68.80579999999999,
       -20.990599999999993
      ],
      [
       -68.8064,
       -20.9908
      ],
      [
       -68.807,
       -20.991200000000003
      ],
      [
       -68.8076,
       -20.991700000000005
      ],
      [
       -68.8083,
       -20.992199999999997
      ],
      [
       -68.809,
       -20.9923
      ],
      [
       -68.81,
       -20.9923
      ],
      [
       -68.8109,
       -20.9925
      ],
      [
       -68.81120000000001,
       -20.992899999999995
      ],
      [
       -68.81179999999999,
       -20.993
      ],
      [
       -68.8124,
       -20.993
      ],
      [
       -68.813,
       -20.9926
      ],
      [
       -68.8139,
       -20.9922
      ],
      [
       -68.8146,
       -20.991899999999998
      ],
      [
       -68.8153,
       -20.991799999999998
      ],
      [
       -68.8156,
       -20.9921
      ],
      [
       -68.8159,
       -20.9926
      ],
      [
       -68.81609999999999,
       -20.9931
      ],
      [
       -68.8164,
       -20.993699999999997
      ],
      [
       -68.8173,
       -20.993699999999997
      ],
      [
       -68.8168,
       -20.99319999999999
      ],
      [
       -68.8167,
       -20.9923
      ],
      [
       -68.817,
       -20.991799999999998
      ],
      [
       -68.8173,
       -20.9913
      ],
      [
       -68.81779999999999,
       -20.9909
      ],
      [
       -68.8181,
       -20.990499999999997
      ],
      [
       -68.8181,
       -20.989900000000002
      ],
      [
       -68.818,
       -20.989299999999993
      ],
      [
       -68.8176,
       -20.988799999999998
      ],
      [
       -68.8171,
       -20.988400000000006
      ],
      [
       -68.8169,
       -20.9879
      ],
      [
       -68.8172,
       -20.9875
      ],
      [
       -68.81739999999999,
       -20.987200000000005
      ],
      [
       -68.81649999999999,
       -20.987099999999998
      ],
      [
       -68.81569999999999,
       -20.987099999999998
      ],
      [
       -68.8151,
       -20.987099999999998
      ],
      [
       -68.8151,
       -20.9868
      ],
      [
       -68.8154,
       -20.986500000000003
      ],
      [
       -68.8156,
       -20.985899999999997
      ],
      [
       -68.8156,
       -20.985300000000002
      ],
      [
       -68.81519999999999,
       -20.9849
      ],
      [
       -68.81479999999999,
       -20.984399999999997
      ],
      [
       -68.8142,
       -20.984099999999994
      ],
      [
       -68.81349999999999,
       -20.983999999999998
      ],
      [
       -68.8136,
       -20.984399999999997
      ],
      [
       -68.8138,
       -20.9848
      ],
      [
       -68.8139,
       -20.985300000000002
      ],
      [
       -68.8139,
       -20.985799999999998
      ],
      [
       -68.8136,
       -20.986300000000004
      ],
      [
       -68.8133,
       -20.9864
      ],
      [
       -68.8128,
       -20.986300000000004
      ],
      [
       -68.8124,
       -20.9864
      ],
      [
       -68.812,
       -20.9869
      ],
      [
       -68.8115,
       -20.987000000000005
      ],
      [
       -68.8108,
       -20.9867
      ],
      [
       -68.8104,
       -20.986700000000006
      ],
      [
       -68.80990000000001,
       -20.9869
      ],
      [
       -68.8093,
       -20.9867
      ],
      [
       -68.809,
       -20.986000000000008
      ],
      [
       -68.8093,
       -20.985799999999998
      ],
      [
       -68.80969999999999,
       -20.9855
      ],
      [
       -68.8096,
       -20.9849
      ],
      [
       -68.8094,
       -20.984199999999998
      ],
      [
       -68.81,
       -20.983900000000002
      ],
      [
       -68.81120000000001,
       -20.983800000000002
      ],
      [
       -68.81219999999999,
       -20.9836
      ],
      [
       -68.81309999999999,
       -20.9833
      ],
      [
       -68.8137,
       -20.9833
      ],
      [
       -68.8139,
       -20.982999999999993
      ],
      [
       -68.8139,
       -20.982699999999998
      ],
      [
       -68.8134,
       -20.9814
      ],
      [
       -68.814,
       -20.9814
      ],
      [
       -68.8146,
       -20.9814
      ],
      [
       -68.8155,
       -20.9816
      ],
      [
       -68.81609999999999,
       -20.982099999999992
      ],
      [
       -68.8166,
       -20.982699999999998
      ],
      [
       -68.817,
       -20.9831
      ],
      [
       -68.81739999999999,
       -20.983600000000006
      ],
      [
       -68.81739999999999,
       -20.9829
      ],
      [
       -68.8177,
       -20.982799999999994
      ],
      [
       -68.81819999999999,
       -20.982799999999994
      ],
      [
       -68.8185,
       -20.982799999999994
      ],
      [
       -68.81869999999999,
       -20.98249999999999
      ],
      [
       -68.8188,
       -20.982099999999992
      ],
      [
       -68.8189,
       -20.981600000000004
      ],
      [
       -68.81909999999999,
       -20.9808
      ]
     ]
    ]
   }
  },
  {
   "type": "Feature",
   "properties": {
    "fid": 3038,
    "iso3": "CHL",
    "area_km2": 32.5651
   },
   "geometry": {
    "type": "Polygon",
    "coordinates": [
     [
      [
       -68.71549999999999,
       -20.942
      ],
      [
       -68.7186,
       -20.941599999999998
      ],
      [
       -68.7203,
       -20.943300000000008
      ],
      [
       -68.7221,
       -20.9451
      ],
      [
       -68.7233,
       -20.94719999999999
      ],
      [
       -68.7291,
       -20.94889999999999
      ],
      [
       -68.7336,
       -20.9504
      ],
      [
       -68.7387,
       -20.951999999999998
      ],
      [
       -68.743,
       -20.9528
      ],
      [
       -68.743,
       -20.9558
      ],
      [
       -68.7427,
       -20.959699999999998
      ],
      [
       -68.74329999999999,
       -20.9616
      ],
      [
       -68.74419999999999,
       -20.9633
      ],
      [
       -68.7457,
       -20.964800000000007
      ],
      [
       -68.7469,
       -20.965999999999998
      ],
      [
       -68.7481,
       -20.9649
      ],
      [
       -68.7517,
       -20.9634
      ],
      [
       -68.7543,
       -20.963499999999993
      ],
      [
       -68.7559,
       -20.964499999999997
      ],
      [
       -68.7589,
       -20.9663
      ],
      [
       -68.7628,
       -20.9679
      ],
      [
       -68.7649,
       -20.969099999999997
      ],
      [
       -68.7657,
       -20.970299999999998
      ],
      [
       -68.7632,
       -20.972800000000007
      ],
      [
       -68.762,
       -20.975099999999998
      ],
      [
       -68.7608,
       -20.9778
      ],
      [
       -68.7581,
       -20.979900000000004
      ],
      [
       -68.75319999999999,
       -20.9792
      ],
      [
       -68.75099999999999,
       -20.9791
      ],
      [
       -68.7475,
       -20.979699999999998
      ],
      [
       -68.7451,
       -20.981400000000008
      ],
      [
       -68.74249999999999,
       -20.987200000000005
      ],
      [
       -68.7411,
       -20.990299999999998
      ],
      [
       -68.7387,
       -20.993699999999997
      ],
      [
       -68.7349,
       -20.996399999999998
      ],
      [
       -68.73049999999999,
       -20.9938
      ],
      [
       -68.7251,
       -20.990599999999993
      ],
      [
       -68.7203,
       -20.987199999999998
      ],
      [
       -68.7143,
       -20.9848
      ],
      [
       -68.7109,
       -20.9882
      ],
      [
       -68.7076,
       -20.99
      ],
      [
       -68.7028,
       -20.988700000000005
      ],
      [
       -68.6961,
       -20.989499999999992
      ],
      [
       -68.6878,
       -20.9875
      ],
      [
       -68.6858,
       -20.987199999999998
      ],
      [
       -68.6837,
       -20.9868
      ],
      [
       -68.6829,
       -20.9855
      ],
      [
       -68.6841,
       -20.98429999999999
      ],
      [
       -68.6845,
       -20.982500000000005
      ],
      [
       -68.6828,
       -20.981299999999997
      ],
      [
       -68.68119999999999,
       -20.980400000000007
      ],
      [
       -68.6797,
       -20.979900000000008
      ],
      [
       -68.6783,
       -20.979
      ],
      [
       -68.67779999999999,
       -20.977199999999993
      ],
      [
       -68.6792,
       -20.975099999999998
      ],
      [
       -68.6801,
       -20.9739
      ],
      [
       -68.682,
       -20.9725
      ],
      [
       -68.6806,
       -20.9723
      ],
      [
       -68.67909999999999,
       -20.970599999999997
      ],
      [
       -68.6785,
       -20.9697
      ],
      [
       -68.6775,
       -20.969199999999994
      ],
      [
       -68.6756,
       -20.969400000000007
      ],
      [
       -68.6721,
       -20.969599999999993
      ],
      [
       -68.67229999999999,
       -20.9683
      ],
      [
       -68.67399999999999,
       -20.966099999999997
      ],
      [
       -68.6764,
       -20.9641
      ],
      [
       -68.6785,
       -20.961499999999997
      ],
      [
       -68.6801,
       -20.959899999999998
      ],
      [
       -68.68249999999999,
       -20.958399999999997
      ],
      [
       -68.68509999999999,
       -20.9576
      ],
      [
       -68.688,
       -20.956899999999997
      ],
      [
       -68.69,
       -20.9557
      ],
      [
       -68.6927,
       -20.9557
      ],
      [
       -68.69449999999999,
       -20.9548
      ],
      [
       -68.6963,
       -20.9531
      ],
      [
       -68.6981,
       -20.9509
      ],
      [
       -68.69919999999999,
       -20.9495
      ],
      [
       -68.70049999999999,
       -20.947899999999997
      ],
      [
       -68.7025,
       -20.9468
      ],
      [
       -68.7045,
       -20.946900000000007
      ],
      [
       -68.7063,
       -20.946900000000007
      ],
      [
       -68.7076,
       -20.946199999999997
      ],
      [
       -68.7088,
       -20.945300000000003
      ],
      [
       -68.70989999999999,
       -20.944599999999998
      ],
      [
       -68.7113,
       -20.9436
      ],
      [
       -68.713,
       -20.942899999999998
      ],
      [
       -68.71549999999999,
       -20.942
      ]
     ]
    ]
   }
  },
  {
   "type": "Feature",
   "properties": {
    "fid": 3036,
    "iso3": "CHL",
    "area_km2": 1.1836
   },
   "geometry": {
    "type": "Polygon",
    "coordinates": [
     [
      [
       -68.71679999999999,
       -21.009
      ],
      [
       -68.71419999999999,
       -21.0093
      ],
      [
       -68.7127,
       -21.0084
      ],
      [
       -68.70989999999999,
       -21.0082
      ],
      [
       -68.71,
       -21.0095
      ],
      [
       -68.712,
       -21.01
      ],
      [
       -68.713,
       -21.011699999999998
      ],
      [
       -68.7136,
       -21.013299999999997
      ],
      [
       -68.7117,
       -21.014599999999998
      ],
      [
       -68.7084,
       -21.0138
      ],
      [
       -68.7077,
       -21.0112
      ],
      [
       -68.70389999999999,
       -21.0114
      ],
      [
       -68.7027,
       -21.0095
      ],
      [
       -68.7021,
       -21.0077
      ],
      [
       -68.70089999999999,
       -21.0046
      ],
      [
       -68.7019,
       -21.002399999999998
      ],
      [
       -68.705,
       -21.003000000000007
      ],
      [
       -68.7054,
       -21.005999999999993
      ],
      [
       -68.7072,
       -21.0065
      ],
      [
       -68.7079,
       -21.0036
      ],
      [
       -68.7102,
       -21.003200000000007
      ],
      [
       -68.7118,
       -21.003800000000002
      ],
      [
       -68.7147,
       -21.005499999999998
      ],
      [
       -68.715,
       -21.0062
      ],
      [
       -68.7164,
       -21.007199999999997
      ],
      [
       -68.7173,
       -21.0084
      ],
      [
       -68.71679999999999,
       -21.009
      ]
     ]
    ]
   }
  }
 ],
 "license": "CC-BY-SA-4.0",
 "attribution": "Maus et al. 2022 (doi:10.1594/PANGAEA.942325)"
}
