{
 "type": "FeatureCollection",
 "features": [
  {
   "type": "Feature",
   "properties": {
    "fid": 1738,
    "iso3": "AUS",
    "area_km2": 50.2114
   },
   "geometry": {
    "type": "Polygon",
    "coordinates": [
     [
      [
       119.633,
       -23.3489
      ],
      [
       119.62939999999998,
       -23.354699999999998
      ],
      [
       119.62790000000001,
       -23.362400000000004
      ],
      [
       119.62939999999998,
       -23.368400000000005
      ],
      [
       119.6317,
       -23.377900000000007
      ],
      [
       119.6306,
       -23.382099999999998
      ],
      [
       119.63510000000001,
       -23.384200000000007
      ],
      [
       119.64030000000001,
       -23.388299999999997
      ],
      [
       119.64519999999999,
       -23.3919
      ],
      [
       119.65089999999998,
       -23.393300000000004
      ],
      [
       119.6588,
       -23.394399999999997
      ],
      [
       119.6657,
       -23.396000000000004
      ],
      [
       119.6705,
       -23.3982
      ],
      [
       119.67460000000001,
       -23.3993
      ],
      [
       119.6823,
       -23.3979
      ],
      [
       119.6864,
       -23.395699999999994
      ],
      [
       119.6979,
       -23.394700000000004
      ],
      [
       119.7038,
       -23.394399999999997
      ],
      [
       119.70960000000001,
       -23.391099999999994
      ],
      [
       119.712,
       -23.3861
      ],
      [
       119.71220000000001,
       -23.380100000000006
      ],
      [
       119.7098,
       -23.377599999999994
      ],
      [
       119.70939999999997,
       -23.3722
      ],
      [
       119.70809999999997,
       -23.3681
      ],
      [
       119.7072,
       -23.3637
      ],
      [
       119.7072,
       -23.358999999999998
      ],
      [
       119.70859999999999,
       -23.356299999999997
      ],
      [
       119.71079999999999,
       -23.352699999999995
      ],
      [
       119.7127,
       -23.349
      ],
      [
       119.71629999999999,
       -23.3445
      ],
      [
       119.7149,
       -23.3404
      ],
      [
       119.70859999999999,
       -23.339299999999994
      ],
      [
       119.7031,
       -23.340999999999998
      ],
      [
       119.70259999999999,
       -23.337699999999998
      ],
      [
       119.7053,
       -23.334199999999996
      ],
      [
       119.69299999999998,
       -23.3295
      ],
      [
       119.68570000000001,
       -23.3326
      ],
      [
       119.6845,
       -23.3369
      ],
      [
       119.6803,
       -23.338500000000003
      ],
      [
       119.67530000000001,
       -23.336100000000005
      ],
      [
       119.6682,
       -23.3353
      ],
      [
       119.66460000000001,
       -23.3358
      ],
      [
       119.661,
       -23.3391
      ],
      [
       119.65849999999999,
       -23.3404
      ],
      [
       119.65180000000001,
       -23.3434
      ],
      [
       119.6447,
       -23.344800000000003
      ],
      [
       119.63969999999999,
       -23.346000000000004
      ],
      [
       119.633,
       -23.3489
      ]
     ]
    ]
   }
  },
  {
   "type": "Feature",
   "properties": {
    "fid": 1742,
    "iso3": "AUS",
    "area_km2": 0.4944
   },
   "geometry": {
    "type": "Polygon",
    "coordinates": [
     [
      [
       119.69229999999999,
       -23.3249
      ],
      [
       119.69869999999999,
       -23.3262
      ],
      [
       119.7003,
       -23.3203
      ],
      [
       119.6951,
       -23.318500000000007
      ],
      [
       119.6942,
       -23.3203
      ],
      [
       119.6927,
       -23.320899999999998
      ],
      [
       119.69189999999999,
       -23.322799999999997
      ],
      [
       119.69229999999999,
       -23.3249
      ]
     ]
    ]
   }
  }
 ],
 "license": "CC-BY-SA-4.0",
 "attribution": "Maus et al. 2022 (doi:10.1594/PANGAEA.942325)"
}
