{
 "type": "FeatureCollection",
 "features": [
  {
   "type": "Feature",
   "properties": {
    "fid": 2266,
    "iso3": "CHL",
    "area_km2": 81.2971
   },
   "geometry": {
    "type": "Polygon",
    "coordinates": [
     [
      [
       -69.174,
       -24.406499999999998
      ],
      [
       -69.1679,
       -24.429000000000002
      ],
      [
       -69.1418,
       -24.4578
      ],
      [
       -69.1112,
       -24.4793
      ],
      [
       -69.0827,
       -24.4315
      ],
      [
       -69.07,
       -24.392099999999992
      ],
      [
       -69.0769,
       -24.374599999999997
      ],
      [
       -69.1043,
       -24.3756
      ],
      [
       -69.1109,
       -24.3831
      ],
      [
       -69.13629999999999,
       -24.3859
      ],
      [
       -69.1538,
       -24.3756
      ],
      [
       -69.1758,
       -24.3787
      ],
      [
       -69.174,
       -24.406499999999998
      ]
     ]
    ]
   }
  },
  {
   "type": "Feature",
   "properties": {
    "fid": 2258,
    "iso3": "CHL",
    "area_km2": 231.6645
   },
   "geometry": {
    "type": "Polygon",
    "coordinates": [
     [
      [
       -69.0388,
       -24.141700000000004
      ],
      [
       -69.0504,
       -24.142799999999998
      ],
      [
       -69.0603,
       -24.1568
      ],
      [
       -69.0728,
       -24.1694
      ],
      [
       -69.0868,
       -24.186799999999995
      ],
      [
       -69.10249999999999,
       -24.198100000000004
      ],
      [
       -69.1083,
       -24.2096
      ],
      [
       -69.11019999999999,
       -24.232900000000004
      ],
      [
       -69.1177,
       -24.232599999999998
      ],
      [
       -69.1298,
       -24.228499999999993
      ],
      [
       -69.1328,
       -24.218500000000006
      ],
      [
       -69.16199999999999,
       -24.2169
      ],
      [
       -69.1706,
       -24.2423
      ],
      [
       -69.1473,
       -24.249499999999998
      ],
      [
       -69.1373,
       -24.260099999999998
      ],
      [
       -69.1394,
       -24.288000000000004
      ],
      [
       -69.1177,
       -24.297
      ],
      [
       -69.1134,
       -24.3187
      ],
      [
       -69.10459999999999,
       -24.3337
      ],
      [
       -69.0894,
       -24.353400000000004
      ],
      [
       -69.08700000000002,
       -24.366600000000002
      ],
      [
       -69.0817,
       -24.3673
      ],
      [
       -69.07379999999999,
       -24.3571
      ],
      [
       -69.05460000000001,
       -24.3465
      ],
      [
       -69.041,
       -24.3185
      ],
      [
       -69.0287,
       -24.296900000000004
      ],
      [
       -69.0065,
       -24.2758
      ],
      [
       -68.9941,
       -24.280800000000006
      ],
      [
       -68.95980000000002,
       -24.253500000000003
      ],
      [
       -68.9725,
       -24.240399999999998
      ],
      [
       -68.9907,
       -24.2379
      ],
      [
       -69.00829999999999,
       -24.225499999999997
      ],
      [
       -69.0081,
       -24.206599999999998
      ],
      [
       -69.0107,
       -24.1979
      ],
      [
       -69.0234,
       -24.1919
      ],
      [
       -69.0242,
       -24.182499999999997
      ],
      [
       -69.0242,
       -24.169999999999998
      ],
      [
       -69.0267,
       -24.1614
      ],
      [
       -69.0245,
       -24.156499999999998
      ],
      [
       -69.0238,
       -24.1526
      ],
      [
       -69.02860000000001,
       -24.1458
      ],
      [
       -69.03120000000001,
       -24.1405
      ],
      [
       -69.0388,
       -24.141700000000004
      ]
     ]
    ]
   }
  }
 ],
 "license": "CC-BY-SA-4.0",
 "attribution": "Maus et al. 2022 (doi:10.1594/PANGAEA.942325)"
}
