{
 "type": "FeatureCollection",
 "features": [
  {
   "type": "Feature",
   "properties": {
    "fid": 11181,
    "iso3": "DEU",
    "area_km2": 19.3718
   },
   "geometry": {
    "type": "Polygon",
    "coordinates": [
     [
      [
       6.3258,
       50.866499999999995
      ],
      [
       6.322400000000001,
       50.865199999999994
      ],
      [
       6.3217,
       50.86480000000001
      ],
      [
       6.318600000000002,
       50.8641
      ],
      [
       6.320200000000001,
       50.8613
      ],
      [
       6.321400000000001,
       50.8582
      ],
      [
       6.317000000000001,
       50.8562
      ],
      [
       6.316700000000002,
       50.85630000000001
      ],
      [
       6.3143,
       50.858599999999996
      ],
      [
       6.312500000000001,
       50.8585
      ],
      [
       6.3061,
       50.8557
      ],
      [
       6.306,
       50.8554
      ],
      [
       6.3050999999999995,
       50.855
      ],
      [
       6.3031999999999995,
       50.85149999999999
      ],
      [
       6.3022,
       50.851299999999995
      ],
      [
       6.3022,
       50.85030000000001
      ],
      [
       6.302499999999999,
       50.8503
      ],
      [
       6.3024,
       50.8501
      ],
      [
       6.318,
       50.8472
      ],
      [
       6.3199999999999985,
       50.8491
      ],
      [
       6.3264,
       50.8542
      ],
      [
       6.3362,
       50.8548
      ],
      [
       6.3340999999999985,
       50.85640000000001
      ],
      [
       6.3327,
       50.858399999999996
      ],
      [
       6.3481999999999985,
       50.857200000000006
      ],
      [
       6.348400000000002,
       50.857200000000006
      ],
      [
       6.348899999999999,
       50.857099999999996
      ],
      [
       6.367299999999999,
       50.8585
      ],
      [
       6.3835,
       50.85550000000001
      ],
      [
       6.4143,
       50.84890000000001
      ],
      [
       6.420400000000001,
       50.8519
      ],
      [
       6.4261,
       50.853699999999996
      ],
      [
       6.416699999999999,
       50.8596
      ],
      [
       6.379999999999998,
       50.8839
      ],
      [
       6.3549000000000015,
       50.888799999999996
      ],
      [
       6.351999999999999,
       50.887699999999995
      ],
      [
       6.3355,
       50.8853
      ],
      [
       6.330900000000001,
       50.880399999999995
      ],
      [
       6.3258,
       50.866499999999995
      ]
     ]
    ]
   }
  },
  {
   "type": "Feature",
   "properties": {
    "fid": 11202,
    "iso3": "DEU",
    "area_km2": 63.9353
   },
   "geometry": {
    "type": "Polygon",
    "coordinates": [
     [
      [
       6.510800000000002,
       50.9365
      ],
      [
       6.4857,
       50.9364
      ],
      [
       6.4776,
       50.939
      ],
      [
       6.472799999999999,
       50.9479
      ],
      [
       6.4663,
       50.94980000000001
      ],
      [
       6.443500000000001,
       50.94890000000001
      ],
      [
       6.4303,
       50.9451
      ],
      [
       6.4241,
       50.940799999999996
      ],
      [
       6.422000000000001,
       50.931599999999996
      ],
      [
       6.424600000000001,
       50.92379999999999
      ],
      [
       6.439,
       50.9092
      ],
      [
       6.463699999999999,
       50.897099999999995
      ],
      [
       6.463599999999999,
       50.8966
      ],
      [
       6.486999999999999,
       50.880500000000005
      ],
      [
       6.5108,
       50.8662
      ],
      [
       6.5162999999999975,
       50.8686
      ],
      [
       6.519699999999998,
       50.8669
      ],
      [
       6.575699999999998,
       50.8945
      ],
      [
       6.608599999999999,
       50.908899999999996
      ],
      [
       6.606400000000001,
       50.90970000000001
      ],
      [
       6.606700000000001,
       50.909900000000015
      ],
      [
       6.5819,
       50.9186
      ],
      [
       6.5341,
       50.9359
      ],
      [
       6.5327,
       50.9359
      ],
      [
       6.526399999999999,
       50.9381
      ],
      [
       6.510800000000002,
       50.9365
      ]
     ]
    ]
   }
  }
 ],
 "license": "CC-BY-SA-4.0",
 "attribution": "Maus et al. 2022 (doi:10.1594/PANGAEA.942325)"
}
