{
 "type": "FeatureCollection",
 "features": [
  {
   "type": "Feature",
   "properties": {
    "fid": 16012,
    "iso3": "MNG",
    "area_km2": 0.6325
   },
   "geometry": {
    "type": "Polygon",
    "coordinates": [
     [
      [
       106.89529999999999,
       42.98629999999999
      ],
      [
       106.8894,
       42.987500000000004
      ],
      [
       106.87939999999999,
       42.98310000000001
      ],
      [
       106.88199999999999,
       42.9782
      ],
      [
       106.8951,
       42.985
      ],
      [
       106.89529999999999,
       42.98629999999999
      ]
     ]
    ]
   }
  },
  {
   "type": "Feature",
   "properties": {
    "fid": 16021,
    "iso3": "MNG",
    "area_km2": 27.9685
   },
   "geometry": {
    "type": "Polygon",
    "coordinates": [
     [
      [
       106.82199999999999,
       43.020399999999995
      ],
      [
       106.82199999999999,
       43.01520000000001
      ],
      [
       106.8244,
       43.012299999999996
      ],
      [
       106.8235,
       43.0089
      ],
      [
       106.8329,
       43.007
      ],
      [
       106.8393,
       43.009400000000014
      ],
      [
       106.8406,
       43.0051
      ],
      [
       106.845,
       43.000299999999996
      ],
      [
       106.8529,
       42.9987
      ],
      [
       106.8497,
       42.99230000000001
      ],
      [
       106.8698,
       42.9828
      ],
      [
       106.8754,
       42.984500000000004
      ],
      [
       106.8757,
       42.991499999999995
      ],
      [
       106.9032,
       42.985
      ],
      [
       106.90809999999999,
       42.9952
      ],
      [
       106.91539999999999,
       43.0087
      ],
      [
       106.90129999999999,
       43.0131
      ],
      [
       106.9083,
       43.014399999999995
      ],
      [
       106.9031,
       43.018800000000006
      ],
      [
       106.89189999999999,
       43.0222
      ],
      [
       106.8856,
       43.0169
      ],
      [
       106.8766,
       43.01889999999999
      ],
      [
       106.8714,
       43.01659999999999
      ],
      [
       106.86179999999999,
       43.0175
      ],
      [
       106.854,
       43.020700000000005
      ],
      [
       106.844,
       43.0154
      ],
      [
       106.8384,
       43.0269
      ],
      [
       106.8292,
       43.0346
      ],
      [
       106.82880000000002,
       43.035399999999996
      ],
      [
       106.83869999999999,
       43.03559999999998
      ],
      [
       106.83869999999999,
       43.0353
      ],
      [
       106.8468,
       43.0348
      ],
      [
       106.85220000000001,
       43.03229999999999
      ],
      [
       106.85669999999999,
       43.0291
      ],
      [
       106.859,
       43.0276
      ],
      [
       106.859,
       43.0278
      ],
      [
       106.86609999999999,
       43.02270000000001
      ],
      [
       106.8715,
       43.0238
      ],
      [
       106.8711,
       43.0257
      ],
      [
       106.8664,
       43.027899999999995
      ],
      [
       106.86149999999999,
       43.031499999999994
      ],
      [
       106.8651,
       43.036899999999996
      ],
      [
       106.85610000000001,
       43.0377
      ],
      [
       106.85610000000001,
       43.0393
      ],
      [
       106.8534,
       43.0395
      ],
      [
       106.8536,
       43.039699999999996
      ],
      [
       106.8539,
       43.043099999999995
      ],
      [
       106.8547,
       43.04540000000001
      ],
      [
       106.85629999999999,
       43.0462
      ],
      [
       106.8565,
       43.0482
      ],
      [
       106.8551,
       43.0499
      ],
      [
       106.8502,
       43.0498
      ],
      [
       106.8472,
       43.046800000000005
      ],
      [
       106.8438,
       43.047599999999996
      ],
      [
       106.84169999999999,
       43.0499
      ],
      [
       106.84169999999999,
       43.0503
      ],
      [
       106.80969999999999,
       43.050399999999996
      ],
      [
       106.81259999999999,
       43.047599999999996
      ],
      [
       106.8175,
       43.0421
      ],
      [
       106.82459999999999,
       43.0342
      ],
      [
       106.8224,
       43.0283
      ],
      [
       106.82199999999999,
       43.020399999999995
      ]
     ]
    ]
   }
  },
  {
   "type": "Feature",
   "properties": {
    "fid": 15980,
    "iso3": "MNG",
    "area_km2": 0.2468
   },
   "geometry": {
    "type": "Polygon",
    "coordinates": [
     [
      [
       106.93419999999999,
       43.013799999999996
      ],
      [
       106.9371,
       43.0121
      ],
      [
       106.9396,
       43.0131
      ],
      [
       106.9409,
       43.014399999999995
      ],
      [
       106.9408,
       43.0162
      ],
      [
       106.9379,
       43.0166
      ],
      [
       106.9361,
       43.0154
      ],
      [
       106.93379999999999,
       43.01739999999999
      ],
      [
       106.9328,
       43.01739999999999
      ],
      [
       106.9318,
       43.0156
      ],
      [
       106.93419999999999,
       43.013799999999996
      ]
     ]
    ]
   }
  },
  {
   "type": "Feature",
   "properties": {
    "fid": 16011,
    "iso3": "MNG",
    "area_km2": 0.1133
   },
   "geometry": {
    "type": "Polygon",
    "coordinates": [
     [
      [
       106.80189999999999,
       43.0211
      ],
      [
       106.80189999999999,
       43.0184
      ],
      [
       106.806,
       43.0162
      ],
      [
       106.8076,
       43.0177
      ],
      [
       106.80189999999999,
       43.0211
      ]
     ]
    ]
   }
  },
  {
   "type": "Feature",
   "properties": {
    "fid": 16015,
    "iso3": "MNG",
    "area_km2": 0.1417
   },
   "geometry": {
    "type": "Polygon",
    "coordinates": [
     [
      [
       106.8093,
       43.0314
      ],
      [
       106.8069,
       43.03069999999999
      ],
      [
       106.8123,
       43.0269
      ],
      [
       106.81479999999999,
       43.0293
      ],
      [
       106.8093,
       43.0314
      ]
     ]
    ]
   }
  },
  {
   "type": "Feature",
   "properties": {
    "fid": 16030,
    "iso3": "MNG",
    "area_km2": 0.4127
   },
   "geometry": {
    "type": "Polygon",
    "coordinates": [
     [
      [
       106.8825,
       43.03880000000001
      ],
      [
       106.8823,
       43.034
      ],
      [
       106.8822,
       43.0299
      ],
      [
       106.88329999999999,
       43.0304
      ],
      [
       106.88329999999999,
       43.031
      ],
      [
       106.88400000000001,
       43.0314
      ],
      [
       106.88589999999999,
       43.0327
      ],
      [
       106.8886,
       43.0342
      ],
      [
       106.88879999999999,
       43.0347
      ],
      [
       106.8896,
       43.0361
      ],
      [
       106.89,
       43.03709999999999
      ],
      [
       106.8903,
       43.03880000000001
      ],
      [
       106.8825,
       43.03880000000001
      ]
     ]
    ]
   }
  },
  {
   "type": "Feature",
   "properties": {
    "fid": 16029,
    "iso3": "MNG",
    "area_km2": 0.189
   },
   "geometry": {
    "type": "Polygon",
    "coordinates": [
     [
      [
       106.8782,
       43.03969999999999
      ],
      [
       106.8776,
       43.03470000000001
      ],
      [
       106.8818,
       43.0346
      ],
      [
       106.8822,
       43.039800000000014
      ],
      [
       106.8782,
       43.03969999999999
      ]
     ]
    ]
   }
  },
  {
   "type": "Feature",
   "properties": {
    "fid": 15982,
    "iso3": "MNG",
    "area_km2": 0.1243
   },
   "geometry": {
    "type": "Polygon",
    "coordinates": [
     [
      [
       106.8969,
       43.0417
      ],
      [
       106.8967,
       43.038199999999996
      ],
      [
       106.90090000000001,
       43.03819999999999
      ],
      [
       106.90090000000001,
       43.04139999999999
      ],
      [
       106.8969,
       43.0417
      ]
     ]
    ]
   }
  },
  {
   "type": "Feature",
   "properties": {
    "fid": 15983,
    "iso3": "MNG",
    "area_km2": 0.1222
   },
   "geometry": {
    "type": "Polygon",
    "coordinates": [
     [
      [
       106.9083,
       43.04220000000001
      ],
      [
       106.9083,
       43.0408
      ],
      [
       106.91449999999999,
       43.040299999999995
      ],
      [
       106.9156,
       43.0419
      ],
      [
       106.9118,
       43.0432
      ],
      [
       106.911,
       43.04240000000001
      ],
      [
       106.9083,
       43.04220000000001
      ]
     ]
    ]
   }
  },
  {
   "type": "Feature",
   "properties": {
    "fid": 15985,
    "iso3": "MNG",
    "area_km2": 0.194
   },
   "geometry": {
    "type": "Polygon",
    "coordinates": [
     [
      [
       106.8984,
       43.0468
      ],
      [
       106.90410000000001,
       43.04670000000001
      ],
      [
       106.90429999999999,
       43.0503
      ],
      [
       106.89789999999999,
       43.0503
      ],
      [
       106.8984,
       43.0468
      ]
     ]
    ]
   }
  },
  {
   "type": "Feature",
   "properties": {
    "fid": 15981,
    "iso3": "MNG",
    "area_km2": 0.3858
   },
   "geometry": {
    "type": "Polygon",
    "coordinates": [
     [
      [
       106.87079999999999,
       43.054899999999996
      ],
      [
       106.86869999999999,
       43.051899999999996
      ],
      [
       106.8668,
       43.05000000000001
      ],
      [
       106.86749999999999,
       43.0486
      ],
      [
       106.871,
       43.0486
      ],
      [
       106.8753,
       43.050599999999996
      ],
      [
       106.8761,
       43.052699999999994
      ],
      [
       106.87469999999999,
       43.0552
      ],
      [
       106.872,
       43.05639999999999
      ],
      [
       106.87079999999999,
       43.054899999999996
      ]
     ]
    ]
   }
  },
  {
   "type": "Feature",
   "properties": {
    "fid": 32363,
    "iso3": "MNG",
    "area_km2": 0.2202
   },
   "geometry": {
    "type": "Polygon",
    "coordinates": [
     [
      [
       106.847835,
       43.088291000000005
      ],
      [
       106.854272,
       43.08702199999999
      ],
      [
       106.855409,
       43.090689
      ],
      [
       106.84907899999999,
       43.091817
      ],
      [
       106.847835,
       43.088291000000005
      ]
     ]
    ]
   }
  }
 ],
 "license": "CC-BY-SA-4.0",
 "attribution": "Maus et al. 2022 (doi:10.1594/PANGAEA.942325)"
}
