{
 "type": "FeatureCollection",
 "features": [
  {
   "type": "Feature",
   "properties": {
    "fid": 5456,
    "iso3": "PAN",
    "area_km2": 1.8741
   },
   "geometry": {
    "type": "Polygon",
    "coordinates": [
     [
      [
       -80.6523,
       8.802299999999999
      ],
      [
       -80.65599999999999,
       8.799
      ],
      [
       -80.65769999999999,
       8.7935
      ],
      [
       -80.6559,
       8.791699999999997
      ],
      [
       -80.6495,
       8.7912
      ],
      [
       -80.64739999999999,
       8.7933
      ],
      [
       -80.6479,
       8.796799999999996
      ],
      [
       -80.6443,
       8.7965
      ],
      [
       -80.63969999999999,
       8.7965
      ],
      [
       -80.6391,
       8.799400000000004
      ],
      [
       -80.6412,
       8.803300000000004
      ],
      [
       -80.6437,
       8.803000000000003
      ],
      [
       -80.6479,
       8.804599999999999
      ],
      [
       -80.6497,
       8.8056
      ],
      [
       -80.6523,
       8.802299999999999
      ]
     ]
    ]
   }
  },
  {
   "type": "Feature",
   "properties": {
    "fid": 5457,
    "iso3": "PAN",
    "area_km2": 0.0995
   },
   "geometry": {
    "type": "Polygon",
    "coordinates": [
     [
      [
       -80.646,
       8.810499999999996
      ],
      [
       -80.6437,
       8.8074
      ],
      [
       -80.642,
       8.804399999999996
      ],
      [
       -80.64099999999999,
       8.805800000000003
      ],
      [
       -80.6434,
       8.8093
      ],
      [
       -80.646,
       8.810499999999996
      ]
     ]
    ]
   }
  },
  {
   "type": "Feature",
   "properties": {
    "fid": 5459,
    "iso3": "PAN",
    "area_km2": 0.3187
   },
   "geometry": {
    "type": "Polygon",
    "coordinates": [
     [
      [
       -80.6587,
       8.827399999999999
      ],
      [
       -80.6599,
       8.824399999999999
      ],
      [
       -80.65939999999999,
       8.822200000000004
      ],
      [
       -80.65379999999999,
       8.8192
      ],
      [
       -80.6531,
       8.8203
      ],
      [
       -80.6557,
       8.8223
      ],
      [
       -80.65599999999999,
       8.826299999999996
      ],
      [
       -80.6567,
       8.827499999999999
      ],
      [
       -80.6587,
       8.827399999999999
      ]
     ]
    ]
   }
  },
  {
   "type": "Feature",
   "properties": {
    "fid": 5466,
    "iso3": "PAN",
    "area_km2": 0.2092
   },
   "geometry": {
    "type": "Polygon",
    "coordinates": [
     [
      [
       -80.6668,
       8.920399999999999
      ],
      [
       -80.6678,
       8.9195
      ],
      [
       -80.6642,
       8.913500000000003
      ],
      [
       -80.66199999999999,
       8.913599999999999
      ],
      [
       -80.66279999999999,
       8.916000000000004
      ],
      [
       -80.66449999999999,
       8.918199999999999
      ],
      [
       -80.6656,
       8.9202
      ],
      [
       -80.6668,
       8.920399999999999
      ]
     ]
    ]
   }
  },
  {
   "type": "Feature",
   "properties": {
    "fid": 5468,
    "iso3": "PAN",
    "area_km2": 0.3454
   },
   "geometry": {
    "type": "Polygon",
    "coordinates": [
     [
      [
       -80.65339999999999,
       8.8841
      ],
      [
       -80.65599999999999,
       8.883799999999999
      ],
      [
       -80.6574,
       8.8813
      ],
      [
       -80.6546,
       8.880099999999999
      ],
      [
       -80.64909999999999,
       8.879199999999996
      ],
      [
       -80.6482,
       8.8818
      ],
      [
       -80.6506,
       8.882699999999996
      ],
      [
       -80.65339999999999,
       8.8841
      ]
     ]
    ]
   }
  },
  {
   "type": "Feature",
   "properties": {
    "fid": 5469,
    "iso3": "PAN",
    "area_km2": 1.1291
   },
   "geometry": {
    "type": "Polygon",
    "coordinates": [
     [
      [
       -80.65209999999999,
       8.8928
      ],
      [
       -80.6536,
       8.895800000000003
      ],
      [
       -80.6602,
       8.894399999999996
      ],
      [
       -80.666,
       8.889
      ],
      [
       -80.6655,
       8.884699999999997
      ],
      [
       -80.6608,
       8.883799999999999
      ],
      [
       -80.65729999999999,
       8.8858
      ],
      [
       -80.6569,
       8.889199999999999
      ],
      [
       -80.6552,
       8.890699999999999
      ],
      [
       -80.65209999999999,
       8.8928
      ]
     ]
    ]
   }
  },
  {
   "type": "Feature",
   "properties": {
    "fid": 5526,
    "iso3": "PAN",
    "area_km2": 7.5031
   },
   "geometry": {
    "type": "Polygon",
    "coordinates": [
     [
      [
       -80.6424,
       8.8584
      ],
      [
       -80.6465,
       8.8589
      ],
      [
       -80.6465,
       8.856399999999995
      ],
      [
       -80.65039999999999,
       8.854
      ],
      [
       -80.6553,
       8.855
      ],
      [
       -80.66279999999999,
       8.8553
      ],
      [
       -80.6642,
       8.8546
      ],
      [
       -80.6653,
       8.8521
      ],
      [
       -80.6638,
       8.847300000000002
      ],
      [
       -80.6635,
       8.845699999999999
      ],
      [
       -80.6657,
       8.8425
      ],
      [
       -80.6666,
       8.838799999999996
      ],
      [
       -80.6626,
       8.8412
      ],
      [
       -80.6609,
       8.8406
      ],
      [
       -80.6599,
       8.838
      ],
      [
       -80.6627,
       8.835600000000001
      ],
      [
       -80.6632,
       8.8303
      ],
      [
       -80.65979999999999,
       8.8283
      ],
      [
       -80.6565,
       8.8291
      ],
      [
       -80.6548,
       8.8322
      ],
      [
       -80.6503,
       8.8299
      ],
      [
       -80.6451,
       8.8319
      ],
      [
       -80.644,
       8.836099999999998
      ],
      [
       -80.6438,
       8.8399
      ],
      [
       -80.6454,
       8.841999999999999
      ],
      [
       -80.6473,
       8.843699999999997
      ],
      [
       -80.6455,
       8.8469
      ],
      [
       -80.6427,
       8.8483
      ],
      [
       -80.6404,
       8.8468
      ],
      [
       -80.6369,
       8.8453
      ],
      [
       -80.63629999999999,
       8.8425
      ],
      [
       -80.6352,
       8.8414
      ],
      [
       -80.63119999999999,
       8.8421
      ],
      [
       -80.6318,
       8.847199999999996
      ],
      [
       -80.6345,
       8.851800000000003
      ],
      [
       -80.6358,
       8.854300000000004
      ],
      [
       -80.63329999999999,
       8.8571
      ],
      [
       -80.6351,
       8.8584
      ],
      [
       -80.6369,
       8.859399999999996
      ],
      [
       -80.6379,
       8.859399999999996
      ],
      [
       -80.6392,
       8.8561
      ],
      [
       -80.642,
       8.8551
      ],
      [
       -80.6407,
       8.8598
      ],
      [
       -80.6424,
       8.8584
      ]
     ]
    ]
   }
  }
 ],
 "license": "CC-BY-SA-4.0",
 "attribution": "Maus et al. 2022 (doi:10.1594/PANGAEA.942325)"
}
