{
 "type": "FeatureCollection",
 "features": [
  {
   "type": "Feature",
   "properties": {
    "fid": 12049,
    "iso3": "USA",
    "area_km2": 90.3714
   },
   "geometry": {
    "type": "Polygon",
    "coordinates": [
     [
      [
       -109.3397,
       33.1536
      ],
      [
       -109.3569,
       33.1502
      ],
      [
       -109.3744,
       33.14560000000001
      ],
      [
       -109.37769999999999,
       33.1344
      ],
      [
       -109.3869,
       33.1305
      ],
      [
       -109.3916,
       33.1337
      ],
      [
       -109.3924,
       33.1245
      ],
      [
       -109.40339999999999,
       33.1243
      ],
      [
       -109.4019,
       33.1125
      ],
      [
       -109.3946,
       33.1032
      ],
      [
       -109.38709999999999,
       33.097000000000016
      ],
      [
       -109.3916,
       33.0894
      ],
      [
       -109.3995,
       33.0858
      ],
      [
       -109.39529999999999,
       33.0816
      ],
      [
       -109.384,
       33.0815
      ],
      [
       -109.3792,
       33.0694
      ],
      [
       -109.3864,
       33.062799999999996
      ],
      [
       -109.3881,
       33.049
      ],
      [
       -109.377,
       33.049
      ],
      [
       -109.3768,
       33.0425
      ],
      [
       -109.3934,
       33.0396
      ],
      [
       -109.38130000000001,
       33.00770000000001
      ],
      [
       -109.3663,
       33.0022
      ],
      [
       -109.3485,
       33.00199999999999
      ],
      [
       -109.3301,
       33.0141
      ],
      [
       -109.3138,
       33.0173
      ],
      [
       -109.31689999999999,
       33.04580000000001
      ],
      [
       -109.32889999999999,
       33.0606
      ],
      [
       -109.3279,
       33.0772
      ],
      [
       -109.33489999999999,
       33.089099999999995
      ],
      [
       -109.3346,
       33.101
      ],
      [
       -109.33869999999999,
       33.1121
      ],
      [
       -109.33229999999999,
       33.1225
      ],
      [
       -109.3256,
       33.1327
      ],
      [
       -109.32799999999999,
       33.1386
      ],
      [
       -109.33269999999999,
       33.145199999999996
      ],
      [
       -109.3397,
       33.1536
      ]
     ]
    ]
   }
  }
 ],
 "license": "CC-BY-SA-4.0",
 "attribution": "Maus et al. 2022 (doi:10.1594/PANGAEA.942325)"
}
