{
 "type": "FeatureCollection",
 "features": [
  {
   "type": "Feature",
   "properties": {
    "fid": 1032,
    "iso3": "AUS",
    "area_km2": 6.0217
   },
   "geometry": {
    "type": "Polygon",
    "coordinates": [
     [
      [
       121.3881,
       -30.817600000000006
      ],
      [
       121.38619999999999,
       -30.819100000000002
      ],
      [
       121.39009999999999,
       -30.826999999999998
      ],
      [
       121.39189999999999,
       -30.8352
      ],
      [
       121.4014,
       -30.8423
      ],
      [
       121.4003,
       -30.852599999999995
      ],
      [
       121.41279999999998,
       -30.854
      ],
      [
       121.41339999999998,
       -30.847200000000004
      ],
      [
       121.41879999999999,
       -30.845799999999997
      ],
      [
       121.4209,
       -30.842599999999997
      ],
      [
       121.41590000000001,
       -30.836100000000002
      ],
      [
       121.40759999999997,
       -30.830399999999994
      ],
      [
       121.4027,
       -30.825499999999984
      ],
      [
       121.4003,
       -30.819900000000004
      ],
      [
       121.39389999999999,
       -30.819900000000004
      ],
      [
       121.3881,
       -30.817600000000006
      ]
     ]
    ]
   }
  },
  {
   "type": "Feature",
   "properties": {
    "fid": 1155,
    "iso3": "AUS",
    "area_km2": 0.2572
   },
   "geometry": {
    "type": "Polygon",
    "coordinates": [
     [
      [
       121.41260000000001,
       -30.785300000000003
      ],
      [
       121.4148,
       -30.7882
      ],
      [
       121.41729999999998,
       -30.7886
      ],
      [
       121.41969999999999,
       -30.7869
      ],
      [
       121.41929999999998,
       -30.7855
      ],
      [
       121.4164,
       -30.782899999999998
      ],
      [
       121.41260000000001,
       -30.785300000000003
      ]
     ]
    ]
   }
  },
  {
   "type": "Feature",
   "properties": {
    "fid": 1154,
    "iso3": "AUS",
    "area_km2": 0.0355
   },
   "geometry": {
    "type": "Polygon",
    "coordinates": [
     [
      [
       121.42059999999998,
       -30.7868
      ],
      [
       121.42099999999999,
       -30.787100000000002
      ],
      [
       121.42129999999997,
       -30.787000000000003
      ],
      [
       121.42179999999999,
       -30.787499999999994
      ],
      [
       121.42249999999999,
       -30.787899999999997
      ],
      [
       121.4237,
       -30.787100000000002
      ],
      [
       121.42240000000001,
       -30.785700000000002
      ],
      [
       121.42059999999998,
       -30.7868
      ]
     ]
    ]
   }
  },
  {
   "type": "Feature",
   "properties": {
    "fid": 1158,
    "iso3": "AUS",
    "area_km2": 0.1309
   },
   "geometry": {
    "type": "Polygon",
    "coordinates": [
     [
      [
       121.42110000000001,
       -30.7793
      ],
      [
       121.42439999999999,
       -30.783700000000014
      ],
      [
       121.42509999999999,
       -30.7832
      ],
      [
       121.4248,
       -30.782700000000002
      ],
      [
       121.42579999999998,
       -30.782199999999996
      ],
      [
       121.4249,
       -30.780899999999995
      ],
      [
       121.42509999999999,
       -30.780199999999997
      ],
      [
       121.4235,
       -30.778
      ],
      [
       121.42110000000001,
       -30.7793
      ]
     ]
    ]
   }
  },
  {
   "type": "Feature",
   "properties": {
    "fid": 1060,
    "iso3": "AUS",
    "area_km2": 3.1336
   },
   "geometry": {
    "type": "Polygon",
    "coordinates": [
     [
      [
       121.46729999999998,
       -30.724800000000002
      ],
      [
       121.4674,
       -30.726699999999994
      ],
      [
       121.46839999999999,
       -30.728199999999998
      ],
      [
       121.46929999999998,
       -30.729299999999995
      ],
      [
       121.47040000000001,
       -30.730300000000007
      ],
      [
       121.47139999999999,
       -30.731099999999994
      ],
      [
       121.47300000000001,
       -30.732699999999998
      ],
      [
       121.47470000000001,
       -30.7342
      ],
      [
       121.47569999999999,
       -30.735400000000002
      ],
      [
       121.4768,
       -30.735699999999998
      ],
      [
       121.47899999999998,
       -30.7347
      ],
      [
       121.48049999999999,
       -30.73369999999999
      ],
      [
       121.48209999999999,
       -30.732
      ],
      [
       121.4831,
       -30.7307
      ],
      [
       121.4846,
       -30.7294
      ],
      [
       121.4857,
       -30.7286
      ],
      [
       121.4876,
       -30.728099999999998
      ],
      [
       121.48910000000001,
       -30.727499999999996
      ],
      [
       121.4911,
       -30.726899999999997
      ],
      [
       121.4909,
       -30.7258
      ],
      [
       121.4906,
       -30.7246
      ],
      [
       121.4909,
       -30.7233
      ],
      [
       121.49209999999998,
       -30.721799999999998
      ],
      [
       121.4931,
       -30.7202
      ],
      [
       121.49399999999999,
       -30.718999999999987
      ],
      [
       121.49459999999999,
       -30.718000000000004
      ],
      [
       121.4918,
       -30.717
      ],
      [
       121.4924,
       -30.7159
      ],
      [
       121.49009999999998,
       -30.7152
      ],
      [
       121.48780000000001,
       -30.714499999999997
      ],
      [
       121.4854,
       -30.71380000000001
      ],
      [
       121.48289999999999,
       -30.716099999999997
      ],
      [
       121.48169999999998,
       -30.7177
      ],
      [
       121.48,
       -30.7187
      ],
      [
       121.47769999999998,
       -30.720300000000012
      ],
      [
       121.4755,
       -30.721699999999995
      ],
      [
       121.47340000000001,
       -30.7226
      ],
      [
       121.4713,
       -30.724200000000003
      ],
      [
       121.46929999999998,
       -30.724899999999995
      ],
      [
       121.46729999999998,
       -30.724800000000002
      ]
     ]
    ]
   }
  },
  {
   "type": "Feature",
   "properties": {
    "fid": 1030,
    "iso3": "AUS",
    "area_km2": 0.2062
   },
   "geometry": {
    "type": "Polygon",
    "coordinates": [
     [
      [
       121.4687,
       -30.812300000000004
      ],
      [
       121.46950000000001,
       -30.8134
      ],
      [
       121.47099999999999,
       -30.815099999999997
      ],
      [
       121.4715,
       -30.815500000000004
      ],
      [
       121.4716,
       -30.8163
      ],
      [
       121.47229999999999,
       -30.8165
      ],
      [
       121.47309999999999,
       -30.816599999999994
      ],
      [
       121.4748,
       -30.81609999999999
      ],
      [
       121.4748,
       -30.815099999999997
      ],
      [
       121.47470000000001,
       -30.8139
      ],
      [
       121.4737,
       -30.81299999999999
      ],
      [
       121.4713,
       -30.811000000000003
      ],
      [
       121.4687,
       -30.812300000000004
      ]
     ]
    ]
   }
  },
  {
   "type": "Feature",
   "properties": {
    "fid": 1041,
    "iso3": "AUS",
    "area_km2": 0.0698
   },
   "geometry": {
    "type": "Polygon",
    "coordinates": [
     [
      [
       121.472,
       -30.8483
      ],
      [
       121.47229999999999,
       -30.8492
      ],
      [
       121.47249999999998,
       -30.850299999999997
      ],
      [
       121.4739,
       -30.853599999999993
      ],
      [
       121.475,
       -30.8542
      ],
      [
       121.47430000000001,
       -30.851499999999998
      ],
      [
       121.47229999999999,
       -30.847200000000004
      ],
      [
       121.472,
       -30.8483
      ]
     ]
    ]
   }
  },
  {
   "type": "Feature",
   "properties": {
    "fid": 1166,
    "iso3": "AUS",
    "area_km2": 0.1947
   },
   "geometry": {
    "type": "Polygon",
    "coordinates": [
     [
      [
       121.4785,
       -30.740700000000004
      ],
      [
       121.47789999999999,
       -30.7411
      ],
      [
       121.47779999999997,
       -30.7415
      ],
      [
       121.47839999999998,
       -30.742900000000006
      ],
      [
       121.47879999999999,
       -30.7441
      ],
      [
       121.47930000000001,
       -30.744999999999997
      ],
      [
       121.47959999999999,
       -30.745700000000003
      ],
      [
       121.47990000000001,
       -30.7466
      ],
      [
       121.4801,
       -30.7473
      ],
      [
       121.48049999999999,
       -30.747400000000003
      ],
      [
       121.4814,
       -30.7473
      ],
      [
       121.48219999999999,
       -30.7471
      ],
      [
       121.48299999999998,
       -30.7466
      ],
      [
       121.4831,
       -30.74629999999999
      ],
      [
       121.4828,
       -30.7459
      ],
      [
       121.4826,
       -30.7454
      ],
      [
       121.4824,
       -30.744999999999997
      ],
      [
       121.48229999999998,
       -30.7448
      ],
      [
       121.48229999999998,
       -30.744399999999995
      ],
      [
       121.48169999999998,
       -30.7442
      ],
      [
       121.4814,
       -30.743999999999993
      ],
      [
       121.4811,
       -30.743500000000004
      ],
      [
       121.48089999999999,
       -30.743099999999995
      ],
      [
       121.48089999999999,
       -30.7427
      ],
      [
       121.48089999999999,
       -30.7422
      ],
      [
       121.48049999999999,
       -30.741899999999998
      ],
      [
       121.48049999999999,
       -30.7415
      ],
      [
       121.48060000000001,
       -30.741200000000003
      ],
      [
       121.48060000000001,
       -30.7409
      ],
      [
       121.4798,
       -30.740799999999986
      ],
      [
       121.4794,
       -30.7406
      ],
      [
       121.47879999999999,
       -30.740599999999997
      ],
      [
       121.4785,
       -30.740700000000004
      ]
     ]
    ]
   }
  },
  {
   "type": "Feature",
   "properties": {
    "fid": 1057,
    "iso3": "AUS",
    "area_km2": 0.0107
   },
   "geometry": {
    "type": "Polygon",
    "coordinates": [
     [
      [
       121.47800000000001,
       -30.738100000000003
      ],
      [
       121.47789999999999,
       -30.7383
      ],
      [
       121.47800000000001,
       -30.738599999999987
      ],
      [
       121.4781,
       -30.738699999999994
      ],
      [
       121.4782,
       -30.738799999999998
      ],
      [
       121.47860000000001,
       -30.738799999999998
      ],
      [
       121.4789,
       -30.7387
      ],
      [
       121.47919999999999,
       -30.7386
      ],
      [
       121.47930000000001,
       -30.7384
      ],
      [
       121.47919999999999,
       -30.738199999999996
      ],
      [
       121.47909999999997,
       -30.737999999999996
      ],
      [
       121.4789,
       -30.7379
      ],
      [
       121.4787,
       -30.7378
      ],
      [
       121.47839999999998,
       -30.7379
      ],
      [
       121.4781,
       -30.738000000000003
      ],
      [
       121.47800000000001,
       -30.738100000000003
      ]
     ]
    ]
   }
  },
  {
   "type": "Feature",
   "properties": {
    "fid": 1157,
    "iso3": "AUS",
    "area_km2": 34.4023
   },
   "geometry": {
    "type": "Polygon",
    "coordinates": [
     [
      [
       121.5029,
       -30.8015
      ],
      [
       121.50099999999999,
       -30.802299999999995
      ],
      [
       121.50269999999999,
       -30.805999999999997
      ],
      [
       121.5043,
       -30.809099999999997
      ],
      [
       121.5063,
       -30.810200000000002
      ],
      [
       121.51079999999997,
       -30.811199999999996
      ],
      [
       121.51360000000001,
       -30.811000000000003
      ],
      [
       121.5174,
       -30.811400000000013
      ],
      [
       121.52,
       -30.812100000000008
      ],
      [
       121.52189999999997,
       -30.812800000000003
      ],
      [
       121.5254,
       -30.813699999999997
      ],
      [
       121.52899999999998,
       -30.814999999999998
      ],
      [
       121.53139999999999,
       -30.816599999999994
      ],
      [
       121.5341,
       -30.8183
      ],
      [
       121.53699999999999,
       -30.8189
      ],
      [
       121.53939999999999,
       -30.819200000000002
      ],
      [
       121.5411,
       -30.818199999999997
      ],
      [
       121.5437,
       -30.818099999999998
      ],
      [
       121.546,
       -30.818699999999996
      ],
      [
       121.5487,
       -30.819599999999994
      ],
      [
       121.5503,
       -30.819
      ],
      [
       121.5502,
       -30.817
      ],
      [
       121.5497,
       -30.815599999999996
      ],
      [
       121.54899999999999,
       -30.813599999999997
      ],
      [
       121.5497,
       -30.8126
      ],
      [
       121.5506,
       -30.8108
      ],
      [
       121.55109999999999,
       -30.809
      ],
      [
       121.5516,
       -30.807499999999997
      ],
      [
       121.55050000000001,
       -30.8056
      ],
      [
       121.5502,
       -30.8032
      ],
      [
       121.54920000000001,
       -30.801299999999998
      ],
      [
       121.5484,
       -30.799000000000003
      ],
      [
       121.5476,
       -30.796599999999998
      ],
      [
       121.5471,
       -30.794699999999995
      ],
      [
       121.54620000000001,
       -30.793300000000002
      ],
      [
       121.54589999999999,
       -30.791099999999997
      ],
      [
       121.5447,
       -30.7862
      ],
      [
       121.54230000000001,
       -30.781199999999995
      ],
      [
       121.54139999999998,
       -30.777099999999997
      ],
      [
       121.53879999999998,
       -30.771500000000003
      ],
      [
       121.5352,
       -30.7628
      ],
      [
       121.5302,
       -30.751400000000004
      ],
      [
       121.5259,
       -30.748299999999997
      ],
      [
       121.5169,
       -30.7411
      ],
      [
       121.5159,
       -30.7411
      ],
      [
       121.5141,
       -30.739799999999995
      ],
      [
       121.5137,
       -30.739500000000003
      ],
      [
       121.51339999999998,
       -30.739300000000004
      ],
      [
       121.51320000000001,
       -30.739099999999993
      ],
      [
       121.5131,
       -30.738999999999997
      ],
      [
       121.51209999999998,
       -30.7398
      ],
      [
       121.49209999999998,
       -30.740399999999987
      ],
      [
       121.49209999999998,
       -30.743000000000002
      ],
      [
       121.4963,
       -30.750799999999998
      ],
      [
       121.4952,
       -30.752800000000004
      ],
      [
       121.4887,
       -30.757199999999997
      ],
      [
       121.48899999999999,
       -30.757700000000003
      ],
      [
       121.48879999999998,
       -30.7579
      ],
      [
       121.4887,
       -30.758199999999988
      ],
      [
       121.4893,
       -30.75900000000001
      ],
      [
       121.49,
       -30.7598
      ],
      [
       121.49040000000001,
       -30.760199999999998
      ],
      [
       121.49079999999998,
       -30.760700000000003
      ],
      [
       121.4909,
       -30.760899999999992
      ],
      [
       121.49079999999998,
       -30.7609
      ],
      [
       121.4906,
       -30.7611
      ],
      [
       121.4906,
       -30.761300000000002
      ],
      [
       121.4905,
       -30.761599999999998
      ],
      [
       121.49009999999998,
       -30.7618
      ],
      [
       121.49100000000001,
       -30.7631
      ],
      [
       121.49209999999998,
       -30.7643
      ],
      [
       121.49269999999999,
       -30.7672
      ],
      [
       121.4926,
       -30.768
      ],
      [
       121.4922,
       -30.768700000000006
      ],
      [
       121.4919,
       -30.769099999999998
      ],
      [
       121.49159999999999,
       -30.7694
      ],
      [
       121.49139999999998,
       -30.7698
      ],
      [
       121.49119999999999,
       -30.7703
      ],
      [
       121.49119999999999,
       -30.770799999999998
      ],
      [
       121.49119999999999,
       -30.7712
      ],
      [
       121.4913,
       -30.77149999999999
      ],
      [
       121.4915,
       -30.772199999999998
      ],
      [
       121.49159999999999,
       -30.772599999999994
      ],
      [
       121.49199999999999,
       -30.773200000000003
      ],
      [
       121.4922,
       -30.7737
      ],
      [
       121.4924,
       -30.7743
      ],
      [
       121.49269999999999,
       -30.774699999999996
      ],
      [
       121.49419999999999,
       -30.779000000000003
      ],
      [
       121.49490000000002,
       -30.781
      ],
      [
       121.49549999999999,
       -30.782900000000005
      ],
      [
       121.49560000000001,
       -30.784000000000002
      ],
      [
       121.49579999999999,
       -30.7854
      ],
      [
       121.49579999999999,
       -30.786099999999998
      ],
      [
       121.49579999999999,
       -30.7868
      ],
      [
       121.4957,
       -30.787100000000002
      ],
      [
       121.49690000000001,
       -30.7873
      ],
      [
       121.49749999999999,
       -30.787399999999998
      ],
      [
       121.49839999999999,
       -30.7875
      ],
      [
       121.4991,
       -30.7876
      ],
      [
       121.4996,
       -30.787699999999994
      ],
      [
       121.49969999999999,
       -30.790299999999995
      ],
      [
       121.4998,
       -30.795400000000004
      ],
      [
       121.49990000000001,
       -30.797799999999988
      ],
      [
       121.49990000000001,
       -30.799199999999995
      ],
      [
       121.5035,
       -30.801499999999994
      ],
      [
       121.50489999999999,
       -30.8021
      ],
      [
       121.50619999999999,
       -30.802600000000005
      ],
      [
       121.5029,
       -30.8015
      ]
     ]
    ]
   }
  },
  {
   "type": "Feature",
   "properties": {
    "fid": 1027,
    "iso3": "AUS",
    "area_km2": 0.3487
   },
   "geometry": {
    "type": "Polygon",
    "coordinates": [
     [
      [
       121.495,
       -30.8081
      ],
      [
       121.4938,
       -30.809099999999997
      ],
      [
       121.49230000000001,
       -30.809199999999997
      ],
      [
       121.49209999999998,
       -30.81
      ],
      [
       121.4924,
       -30.810599999999997
      ],
      [
       121.49230000000001,
       -30.8146
      ],
      [
       121.498,
       -30.8146
      ],
      [
       121.4974,
       -30.8081
      ],
      [
       121.495,
       -30.8081
      ]
     ]
    ]
   }
  },
  {
   "type": "Feature",
   "properties": {
    "fid": 1028,
    "iso3": "AUS",
    "area_km2": 0.1922
   },
   "geometry": {
    "type": "Polygon",
    "coordinates": [
     [
      [
       121.49319999999999,
       -30.800999999999995
      ],
      [
       121.49600000000001,
       -30.802299999999995
      ],
      [
       121.49730000000001,
       -30.804599999999986
      ],
      [
       121.49990000000001,
       -30.8037
      ],
      [
       121.49839999999999,
       -30.800599999999985
      ],
      [
       121.49749999999999,
       -30.799699999999994
      ],
      [
       121.4951,
       -30.799000000000003
      ],
      [
       121.49319999999999,
       -30.800999999999995
      ]
     ]
    ]
   }
  },
  {
   "type": "Feature",
   "properties": {
    "fid": 1054,
    "iso3": "AUS",
    "area_km2": 0.402
   },
   "geometry": {
    "type": "Polygon",
    "coordinates": [
     [
      [
       121.49430000000001,
       -30.724300000000003
      ],
      [
       121.4944,
       -30.724399999999996
      ],
      [
       121.49690000000001,
       -30.7266
      ],
      [
       121.49719999999999,
       -30.7266
      ],
      [
       121.498,
       -30.726700000000008
      ],
      [
       121.49879999999999,
       -30.726899999999997
      ],
      [
       121.49990000000001,
       -30.7272
      ],
      [
       121.50049999999999,
       -30.727599999999985
      ],
      [
       121.50120000000001,
       -30.728099999999998
      ],
      [
       121.50139999999999,
       -30.7286
      ],
      [
       121.5016,
       -30.729299999999995
      ],
      [
       121.50229999999999,
       -30.729599999999998
      ],
      [
       121.5033,
       -30.7302
      ],
      [
       121.50410000000001,
       -30.729599999999998
      ],
      [
       121.50380000000001,
       -30.7291
      ],
      [
       121.503,
       -30.728400000000008
      ],
      [
       121.50250000000001,
       -30.727500000000003
      ],
      [
       121.5016,
       -30.726799999999997
      ],
      [
       121.50210000000001,
       -30.726100000000002
      ],
      [
       121.5024,
       -30.7259
      ],
      [
       121.50269999999999,
       -30.7252
      ],
      [
       121.5022,
       -30.724699999999995
      ],
      [
       121.5019,
       -30.724200000000003
      ],
      [
       121.50139999999999,
       -30.723799999999997
      ],
      [
       121.5004,
       -30.722800000000007
      ],
      [
       121.4981,
       -30.720499999999998
      ],
      [
       121.4978,
       -30.720599999999997
      ],
      [
       121.497,
       -30.7214
      ],
      [
       121.4963,
       -30.721899999999998
      ],
      [
       121.49549999999999,
       -30.722800000000007
      ],
      [
       121.49430000000001,
       -30.724300000000003
      ]
     ]
    ]
   }
  },
  {
   "type": "Feature",
   "properties": {
    "fid": 1052,
    "iso3": "AUS",
    "area_km2": 0.1053
   },
   "geometry": {
    "type": "Polygon",
    "coordinates": [
     [
      [
       121.5026,
       -30.715799999999994
      ],
      [
       121.5026,
       -30.716099999999997
      ],
      [
       121.5029,
       -30.7165
      ],
      [
       121.50269999999999,
       -30.716799999999996
      ],
      [
       121.5026,
       -30.7171
      ],
      [
       121.50229999999999,
       -30.717499999999998
      ],
      [
       121.5016,
       -30.718000000000004
      ],
      [
       121.50229999999999,
       -30.7187
      ],
      [
       121.503,
       -30.719
      ],
      [
       121.50399999999999,
       -30.7191
      ],
      [
       121.5046,
       -30.718599999999995
      ],
      [
       121.50580000000001,
       -30.7169
      ],
      [
       121.5055,
       -30.716799999999996
      ],
      [
       121.50540000000001,
       -30.7164
      ],
      [
       121.50450000000001,
       -30.715799999999998
      ],
      [
       121.5046,
       -30.715400000000002
      ],
      [
       121.5042,
       -30.714999999999996
      ],
      [
       121.5032,
       -30.7151
      ],
      [
       121.5026,
       -30.715799999999994
      ]
     ]
    ]
   }
  },
  {
   "type": "Feature",
   "properties": {
    "fid": 1159,
    "iso3": "AUS",
    "area_km2": 0.0506
   },
   "geometry": {
    "type": "Polygon",
    "coordinates": [
     [
      [
       121.5055,
       -30.738899999999997
      ],
      [
       121.50730000000001,
       -30.738899999999997
      ],
      [
       121.5072,
       -30.737399999999994
      ],
      [
       121.5081,
       -30.7373
      ],
      [
       121.50800000000001,
       -30.7366
      ],
      [
       121.5072,
       -30.7366
      ],
      [
       121.50689999999997,
       -30.7364
      ],
      [
       121.5065,
       -30.7365
      ],
      [
       121.50619999999999,
       -30.7366
      ],
      [
       121.50569999999999,
       -30.73709999999999
      ],
      [
       121.5052,
       -30.7372
      ],
      [
       121.5055,
       -30.738899999999997
      ]
     ]
    ]
   }
  },
  {
   "type": "Feature",
   "properties": {
    "fid": 1059,
    "iso3": "AUS",
    "area_km2": 0.5799
   },
   "geometry": {
    "type": "Polygon",
    "coordinates": [
     [
      [
       121.50540000000001,
       -30.7139
      ],
      [
       121.5133,
       -30.716099999999997
      ],
      [
       121.51650000000001,
       -30.71280000000001
      ],
      [
       121.513,
       -30.7063
      ],
      [
       121.50540000000001,
       -30.7139
      ]
     ]
    ]
   }
  },
  {
   "type": "Feature",
   "properties": {
    "fid": 1053,
    "iso3": "AUS",
    "area_km2": 0.2341
   },
   "geometry": {
    "type": "Polygon",
    "coordinates": [
     [
      [
       121.5176,
       -30.718499999999988
      ],
      [
       121.51750000000001,
       -30.719
      ],
      [
       121.5174,
       -30.7197
      ],
      [
       121.51719999999999,
       -30.7204
      ],
      [
       121.5169,
       -30.7213
      ],
      [
       121.51679999999999,
       -30.721899999999998
      ],
      [
       121.51679999999999,
       -30.722800000000007
      ],
      [
       121.51679999999999,
       -30.723699999999997
      ],
      [
       121.51780000000001,
       -30.7239
      ],
      [
       121.51880000000001,
       -30.724
      ],
      [
       121.52,
       -30.7241
      ],
      [
       121.52100000000002,
       -30.724200000000003
      ],
      [
       121.5213,
       -30.72319999999999
      ],
      [
       121.5213,
       -30.7226
      ],
      [
       121.52119999999998,
       -30.7215
      ],
      [
       121.52119999999998,
       -30.720599999999983
      ],
      [
       121.52059999999997,
       -30.718599999999995
      ],
      [
       121.5176,
       -30.718499999999988
      ]
     ]
    ]
   }
  },
  {
   "type": "Feature",
   "properties": {
    "fid": 1156,
    "iso3": "AUS",
    "area_km2": 5.4447
   },
   "geometry": {
    "type": "Polygon",
    "coordinates": [
     [
      [
       121.528,
       -30.7417
      ],
      [
       121.52860000000001,
       -30.742599999999996
      ],
      [
       121.5278,
       -30.743000000000002
      ],
      [
       121.52709999999998,
       -30.743199999999998
      ],
      [
       121.5265,
       -30.7436
      ],
      [
       121.5261,
       -30.743399999999998
      ],
      [
       121.5254,
       -30.743099999999995
      ],
      [
       121.52439999999999,
       -30.743199999999998
      ],
      [
       121.5242,
       -30.7436
      ],
      [
       121.5242,
       -30.7442
      ],
      [
       121.5242,
       -30.744900000000015
      ],
      [
       121.52449999999997,
       -30.7455
      ],
      [
       121.5252,
       -30.746100000000002
      ],
      [
       121.52600000000001,
       -30.747000000000003
      ],
      [
       121.52699999999999,
       -30.747799999999998
      ],
      [
       121.52879999999999,
       -30.748700000000003
      ],
      [
       121.52959999999999,
       -30.749499999999998
      ],
      [
       121.53089999999999,
       -30.750799999999998
      ],
      [
       121.53219999999999,
       -30.751799999999996
      ],
      [
       121.53349999999999,
       -30.753
      ],
      [
       121.53450000000001,
       -30.753700000000002
      ],
      [
       121.53580000000001,
       -30.754399999999997
      ],
      [
       121.53710000000001,
       -30.755499999999987
      ],
      [
       121.53840000000001,
       -30.7566
      ],
      [
       121.5396,
       -30.757700000000003
      ],
      [
       121.5406,
       -30.758500000000005
      ],
      [
       121.54100000000001,
       -30.758399999999998
      ],
      [
       121.54289999999999,
       -30.76
      ],
      [
       121.5431,
       -30.759900000000002
      ],
      [
       121.5439,
       -30.7605
      ],
      [
       121.5457,
       -30.761599999999998
      ],
      [
       121.547,
       -30.762699999999985
      ],
      [
       121.54820000000001,
       -30.7636
      ],
      [
       121.5502,
       -30.764999999999993
      ],
      [
       121.55099999999999,
       -30.7655
      ],
      [
       121.55229999999999,
       -30.76419999999999
      ],
      [
       121.55239999999999,
       -30.7643
      ],
      [
       121.55619999999999,
       -30.7606
      ],
      [
       121.5589,
       -30.759200000000007
      ],
      [
       121.5585,
       -30.758500000000005
      ],
      [
       121.5587,
       -30.758200000000002
      ],
      [
       121.5572,
       -30.745700000000003
      ],
      [
       121.55529999999999,
       -30.744699999999998
      ],
      [
       121.5555,
       -30.74459999999999
      ],
      [
       121.5556,
       -30.744399999999995
      ],
      [
       121.5558,
       -30.744300000000006
      ],
      [
       121.5559,
       -30.7441
      ],
      [
       121.5561,
       -30.743800000000004
      ],
      [
       121.5561,
       -30.743699999999997
      ],
      [
       121.5561,
       -30.743399999999998
      ],
      [
       121.5561,
       -30.743199999999998
      ],
      [
       121.55600000000001,
       -30.7429
      ],
      [
       121.5558,
       -30.7428
      ],
      [
       121.55569999999999,
       -30.7428
      ],
      [
       121.55529999999999,
       -30.7428
      ],
      [
       121.55499999999999,
       -30.742699999999985
      ],
      [
       121.5548,
       -30.742800000000006
      ],
      [
       121.5545,
       -30.742900000000006
      ],
      [
       121.5542,
       -30.7429
      ],
      [
       121.55399999999999,
       -30.7429
      ],
      [
       121.55369999999999,
       -30.743000000000002
      ],
      [
       121.55340000000001,
       -30.743099999999995
      ],
      [
       121.5532,
       -30.743099999999995
      ],
      [
       121.5532,
       -30.743300000000005
      ],
      [
       121.5533,
       -30.743399999999998
      ],
      [
       121.5533,
       -30.743600000000015
      ],
      [
       121.55340000000001,
       -30.7436
      ],
      [
       121.5541,
       -30.744
      ],
      [
       121.5545,
       -30.744300000000006
      ],
      [
       121.5532,
       -30.7436
      ],
      [
       121.5516,
       -30.7427
      ],
      [
       121.5515,
       -30.7427
      ],
      [
       121.54899999999999,
       -30.7414
      ],
      [
       121.52969999999998,
       -30.740799999999997
      ],
      [
       121.5298,
       -30.74149999999999
      ],
      [
       121.5294,
       -30.7415
      ],
      [
       121.5281,
       -30.7415
      ],
      [
       121.528,
       -30.7417
      ]
     ]
    ]
   }
  },
  {
   "type": "Feature",
   "properties": {
    "fid": 1153,
    "iso3": "AUS",
    "area_km2": 0.2003
   },
   "geometry": {
    "type": "Polygon",
    "coordinates": [
     [
      [
       121.52499999999999,
       -30.7338
      ],
      [
       121.52499999999999,
       -30.7391
      ],
      [
       121.5256,
       -30.7392
      ],
      [
       121.5255,
       -30.741299999999995
      ],
      [
       121.528,
       -30.7414
      ],
      [
       121.528,
       -30.737599999999997
      ],
      [
       121.5274,
       -30.737599999999997
      ],
      [
       121.52730000000001,
       -30.733899999999984
      ],
      [
       121.52499999999999,
       -30.7338
      ]
     ]
    ]
   }
  },
  {
   "type": "Feature",
   "properties": {
    "fid": 1045,
    "iso3": "AUS",
    "area_km2": 4.7578
   },
   "geometry": {
    "type": "Polygon",
    "coordinates": [
     [
      [
       121.54750000000001,
       -30.78719999999999
      ],
      [
       121.54820000000001,
       -30.790200000000002
      ],
      [
       121.5522,
       -30.79349999999999
      ],
      [
       121.5503,
       -30.797700000000003
      ],
      [
       121.55140000000002,
       -30.804599999999986
      ],
      [
       121.55229999999999,
       -30.8081
      ],
      [
       121.55529999999999,
       -30.8096
      ],
      [
       121.56030000000001,
       -30.8065
      ],
      [
       121.56719999999999,
       -30.8076
      ],
      [
       121.56710000000001,
       -30.8103
      ],
      [
       121.5732,
       -30.811100000000003
      ],
      [
       121.57549999999999,
       -30.791500000000003
      ],
      [
       121.553,
       -30.789099999999998
      ],
      [
       121.5516,
       -30.786099999999998
      ],
      [
       121.54750000000001,
       -30.78719999999999
      ]
     ]
    ]
   }
  }
 ],
 "license": "CC-BY-SA-4.0",
 "attribution": "Maus et al. 2022 (doi:10.1594/PANGAEA.942325)"
}
