{
 "type": "FeatureCollection",
 "features": [
  {
   "type": "Feature",
   "properties": {
    "fid": 26460,
    "iso3": "CAN",
    "area_km2": 611.0428
   },
   "geometry": {
    "type": "Polygon",
    "coordinates": [
     [
      [
       -111.29836999999999,
       57.033258
      ],
      [
       -111.430206,
       57.038488
      ],
      [
       -111.47140499999999,
       57.038488
      ],
      [
       -111.52771,
       57.057162999999996
      ],
      [
       -111.56066899999999,
       57.084038
      ],
      [
       -111.608734,
       57.112385
      ],
      [
       -111.64993299999999,
       57.131768
      ],
      [
       -111.707611,
       57.137730000000005
      ],
      [
       -111.758423,
       57.134749
      ],
      [
       -111.765289,
       57.092245999999996
      ],
      [
       -111.780396,
       57.056416
      ],
      [
       -111.799622,
       57.034005
      ],
      [
       -111.82571399999999,
       57.02129899999999
      ],
      [
       -111.82983399999999,
       57.004101999999996
      ],
      [
       -111.80374099999999,
       56.99662300000001
      ],
      [
       -111.806488,
       56.944973999999995
      ],
      [
       -111.74056999999999,
       56.927741999999995
      ],
      [
       -111.706238,
       56.948719
      ],
      [
       -111.706238,
       56.97118200000001
      ],
      [
       -111.63208,
       56.972679
      ],
      [
       -111.599121,
       56.97193
      ],
      [
       -111.57165499999999,
       56.94347599999999
      ],
      [
       -111.52771,
       56.919498
      ],
      [
       -111.47415199999999,
       56.91200099999999
      ],
      [
       -111.41922,
       56.909002
      ],
      [
       -111.358795,
       56.84371499999998
      ],
      [
       -111.29424999999999,
       56.838457
      ],
      [
       -111.20223999999999,
       56.85572999999998
      ],
      [
       -111.21047999999999,
       56.894003999999995
      ],
      [
       -111.22558599999999,
       56.926243
      ],
      [
       -111.258545,
       56.93973
      ],
      [
       -111.268158,
       56.975673
      ],
      [
       -111.236572,
       56.989141999999994
      ],
      [
       -111.237946,
       57.007093999999995
      ],
      [
       -111.29836999999999,
       57.033258
      ]
     ]
    ]
   }
  },
  {
   "type": "Feature",
   "properties": {
    "fid": 26458,
    "iso3": "CAN",
    "area_km2": 381.0673
   },
   "geometry": {
    "type": "Polygon",
    "coordinates": [
     [
      [
       -111.397247,
       57.300193
      ],
      [
       -111.399307,
       57.32503799999999
      ],
      [
       -111.42334000000001,
       57.336898999999995
      ],
      [
       -111.421967,
       57.348015
      ],
      [
       -111.42334000000001,
       57.367644000000006
      ],
      [
       -111.46385199999999,
       57.407612
      ],
      [
       -111.52565,
       57.409091
      ],
      [
       -111.55998199999999,
       57.409461
      ],
      [
       -111.62178,
       57.410201
      ],
      [
       -111.65062,
       57.364312
      ],
      [
       -111.66160599999999,
       57.338010999999995
      ],
      [
       -111.65817299999999,
       57.330968999999996
      ],
      [
       -111.65336599999999,
       57.310207
      ],
      [
       -111.632767,
       57.299451000000005
      ],
      [
       -111.619034,
       57.282011999999995
      ],
      [
       -111.61010700000001,
       57.258623
      ],
      [
       -111.599121,
       57.245622999999995
      ],
      [
       -111.599808,
       57.22927300000001
      ],
      [
       -111.601868,
       57.214403
      ],
      [
       -111.609421,
       57.198412
      ],
      [
       -111.612167,
       57.18539
      ],
      [
       -111.608047,
       57.17162
      ],
      [
       -111.599121,
       57.155981999999995
      ],
      [
       -111.58195500000001,
       57.158961000000005
      ],
      [
       -111.55586199999999,
       57.169014
      ],
      [
       -111.541443,
       57.176458999999994
      ],
      [
       -111.524963,
       57.189854999999994
      ],
      [
       -111.502991,
       57.1999
      ],
      [
       -111.48307799999999,
       57.20771
      ],
      [
       -111.451492,
       57.202503
      ],
      [
       -111.41098,
       57.204363
      ],
      [
       -111.357422,
       57.20101599999998
      ],
      [
       -111.28738399999999,
       57.203991
      ],
      [
       -111.28875699999999,
       57.227415
      ],
      [
       -111.29630999999999,
       57.235219
      ],
      [
       -111.29630999999999,
       57.248594999999995
      ],
      [
       -111.30455,
       57.253423
      ],
      [
       -111.30523699999999,
       57.275701999999995
      ],
      [
       -111.27845800000001,
       57.291289000000006
      ],
      [
       -111.28738399999999,
       57.297967
      ],
      [
       -111.334763,
       57.291289
      ],
      [
       -111.346436,
       57.28461
      ],
      [
       -111.37390099999999,
       57.28461
      ],
      [
       -111.397247,
       57.300193
      ]
     ]
    ]
   }
  }
 ],
 "license": "CC-BY-SA-4.0",
 "attribution": "Maus et al. 2022 (doi:10.1594/PANGAEA.942325)"
}
