{
 "type": "FeatureCollection",
 "features": [
  {
   "type": "Feature",
   "properties": {
    "fid": 44073,
    "iso3": "CHL",
    "area_km2": 287.2609
   },
   "geometry": {
    "type": "Polygon",
    "coordinates": [
     [
      [
       -69.42657363648371,
       -22.846707396274606
      ],
      [
       -69.42827199999999,
       -22.847545
      ],
      [
       -69.42732133448706,
       -22.84846165988928
      ],
      [
       -69.42900000000002,
       -22.8524
      ],
      [
       -69.40955304971484,
       -22.865591054217035
      ],
      [
       -69.405956,
       -22.869058
      ],
      [
       -69.390507,
       -22.885189999999998
      ],
      [
       -69.37454199999999,
       -22.903533999999997
      ],
      [
       -69.355659,
       -22.927725000000006
      ],
      [
       -69.323902,
       -22.902111000000005
      ],
      [
       -69.28390499999999,
       -22.862098
      ],
      [
       -69.23704099999999,
       -22.883450000000003
      ],
      [
       -69.225197,
       -22.870639
      ],
      [
       -69.208202,
       -22.84011
      ],
      [
       -69.222794,
       -22.810048
      ],
      [
       -69.224682,
       -22.78916
      ],
      [
       -69.22707812602053,
       -22.780173222745038
      ],
      [
       -69.2286,
       -22.7714
      ],
      [
       -69.22999999999999,
       -22.765899999999995
      ],
      [
       -69.2314,
       -22.762700000000002
      ],
      [
       -69.23202273488435,
       -22.761624391534387
      ],
      [
       -69.232235,
       -22.760828
      ],
      [
       -69.23273168208016,
       -22.760399850723527
      ],
      [
       -69.2336,
       -22.7589
      ],
      [
       -69.23519999999999,
       -22.7566
      ],
      [
       -69.23819999999999,
       -22.7551
      ],
      [
       -69.23882379877175,
       -22.755147988411487
      ],
      [
       -69.24013099999999,
       -22.754020999999998
      ],
      [
       -69.2467338032508,
       -22.7523118370075
      ],
      [
       -69.2468,
       -22.7521
      ],
      [
       -69.2492,
       -22.750199999999996
      ],
      [
       -69.25229999999999,
       -22.7505
      ],
      [
       -69.25325982985959,
       -22.75093629668722
      ],
      [
       -69.2850899,
       -22.7456809
      ],
      [
       -69.2965329,
       -22.744817299999998
      ],
      [
       -69.3049533,
       -22.7253857
      ],
      [
       -69.3166122,
       -22.717613099999998
      ],
      [
       -69.3364756,
       -22.727113000000003
      ],
      [
       -69.35180489999999,
       -22.749351299999994
      ],
      [
       -69.35396399999999,
       -22.7841122
      ],
      [
       -69.390678,
       -22.792166
      ],
      [
       -69.41625599999999,
       -22.802453
      ],
      [
       -69.41556899999999,
       -22.81732699999999
      ],
      [
       -69.38467,
       -22.829667999999998
      ],
      [
       -69.39170461545753,
       -22.831366346408785
      ],
      [
       -69.3984,
       -22.8284
      ],
      [
       -69.4039,
       -22.833499999999997
      ],
      [
       -69.4101,
       -22.836499999999997
      ],
      [
       -69.4166,
       -22.840000000000003
      ],
      [
       -69.4264,
       -22.8463
      ],
      [
       -69.42657363648371,
       -22.846707396274606
      ]
     ]
    ]
   }
  }
 ],
 "license": "CC-BY-SA-4.0",
 "attribution": "Maus et al. 2022 (doi:10.1594/PANGAEA.942325)"
}
