{
 "type": "FeatureCollection",
 "features": [
  {
   "type": "Feature",
   "properties": {
    "fid": 2438,
    "iso3": "CHL",
    "area_km2": 1357.9458
   },
   "geometry": {
    "type": "Polygon",
    "coordinates": [
     [
      [
       -68.3287,
       -23.671699999999998
      ],
      [
       -68.32679999999999,
       -23.676000000000002
      ],
      [
       -68.3172,
       -23.6849
      ],
      [
       -68.3082,
       -23.6956
      ],
      [
       -68.3042,
       -23.7058
      ],
      [
       -68.2988,
       -23.7118
      ],
      [
       -68.2893,
       -23.722599999999996
      ],
      [
       -68.2841,
       -23.7272
      ],
      [
       -68.27629999999999,
       -23.7257
      ],
      [
       -68.2672,
       -23.7172
      ],
      [
       -68.24849999999999,
       -23.700899999999997
      ],
      [
       -68.2338,
       -23.6897
      ],
      [
       -68.2137,
       -23.6787
      ],
      [
       -68.1884,
       -23.6587
      ],
      [
       -68.15509999999999,
       -23.646399999999996
      ],
      [
       -68.1221,
       -23.642599999999998
      ],
      [
       -68.1039,
       -23.6341
      ],
      [
       -68.10119999999999,
       -23.5964
      ],
      [
       -68.119,
       -23.5385
      ],
      [
       -68.1255,
       -23.4991
      ],
      [
       -68.1348,
       -23.4481
      ],
      [
       -68.14,
       -23.3961
      ],
      [
       -68.15129999999999,
       -23.3797
      ],
      [
       -68.1676,
       -23.3662
      ],
      [
       -68.1859,
       -23.363999999999997
      ],
      [
       -68.2265,
       -23.3543
      ],
      [
       -68.24499999999999,
       -23.3528
      ],
      [
       -68.2605,
       -23.351599999999998
      ],
      [
       -68.2916,
       -23.3524
      ],
      [
       -68.3282,
       -23.3506
      ],
      [
       -68.3487,
       -23.346999999999998
      ],
      [
       -68.3652,
       -23.3404
      ],
      [
       -68.3909,
       -23.3549
      ],
      [
       -68.4085,
       -23.373999999999995
      ],
      [
       -68.4156,
       -23.389000000000003
      ],
      [
       -68.4297,
       -23.4042
      ],
      [
       -68.4396,
       -23.413500000000006
      ],
      [
       -68.46010000000001,
       -23.426199999999998
      ],
      [
       -68.4765,
       -23.438100000000002
      ],
      [
       -68.48949999999999,
       -23.4607
      ],
      [
       -68.5095,
       -23.4804
      ],
      [
       -68.51140000000001,
       -23.504499999999997
      ],
      [
       -68.5059,
       -23.5287
      ],
      [
       -68.5073,
       -23.54829999999999
      ],
      [
       -68.52159999999999,
       -23.5628
      ],
      [
       -68.52629999999999,
       -23.567800000000005
      ],
      [
       -68.54299999999999,
       -23.583299999999998
      ],
      [
       -68.5479,
       -23.596799999999998
      ],
      [
       -68.5495,
       -23.603099999999998
      ],
      [
       -68.5546,
       -23.611600000000006
      ],
      [
       -68.5588,
       -23.619199999999996
      ],
      [
       -68.5608,
       -23.627399999999998
      ],
      [
       -68.56330000000001,
       -23.636799999999997
      ],
      [
       -68.5666,
       -23.6431
      ],
      [
       -68.5701,
       -23.6498
      ],
      [
       -68.5714,
       -23.6521
      ],
      [
       -68.5714,
       -23.652400000000007
      ],
      [
       -68.5728,
       -23.6533
      ],
      [
       -68.5766,
       -23.653700000000008
      ],
      [
       -68.5793,
       -23.6554
      ],
      [
       -68.5816,
       -23.657999999999998
      ],
      [
       -68.5827,
       -23.6614
      ],
      [
       -68.5825,
       -23.664599999999993
      ],
      [
       -68.5814,
       -23.668
      ],
      [
       -68.58,
       -23.670099999999998
      ],
      [
       -68.5774,
       -23.669399999999992
      ],
      [
       -68.573,
       -23.6661
      ],
      [
       -68.571,
       -23.6636
      ],
      [
       -68.571,
       -23.665300000000002
      ],
      [
       -68.564,
       -23.667199999999998
      ],
      [
       -68.5432,
       -23.6658
      ],
      [
       -68.53479999999999,
       -23.6637
      ],
      [
       -68.5317,
       -23.668299999999995
      ],
      [
       -68.5317,
       -23.6735
      ],
      [
       -68.5283,
       -23.68839999999999
      ],
      [
       -68.5217,
       -23.696199999999997
      ],
      [
       -68.5157,
       -23.701000000000008
      ],
      [
       -68.5042,
       -23.6994
      ],
      [
       -68.49629999999999,
       -23.697699999999998
      ],
      [
       -68.4931,
       -23.696199999999997
      ],
      [
       -68.4837,
       -23.6996
      ],
      [
       -68.4787,
       -23.7025
      ],
      [
       -68.4697,
       -23.709600000000002
      ],
      [
       -68.46589999999999,
       -23.713400000000007
      ],
      [
       -68.462,
       -23.7153
      ],
      [
       -68.4579,
       -23.714900000000007
      ],
      [
       -68.4513,
       -23.7045
      ],
      [
       -68.4478,
       -23.68709999999999
      ],
      [
       -68.4444,
       -23.67579999999999
      ],
      [
       -68.4366,
       -23.6649
      ],
      [
       -68.4269,
       -23.6588
      ],
      [
       -68.41799999999999,
       -23.652700000000006
      ],
      [
       -68.4078,
       -23.647
      ],
      [
       -68.39909999999999,
       -23.642299999999995
      ],
      [
       -68.3809,
       -23.636799999999997
      ],
      [
       -68.3822,
       -23.6332
      ],
      [
       -68.3905,
       -23.632099999999998
      ],
      [
       -68.4014,
       -23.6319
      ],
      [
       -68.40769999999999,
       -23.632199999999997
      ],
      [
       -68.4127,
       -23.62739999999999
      ],
      [
       -68.4129,
       -23.6202
      ],
      [
       -68.41080000000001,
       -23.61199999999999
      ],
      [
       -68.4065,
       -23.6065
      ],
      [
       -68.3998,
       -23.603599999999993
      ],
      [
       -68.3925,
       -23.6059
      ],
      [
       -68.3819,
       -23.6131
      ],
      [
       -68.3764,
       -23.6205
      ],
      [
       -68.36749999999999,
       -23.627100000000006
      ],
      [
       -68.3627,
       -23.6297
      ],
      [
       -68.3519,
       -23.6329
      ],
      [
       -68.3437,
       -23.6363
      ],
      [
       -68.3411,
       -23.643
      ],
      [
       -68.3411,
       -23.6431
      ],
      [
       -68.34049999999999,
       -23.651
      ],
      [
       -68.3387,
       -23.6584
      ],
      [
       -68.3325,
       -23.670900000000003
      ],
      [
       -68.3287,
       -23.671699999999998
      ]
     ]
    ]
   }
  }
 ],
 "license": "CC-BY-SA-4.0",
 "attribution": "Maus et al. 2022 (doi:10.1594/PANGAEA.942325)"
}
