{
 "type": "FeatureCollection",
 "features": [
  {
   "type": "Feature",
   "properties": {
    "fid": 9214,
    "iso3": "UZB",
    "area_km2": 0.2742
   },
   "geometry": {
    "type": "Polygon",
    "coordinates": [
     [
      [
       64.4825,
       41.4842
      ],
      [
       64.483,
       41.4833
      ],
      [
       64.4834,
       41.4816
      ],
      [
       64.4847,
       41.4812
      ],
      [
       64.48559999999999,
       41.4812
      ],
      [
       64.4879,
       41.4812
      ],
      [
       64.4898,
       41.4811
      ],
      [
       64.4902,
       41.4814
      ],
      [
       64.4913,
       41.4818
      ],
      [
       64.4914,
       41.4822
      ],
      [
       64.4914,
       41.4829
      ],
      [
       64.491,
       41.4845
      ],
      [
       64.4902,
       41.4848
      ],
      [
       64.4876,
       41.4852
      ],
      [
       64.4853,
       41.485099999999996
      ],
      [
       64.4841,
       41.4845
      ],
      [
       64.4825,
       41.4842
      ]
     ]
    ]
   }
  },
  {
   "type": "Feature",
   "properties": {
    "fid": 9215,
    "iso3": "UZB",
    "area_km2": 0.0596
   },
   "geometry": {
    "type": "Polygon",
    "coordinates": [
     [
      [
       64.4941,
       41.4846
      ],
      [
       64.4932,
       41.4831
      ],
      [
       64.4935,
       41.4826
      ],
      [
       64.4939,
       41.48249999999999
      ],
      [
       64.4948,
       41.4824
      ],
      [
       64.4954,
       41.4824
      ],
      [
       64.4962,
       41.4825
      ],
      [
       64.4968,
       41.4827
      ],
      [
       64.497,
       41.48299999999999
      ],
      [
       64.497,
       41.483399999999996
      ],
      [
       64.4969,
       41.4839
      ],
      [
       64.4967,
       41.4841
      ],
      [
       64.4962,
       41.4843
      ],
      [
       64.4953,
       41.48440000000001
      ],
      [
       64.4941,
       41.4846
      ]
     ]
    ]
   }
  },
  {
   "type": "Feature",
   "properties": {
    "fid": 9276,
    "iso3": "UZB",
    "area_km2": 63.4769
   },
   "geometry": {
    "type": "Polygon",
    "coordinates": [
     [
      [
       64.5579,
       41.50949999999998
      ],
      [
       64.5517,
       41.5105
      ],
      [
       64.5388,
       41.5092
      ],
      [
       64.5311,
       41.5042
      ],
      [
       64.53009999999999,
       41.488499999999995
      ],
      [
       64.5201,
       41.4844
      ],
      [
       64.5086,
       41.4889
      ],
      [
       64.5016,
       41.485
      ],
      [
       64.51169999999999,
       41.4573
      ],
      [
       64.51389999999999,
       41.4252
      ],
      [
       64.55409999999999,
       41.42449999999999
      ],
      [
       64.5503,
       41.4524
      ],
      [
       64.5478,
       41.4636
      ],
      [
       64.5634,
       41.461800000000004
      ],
      [
       64.57730000000001,
       41.4531
      ],
      [
       64.5886,
       41.451299999999996
      ],
      [
       64.59479999999999,
       41.4544
      ],
      [
       64.6144,
       41.461299999999994
      ],
      [
       64.6221,
       41.468199999999996
      ],
      [
       64.625,
       41.48849999999999
      ],
      [
       64.6279,
       41.493300000000005
      ],
      [
       64.6164,
       41.4998
      ],
      [
       64.6056,
       41.512899999999995
      ],
      [
       64.5783,
       41.5167
      ],
      [
       64.5579,
       41.50949999999998
      ]
     ]
    ]
   }
  },
  {
   "type": "Feature",
   "properties": {
    "fid": 9256,
    "iso3": "UZB",
    "area_km2": 0.8765
   },
   "geometry": {
    "type": "Polygon",
    "coordinates": [
     [
      [
       64.55839999999999,
       41.451499999999996
      ],
      [
       64.55449999999999,
       41.446
      ],
      [
       64.5666,
       41.442499999999995
      ],
      [
       64.57119999999999,
       41.447399999999995
      ],
      [
       64.56819999999999,
       41.4505
      ],
      [
       64.55839999999999,
       41.451499999999996
      ]
     ]
    ]
   }
  }
 ],
 "license": "CC-BY-SA-4.0",
 "attribution": "Maus et al. 2022 (doi:10.1594/PANGAEA.942325)"
}
