{
 "type": "FeatureCollection",
 "features": [
  {
   "type": "Feature",
   "properties": {
    "fid": 26752,
    "iso3": "CHL",
    "area_km2": 11.3254
   },
   "geometry": {
    "type": "Polygon",
    "coordinates": [
     [
      [
       -70.619173,
       -31.850877999999994
      ],
      [
       -70.61977399999999,
       -31.85773100000001
      ],
      [
       -70.62080399999999,
       -31.860573999999996
      ],
      [
       -70.614023,
       -31.865312000000003
      ],
      [
       -70.610247,
       -31.86531199999999
      ],
      [
       -70.604067,
       -31.85816800000001
      ],
      [
       -70.60226399999999,
       -31.853284
      ],
      [
       -70.59702899999999,
       -31.851169000000002
      ],
      [
       -70.59325199999999,
       -31.84817999999999
      ],
      [
       -70.592308,
       -31.84417
      ],
      [
       -70.59496899999999,
       -31.841471999999996
      ],
      [
       -70.59728600000001,
       -31.837972
      ],
      [
       -70.59454,
       -31.834545
      ],
      [
       -70.589561,
       -31.830462
      ],
      [
       -70.58466899999999,
       -31.827544999999997
      ],
      [
       -70.58123599999999,
       -31.826086
      ],
      [
       -70.578146,
       -31.822877000000002
      ],
      [
       -70.578575,
       -31.819813999999994
      ],
      [
       -70.57848899999999,
       -31.817042999999998
      ],
      [
       -70.57565699999999,
       -31.814781999999997
      ],
      [
       -70.57359699999999,
       -31.813104000000003
      ],
      [
       -70.57222399999999,
       -31.807268999999994
      ],
      [
       -70.571022,
       -31.805081
      ],
      [
       -70.575142,
       -31.805081
      ],
      [
       -70.577974,
       -31.806466999999987
      ],
      [
       -70.582867,
       -31.806466999999987
      ],
      [
       -70.58672899999999,
       -31.807342
      ],
      [
       -70.588188,
       -31.810333
      ],
      [
       -70.58775899999999,
       -31.813104000000003
      ],
      [
       -70.591278,
       -31.816459
      ],
      [
       -70.59325199999999,
       -31.820179
      ],
      [
       -70.597115,
       -31.824918999999998
      ],
      [
       -70.600805,
       -31.829295
      ],
      [
       -70.604582,
       -31.832795
      ],
      [
       -70.6075,
       -31.832212000000013
      ],
      [
       -70.609732,
       -31.830023999999998
      ],
      [
       -70.613337,
       -31.831118000000004
      ],
      [
       -70.616169,
       -31.832138999999994
      ],
      [
       -70.619688,
       -31.832721999999997
      ],
      [
       -70.620117,
       -31.834399
      ],
      [
       -70.620117,
       -31.836149
      ],
      [
       -70.620117,
       -31.838700999999993
      ],
      [
       -70.62028900000001,
       -31.842638999999995
      ],
      [
       -70.620117,
       -31.845191000000003
      ],
      [
       -70.62003100000001,
       -31.849420000000006
      ],
      [
       -70.619173,
       -31.850877999999994
      ]
     ]
    ]
   }
  },
  {
   "type": "Feature",
   "properties": {
    "fid": 1975,
    "iso3": "CHL",
    "area_km2": 0.3154
   },
   "geometry": {
    "type": "Polygon",
    "coordinates": [
     [
      [
       -70.527,
       -31.7716
      ],
      [
       -70.5278,
       -31.771800000000002
      ],
      [
       -70.52839999999999,
       -31.772199999999998
      ],
      [
       -70.5295,
       -31.77270000000001
      ],
      [
       -70.53,
       -31.773600000000012
      ],
      [
       -70.5298,
       -31.774500000000003
      ],
      [
       -70.5298,
       -31.775199999999998
      ],
      [
       -70.5298,
       -31.77579999999999
      ],
      [
       -70.53009999999999,
       -31.776399999999995
      ],
      [
       -70.5308,
       -31.776999999999997
      ],
      [
       -70.5309,
       -31.777600000000003
      ],
      [
       -70.5298,
       -31.7778
      ],
      [
       -70.5294,
       -31.777600000000003
      ],
      [
       -70.52879999999999,
       -31.777199999999997
      ],
      [
       -70.52839999999999,
       -31.77699999999999
      ],
      [
       -70.5277,
       -31.7768
      ],
      [
       -70.52709999999999,
       -31.776300000000003
      ],
      [
       -70.5264,
       -31.776099999999992
      ],
      [
       -70.5258,
       -31.7761
      ],
      [
       -70.52459999999999,
       -31.775899999999996
      ],
      [
       -70.524,
       -31.7755
      ],
      [
       -70.5238,
       -31.775199999999998
      ],
      [
       -70.52329999999999,
       -31.774400000000007
      ],
      [
       -70.523,
       -31.773899999999998
      ],
      [
       -70.5228,
       -31.7735
      ],
      [
       -70.5228,
       -31.7729
      ],
      [
       -70.52289999999999,
       -31.772599999999997
      ],
      [
       -70.5239,
       -31.772699999999997
      ],
      [
       -70.5244,
       -31.772499999999997
      ],
      [
       -70.5247,
       -31.772
      ],
      [
       -70.5249,
       -31.7717
      ],
      [
       -70.5256,
       -31.771400000000003
      ],
      [
       -70.52629999999999,
       -31.771399999999996
      ],
      [
       -70.527,
       -31.7716
      ]
     ]
    ]
   }
  },
  {
   "type": "Feature",
   "properties": {
    "fid": 1980,
    "iso3": "CHL",
    "area_km2": 20.1934
   },
   "geometry": {
    "type": "Polygon",
    "coordinates": [
     [
      [
       -70.52159999999999,
       -31.717799999999997
      ],
      [
       -70.52,
       -31.7194
      ],
      [
       -70.51899999999999,
       -31.722000000000012
      ],
      [
       -70.5187,
       -31.7238
      ],
      [
       -70.51729999999999,
       -31.7257
      ],
      [
       -70.5157,
       -31.727399999999996
      ],
      [
       -70.5137,
       -31.7288
      ],
      [
       -70.512,
       -31.729499999999987
      ],
      [
       -70.5097,
       -31.729899999999997
      ],
      [
       -70.5082,
       -31.730499999999996
      ],
      [
       -70.50529999999999,
       -31.731499999999993
      ],
      [
       -70.5034,
       -31.731700000000004
      ],
      [
       -70.50099999999999,
       -31.7327
      ],
      [
       -70.5005,
       -31.7346
      ],
      [
       -70.5005,
       -31.737800000000007
      ],
      [
       -70.5005,
       -31.74
      ],
      [
       -70.5013,
       -31.7423
      ],
      [
       -70.50269999999999,
       -31.7457
      ],
      [
       -70.5037,
       -31.7502
      ],
      [
       -70.5054,
       -31.751999999999985
      ],
      [
       -70.5073,
       -31.753699999999995
      ],
      [
       -70.5084,
       -31.756200000000003
      ],
      [
       -70.50919999999999,
       -31.7585
      ],
      [
       -70.5103,
       -31.761999999999997
      ],
      [
       -70.5061,
       -31.759999999999998
      ],
      [
       -70.5025,
       -31.7578
      ],
      [
       -70.49889999999999,
       -31.755499999999994
      ],
      [
       -70.4965,
       -31.752399999999994
      ],
      [
       -70.4958,
       -31.7496
      ],
      [
       -70.4948,
       -31.7477
      ],
      [
       -70.4934,
       -31.745500000000003
      ],
      [
       -70.4909,
       -31.743199999999998
      ],
      [
       -70.4855,
       -31.742400000000004
      ],
      [
       -70.4843,
       -31.7414
      ],
      [
       -70.4836,
       -31.739199999999997
      ],
      [
       -70.4854,
       -31.737900000000007
      ],
      [
       -70.4863,
       -31.736200000000004
      ],
      [
       -70.4859,
       -31.733999999999995
      ],
      [
       -70.4832,
       -31.7332
      ],
      [
       -70.4801,
       -31.734
      ],
      [
       -70.47659999999999,
       -31.7319
      ],
      [
       -70.4754,
       -31.72960000000001
      ],
      [
       -70.4744,
       -31.726699999999997
      ],
      [
       -70.4733,
       -31.724700000000002
      ],
      [
       -70.4729,
       -31.722399999999986
      ],
      [
       -70.4729,
       -31.7199
      ],
      [
       -70.4722,
       -31.717999999999996
      ],
      [
       -70.47229999999999,
       -31.716099999999997
      ],
      [
       -70.4724,
       -31.714199999999998
      ],
      [
       -70.4724,
       -31.711499999999997
      ],
      [
       -70.4727,
       -31.709000000000003
      ],
      [
       -70.47359999999999,
       -31.7079
      ],
      [
       -70.47449999999999,
       -31.706300000000006
      ],
      [
       -70.47359999999999,
       -31.704199999999997
      ],
      [
       -70.47189999999999,
       -31.702399999999997
      ],
      [
       -70.471,
       -31.69980000000001
      ],
      [
       -70.47149999999999,
       -31.697799999999997
      ],
      [
       -70.477,
       -31.695999999999998
      ],
      [
       -70.4808,
       -31.6942
      ],
      [
       -70.48179999999999,
       -31.692
      ],
      [
       -70.485,
       -31.690099999999994
      ],
      [
       -70.48859999999999,
       -31.689799999999998
      ],
      [
       -70.49029999999999,
       -31.690800000000014
      ],
      [
       -70.4936,
       -31.68979999999999
      ],
      [
       -70.4957,
       -31.688399999999998
      ],
      [
       -70.4982,
       -31.6868
      ],
      [
       -70.50019999999999,
       -31.6855
      ],
      [
       -70.50319999999999,
       -31.684399999999997
      ],
      [
       -70.5048,
       -31.6843
      ],
      [
       -70.5063,
       -31.685900000000004
      ],
      [
       -70.5056,
       -31.68769999999999
      ],
      [
       -70.5047,
       -31.6897
      ],
      [
       -70.5035,
       -31.6911
      ],
      [
       -70.5024,
       -31.691699999999997
      ],
      [
       -70.5007,
       -31.6925
      ],
      [
       -70.49929999999999,
       -31.692899999999998
      ],
      [
       -70.4974,
       -31.6937
      ],
      [
       -70.49759999999999,
       -31.6954
      ],
      [
       -70.49669999999999,
       -31.6967
      ],
      [
       -70.4954,
       -31.69789999999999
      ],
      [
       -70.49499999999999,
       -31.698999999999998
      ],
      [
       -70.4971,
       -31.698300000000003
      ],
      [
       -70.4995,
       -31.6968
      ],
      [
       -70.50189999999999,
       -31.69520000000001
      ],
      [
       -70.5047,
       -31.6942
      ],
      [
       -70.50659999999999,
       -31.695999999999998
      ],
      [
       -70.5069,
       -31.6993
      ],
      [
       -70.5064,
       -31.701599999999996
      ],
      [
       -70.5063,
       -31.70359999999999
      ],
      [
       -70.50569999999999,
       -31.706499999999995
      ],
      [
       -70.50489999999999,
       -31.709000000000003
      ],
      [
       -70.5046,
       -31.710800000000003
      ],
      [
       -70.5039,
       -31.713099999999994
      ],
      [
       -70.5035,
       -31.715
      ],
      [
       -70.5055,
       -31.714000000000002
      ],
      [
       -70.5063,
       -31.711999999999993
      ],
      [
       -70.5072,
       -31.709500000000002
      ],
      [
       -70.5091,
       -31.7088
      ],
      [
       -70.5107,
       -31.708499999999997
      ],
      [
       -70.5136,
       -31.709000000000003
      ],
      [
       -70.5145,
       -31.7101
      ],
      [
       -70.51540000000001,
       -31.710499999999993
      ],
      [
       -70.5171,
       -31.710099999999994
      ],
      [
       -70.5188,
       -31.711499999999997
      ],
      [
       -70.52069999999999,
       -31.711999999999993
      ],
      [
       -70.5212,
       -31.7133
      ],
      [
       -70.52199999999999,
       -31.714899999999997
      ],
      [
       -70.5218,
       -31.7156
      ],
      [
       -70.52159999999999,
       -31.717799999999997
      ]
     ]
    ]
   }
  }
 ],
 "license": "CC-BY-SA-4.0",
 "attribution": "Maus et al. 2022 (doi:10.1594/PANGAEA.942325)"
}
