{
 "type": "FeatureCollection",
 "features": [
  {
   "type": "Feature",
   "properties": {
    "fid": 3634,
    "iso3": "CHL",
    "area_km2": 178.487
   },
   "geometry": {
    "type": "Polygon",
    "coordinates": [
     [
      [
       -68.8814,
       -22.173199999999998
      ],
      [
       -68.8862,
       -22.173399999999997
      ],
      [
       -68.8937,
       -22.1752
      ],
      [
       -68.8972,
       -22.1879
      ],
      [
       -68.8922,
       -22.1895
      ],
      [
       -68.893,
       -22.193900000000003
      ],
      [
       -68.89439999999999,
       -22.197699999999998
      ],
      [
       -68.8959,
       -22.201600000000003
      ],
      [
       -68.8999,
       -22.203799999999998
      ],
      [
       -68.902,
       -22.205800000000004
      ],
      [
       -68.9047,
       -22.207399999999996
      ],
      [
       -68.90729999999999,
       -22.208099999999998
      ],
      [
       -68.91,
       -22.209799999999998
      ],
      [
       -68.9109,
       -22.2117
      ],
      [
       -68.9104,
       -22.214299999999998
      ],
      [
       -68.90679999999999,
       -22.214600000000004
      ],
      [
       -68.9033,
       -22.2152
      ],
      [
       -68.9023,
       -22.2181
      ],
      [
       -68.9016,
       -22.2209
      ],
      [
       -68.90259999999999,
       -22.223000000000006
      ],
      [
       -68.90729999999999,
       -22.2246
      ],
      [
       -68.9112,
       -22.2263
      ],
      [
       -68.9135,
       -22.2286
      ],
      [
       -68.9138,
       -22.231299999999997
      ],
      [
       -68.91239999999999,
       -22.2349
      ],
      [
       -68.9119,
       -22.239800000000006
      ],
      [
       -68.9119,
       -22.244300000000006
      ],
      [
       -68.9102,
       -22.247799999999998
      ],
      [
       -68.90639999999999,
       -22.2499
      ],
      [
       -68.9075,
       -22.252699999999997
      ],
      [
       -68.91069999999999,
       -22.2549
      ],
      [
       -68.9135,
       -22.258000000000006
      ],
      [
       -68.9148,
       -22.261100000000006
      ],
      [
       -68.9147,
       -22.2638
      ],
      [
       -68.9147,
       -22.265100000000007
      ],
      [
       -68.91409999999999,
       -22.270200000000006
      ],
      [
       -68.9157,
       -22.274300000000007
      ],
      [
       -68.91709999999999,
       -22.2769
      ],
      [
       -68.9181,
       -22.2791
      ],
      [
       -68.9203,
       -22.2804
      ],
      [
       -68.92309999999999,
       -22.2804
      ],
      [
       -68.92699999999999,
       -22.281
      ],
      [
       -68.9287,
       -22.2824
      ],
      [
       -68.9303,
       -22.285000000000004
      ],
      [
       -68.93130000000001,
       -22.287800000000004
      ],
      [
       -68.9327,
       -22.289099999999998
      ],
      [
       -68.93469999999999,
       -22.2916
      ],
      [
       -68.9366,
       -22.2943
      ],
      [
       -68.9384,
       -22.298299999999998
      ],
      [
       -68.9397,
       -22.3004
      ],
      [
       -68.94279999999999,
       -22.30579999999999
      ],
      [
       -68.9461,
       -22.309400000000004
      ],
      [
       -68.9468,
       -22.3128
      ],
      [
       -68.9456,
       -22.317500000000006
      ],
      [
       -68.9457,
       -22.3239
      ],
      [
       -68.9404,
       -22.32879999999999
      ],
      [
       -68.9356,
       -22.3309
      ],
      [
       -68.931,
       -22.333199999999998
      ],
      [
       -68.9293,
       -22.3372
      ],
      [
       -68.9286,
       -22.3429
      ],
      [
       -68.9279,
       -22.3483
      ],
      [
       -68.9258,
       -22.3552
      ],
      [
       -68.9234,
       -22.36340000000001
      ],
      [
       -68.9195,
       -22.3709
      ],
      [
       -68.9196,
       -22.3756
      ],
      [
       -68.92099999999999,
       -22.380899999999993
      ],
      [
       -68.92099999999999,
       -22.3861
      ],
      [
       -68.92,
       -22.389599999999998
      ],
      [
       -68.9219,
       -22.3979
      ],
      [
       -68.9229,
       -22.404500000000002
      ],
      [
       -68.92049999999999,
       -22.4083
      ],
      [
       -68.9123,
       -22.4113
      ],
      [
       -68.9088,
       -22.409399999999998
      ],
      [
       -68.9037,
       -22.4055
      ],
      [
       -68.9023,
       -22.406299999999998
      ],
      [
       -68.9002,
       -22.407200000000003
      ],
      [
       -68.8912,
       -22.409499999999998
      ],
      [
       -68.88260000000001,
       -22.4059
      ],
      [
       -68.87899999999999,
       -22.40039999999999
      ],
      [
       -68.8809,
       -22.3917
      ],
      [
       -68.8935,
       -22.381300000000003
      ],
      [
       -68.88580000000002,
       -22.379900000000006
      ],
      [
       -68.88069999999999,
       -22.381999999999998
      ],
      [
       -68.8754,
       -22.386599999999998
      ],
      [
       -68.8704,
       -22.394
      ],
      [
       -68.8678,
       -22.3885
      ],
      [
       -68.8681,
       -22.3817
      ],
      [
       -68.8647,
       -22.377699999999997
      ],
      [
       -68.8596,
       -22.375300000000003
      ],
      [
       -68.8561,
       -22.373599999999996
      ],
      [
       -68.8506,
       -22.374399999999998
      ],
      [
       -68.84429999999999,
       -22.374800000000008
      ],
      [
       -68.8432,
       -22.3717
      ],
      [
       -68.8455,
       -22.3679
      ],
      [
       -68.8432,
       -22.360699999999998
      ],
      [
       -68.8391,
       -22.3547
      ],
      [
       -68.8343,
       -22.348000000000003
      ],
      [
       -68.83279999999999,
       -22.3426
      ],
      [
       -68.8343,
       -22.3361
      ],
      [
       -68.8414,
       -22.33449999999999
      ],
      [
       -68.8463,
       -22.335300000000007
      ],
      [
       -68.8481,
       -22.3344
      ],
      [
       -68.85459999999999,
       -22.334799999999998
      ],
      [
       -68.86059999999999,
       -22.3328
      ],
      [
       -68.8654,
       -22.328
      ],
      [
       -68.8711,
       -22.323900000000002
      ],
      [
       -68.8635,
       -22.323999999999998
      ],
      [
       -68.8603,
       -22.3239
      ],
      [
       -68.85600000000001,
       -22.323599999999995
      ],
      [
       -68.85249999999999,
       -22.322499999999998
      ],
      [
       -68.8498,
       -22.3216
      ],
      [
       -68.84689999999999,
       -22.320300000000003
      ],
      [
       -68.8447,
       -22.319800000000004
      ],
      [
       -68.8428,
       -22.3223
      ],
      [
       -68.8402,
       -22.325000000000006
      ],
      [
       -68.8393,
       -22.3275
      ],
      [
       -68.83780000000002,
       -22.330499999999997
      ],
      [
       -68.8343,
       -22.330299999999998
      ],
      [
       -68.8312,
       -22.3279
      ],
      [
       -68.8317,
       -22.325599999999998
      ],
      [
       -68.83239999999999,
       -22.322799999999997
      ],
      [
       -68.833,
       -22.321399999999993
      ],
      [
       -68.8353,
       -22.319599999999998
      ],
      [
       -68.8374,
       -22.316900000000008
      ],
      [
       -68.8415,
       -22.314999999999998
      ],
      [
       -68.844,
       -22.3144
      ],
      [
       -68.8463,
       -22.313299999999998
      ],
      [
       -68.8487,
       -22.310900000000004
      ],
      [
       -68.8492,
       -22.308699999999998
      ],
      [
       -68.8466,
       -22.3069
      ],
      [
       -68.842,
       -22.305899999999998
      ],
      [
       -68.839,
       -22.307199999999998
      ],
      [
       -68.835,
       -22.309099999999997
      ],
      [
       -68.8309,
       -22.3113
      ],
      [
       -68.8282,
       -22.3097
      ],
      [
       -68.8286,
       -22.307499999999997
      ],
      [
       -68.8317,
       -22.3051
      ],
      [
       -68.83359999999999,
       -22.305899999999994
      ],
      [
       -68.83650000000002,
       -22.306099999999997
      ],
      [
       -68.8391,
       -22.3033
      ],
      [
       -68.834,
       -22.3033
      ],
      [
       -68.8338,
       -22.298200000000005
      ],
      [
       -68.8342,
       -22.294700000000006
      ],
      [
       -68.83489999999999,
       -22.2916
      ],
      [
       -68.8364,
       -22.29
      ],
      [
       -68.8381,
       -22.288599999999995
      ],
      [
       -68.8394,
       -22.286099999999998
      ],
      [
       -68.8398,
       -22.283700000000003
      ],
      [
       -68.8423,
       -22.279999999999998
      ],
      [
       -68.84389999999999,
       -22.279200000000007
      ],
      [
       -68.8481,
       -22.277300000000004
      ],
      [
       -68.8519,
       -22.2762
      ],
      [
       -68.8569,
       -22.2751
      ],
      [
       -68.8608,
       -22.2746
      ],
      [
       -68.8635,
       -22.2758
      ],
      [
       -68.8647,
       -22.276999999999997
      ],
      [
       -68.8673,
       -22.2796
      ],
      [
       -68.8694,
       -22.2838
      ],
      [
       -68.86999999999999,
       -22.2819
      ],
      [
       -68.8702,
       -22.277099999999997
      ],
      [
       -68.8711,
       -22.2749
      ],
      [
       -68.8742,
       -22.2736
      ],
      [
       -68.87769999999999,
       -22.278499999999998
      ],
      [
       -68.8784,
       -22.2818
      ],
      [
       -68.8798,
       -22.278899999999993
      ],
      [
       -68.88199999999999,
       -22.2756
      ],
      [
       -68.88199999999999,
       -22.270999999999997
      ],
      [
       -68.88199999999999,
       -22.266600000000007
      ],
      [
       -68.8772,
       -22.2695
      ],
      [
       -68.8714,
       -22.267
      ],
      [
       -68.8732,
       -22.2634
      ],
      [
       -68.8796,
       -22.2621
      ],
      [
       -68.8791,
       -22.258799999999997
      ],
      [
       -68.8766,
       -22.2595
      ],
      [
       -68.8711,
       -22.255300000000005
      ],
      [
       -68.8694,
       -22.248400000000007
      ],
      [
       -68.8754,
       -22.249499999999998
      ],
      [
       -68.8741,
       -22.246399999999998
      ],
      [
       -68.87219999999999,
       -22.243199999999998
      ],
      [
       -68.8697,
       -22.2383
      ],
      [
       -68.8674,
       -22.2334
      ],
      [
       -68.86659999999999,
       -22.229899999999994
      ],
      [
       -68.8672,
       -22.226000000000006
      ],
      [
       -68.8667,
       -22.221999999999998
      ],
      [
       -68.865,
       -22.2186
      ],
      [
       -68.8633,
       -22.2139
      ],
      [
       -68.8595,
       -22.2133
      ],
      [
       -68.8553,
       -22.21139999999999
      ],
      [
       -68.85159999999999,
       -22.209199999999996
      ],
      [
       -68.8479,
       -22.2088
      ],
      [
       -68.8451,
       -22.209699999999998
      ],
      [
       -68.841,
       -22.2094
      ],
      [
       -68.8386,
       -22.2079
      ],
      [
       -68.836,
       -22.206
      ],
      [
       -68.8338,
       -22.205000000000005
      ],
      [
       -68.8331,
       -22.202299999999994
      ],
      [
       -68.83359999999999,
       -22.2
      ],
      [
       -68.83489999999999,
       -22.1984
      ],
      [
       -68.8377,
       -22.1973
      ],
      [
       -68.8395,
       -22.1985
      ],
      [
       -68.8407,
       -22.198300000000007
      ],
      [
       -68.843,
       -22.1974
      ],
      [
       -68.8449,
       -22.1964
      ],
      [
       -68.8475,
       -22.1954
      ],
      [
       -68.84989999999999,
       -22.194400000000005
      ],
      [
       -68.8517,
       -22.193199999999997
      ],
      [
       -68.8504,
       -22.1924
      ],
      [
       -68.8481,
       -22.1921
      ],
      [
       -68.8446,
       -22.1927
      ],
      [
       -68.8416,
       -22.1923
      ],
      [
       -68.8408,
       -22.1938
      ],
      [
       -68.8398,
       -22.1943
      ],
      [
       -68.8383,
       -22.193700000000007
      ],
      [
       -68.838,
       -22.1922
      ],
      [
       -68.83780000000002,
       -22.191299999999995
      ],
      [
       -68.8381,
       -22.189899999999994
      ],
      [
       -68.83919999999999,
       -22.189200000000003
      ],
      [
       -68.8383,
       -22.188499999999998
      ],
      [
       -68.83749999999999,
       -22.186799999999998
      ],
      [
       -68.8357,
       -22.185599999999997
      ],
      [
       -68.8335,
       -22.182299999999994
      ],
      [
       -68.8342,
       -22.1811
      ],
      [
       -68.8351,
       -22.1796
      ],
      [
       -68.83619999999999,
       -22.177899999999998
      ],
      [
       -68.8377,
       -22.1756
      ],
      [
       -68.8413,
       -22.171200000000002
      ],
      [
       -68.8437,
       -22.1677
      ],
      [
       -68.84559999999999,
       -22.165200000000002
      ],
      [
       -68.847,
       -22.162699999999997
      ],
      [
       -68.849,
       -22.1623
      ],
      [
       -68.8501,
       -22.1607
      ],
      [
       -68.8524,
       -22.158700000000003
      ],
      [
       -68.85419999999999,
       -22.159299999999998
      ],
      [
       -68.8558,
       -22.160000000000007
      ],
      [
       -68.85759999999999,
       -22.160900000000005
      ],
      [
       -68.86099999999999,
       -22.162699999999997
      ],
      [
       -68.8654,
       -22.164799999999996
      ],
      [
       -68.8697,
       -22.167600000000007
      ],
      [
       -68.8712,
       -22.1675
      ],
      [
       -68.87469999999999,
       -22.167199999999998
      ],
      [
       -68.8766,
       -22.1678
      ],
      [
       -68.87859999999999,
       -22.169300000000007
      ],
      [
       -68.88029999999999,
       -22.171000000000006
      ],
      [
       -68.8814,
       -22.173199999999998
      ]
     ]
    ]
   }
  },
  {
   "type": "Feature",
   "properties": {
    "fid": 2719,
    "iso3": "CHL",
    "area_km2": 0.1839
   },
   "geometry": {
    "type": "Polygon",
    "coordinates": [
     [
      [
       -68.8463,
       -22.1637
      ],
      [
       -68.8449,
       -22.1644
      ],
      [
       -68.84309999999999,
       -22.165400000000005
      ],
      [
       -68.8425,
       -22.16579999999999
      ],
      [
       -68.841,
       -22.1667
      ],
      [
       -68.8397,
       -22.167199999999998
      ],
      [
       -68.8387,
       -22.1677
      ],
      [
       -68.8376,
       -22.1684
      ],
      [
       -68.8369,
       -22.168799999999994
      ],
      [
       -68.8368,
       -22.169600000000006
      ],
      [
       -68.83650000000002,
       -22.170100000000005
      ],
      [
       -68.8351,
       -22.171
      ],
      [
       -68.8304,
       -22.1739
      ],
      [
       -68.8303,
       -22.174500000000002
      ],
      [
       -68.83019999999999,
       -22.175500000000007
      ],
      [
       -68.83019999999999,
       -22.1766
      ],
      [
       -68.8301,
       -22.1781
      ],
      [
       -68.8301,
       -22.179599999999994
      ],
      [
       -68.83019999999999,
       -22.18099999999999
      ],
      [
       -68.8303,
       -22.183200000000003
      ],
      [
       -68.8304,
       -22.1847
      ],
      [
       -68.8303,
       -22.185399999999998
      ],
      [
       -68.8329,
       -22.185900000000007
      ],
      [
       -68.83279999999999,
       -22.1867
      ],
      [
       -68.83279999999999,
       -22.188000000000006
      ],
      [
       -68.83279999999999,
       -22.189999999999994
      ],
      [
       -68.8335,
       -22.190300000000008
      ],
      [
       -68.834,
       -22.1906
      ],
      [
       -68.8346,
       -22.190899999999996
      ],
      [
       -68.8353,
       -22.191399999999998
      ],
      [
       -68.83579999999999,
       -22.191699999999997
      ],
      [
       -68.83579999999999,
       -22.191999999999997
      ],
      [
       -68.8347,
       -22.191399999999998
      ],
      [
       -68.8334,
       -22.1907
      ],
      [
       -68.83260000000001,
       -22.190199999999997
      ],
      [
       -68.8322,
       -22.189999999999994
      ],
      [
       -68.8316,
       -22.1896
      ],
      [
       -68.8314,
       -22.1895
      ],
      [
       -68.8313,
       -22.189200000000003
      ],
      [
       -68.8312,
       -22.189000000000007
      ],
      [
       -68.8313,
       -22.1887
      ],
      [
       -68.83149999999999,
       -22.1888
      ],
      [
       -68.8318,
       -22.1889
      ],
      [
       -68.8322,
       -22.1889
      ],
      [
       -68.8323,
       -22.189200000000003
      ],
      [
       -68.83239999999999,
       -22.188599999999997
      ],
      [
       -68.83239999999999,
       -22.1876
      ],
      [
       -68.8323,
       -22.1861
      ],
      [
       -68.8316,
       -22.185999999999996
      ],
      [
       -68.8304,
       -22.1858
      ],
      [
       -68.8297,
       -22.185700000000008
      ],
      [
       -68.8296,
       -22.1841
      ],
      [
       -68.8296,
       -22.1829
      ],
      [
       -68.8296,
       -22.180699999999998
      ],
      [
       -68.8296,
       -22.1796
      ],
      [
       -68.82979999999999,
       -22.177899999999998
      ],
      [
       -68.8299,
       -22.1759
      ],
      [
       -68.8299,
       -22.175399999999993
      ],
      [
       -68.83,
       -22.174500000000002
      ],
      [
       -68.83019999999999,
       -22.1736
      ],
      [
       -68.8303,
       -22.1735
      ],
      [
       -68.8303,
       -22.1736
      ],
      [
       -68.8308,
       -22.17339999999999
      ],
      [
       -68.831,
       -22.173299999999998
      ],
      [
       -68.8313,
       -22.173099999999998
      ],
      [
       -68.8316,
       -22.1729
      ],
      [
       -68.8322,
       -22.1725
      ],
      [
       -68.8329,
       -22.1721
      ],
      [
       -68.83319999999999,
       -22.171899999999997
      ],
      [
       -68.83390000000001,
       -22.1714
      ],
      [
       -68.8343,
       -22.171200000000002
      ],
      [
       -68.8346,
       -22.171000000000006
      ],
      [
       -68.835,
       -22.1708
      ],
      [
       -68.8353,
       -22.1705
      ],
      [
       -68.8357,
       -22.170299999999997
      ],
      [
       -68.83619999999999,
       -22.169900000000002
      ],
      [
       -68.83650000000002,
       -22.1697
      ],
      [
       -68.83659999999999,
       -22.168699999999998
      ],
      [
       -68.8367,
       -22.168599999999998
      ],
      [
       -68.837,
       -22.168499999999998
      ],
      [
       -68.8374,
       -22.168200000000006
      ],
      [
       -68.8377,
       -22.1681
      ],
      [
       -68.8383,
       -22.1676
      ],
      [
       -68.83919999999999,
       -22.167199999999998
      ],
      [
       -68.84089999999999,
       -22.166399999999992
      ],
      [
       -68.8421,
       -22.165799999999997
      ],
      [
       -68.84259999999999,
       -22.1653
      ],
      [
       -68.8436,
       -22.164700000000003
      ],
      [
       -68.8446,
       -22.164199999999997
      ],
      [
       -68.8464,
       -22.1633
      ],
      [
       -68.8463,
       -22.1637
      ]
     ]
    ]
   }
  },
  {
   "type": "Feature",
   "properties": {
    "fid": 2718,
    "iso3": "CHL",
    "area_km2": 0.0453
   },
   "geometry": {
    "type": "Polygon",
    "coordinates": [
     [
      [
       -68.8372,
       -22.1891
      ],
      [
       -68.8372,
       -22.189999999999998
      ],
      [
       -68.8376,
       -22.1908
      ],
      [
       -68.836,
       -22.191999999999997
      ],
      [
       -68.8355,
       -22.190400000000007
      ],
      [
       -68.8355,
       -22.189400000000006
      ],
      [
       -68.8372,
       -22.1891
      ]
     ]
    ]
   }
  }
 ],
 "license": "CC-BY-SA-4.0",
 "attribution": "Maus et al. 2022 (doi:10.1594/PANGAEA.942325)"
}
