{
 "type": "FeatureCollection",
 "features": [
  {
   "type": "Feature",
   "properties": {
    "fid": 3702,
    "iso3": "PER",
    "area_km2": 38.6103
   },
   "geometry": {
    "type": "Polygon",
    "coordinates": [
     [
      [
       -72.3445,
       -14.072299999999995
      ],
      [
       -72.3402,
       -14.0776
      ],
      [
       -72.3507,
       -14.0804
      ],
      [
       -72.3498,
       -14.0834
      ],
      [
       -72.3433,
       -14.083300000000001
      ],
      [
       -72.3458,
       -14.089399999999998
      ],
      [
       -72.3427,
       -14.096
      ],
      [
       -72.3364,
       -14.0941
      ],
      [
       -72.3194,
       -14.101799999999999
      ],
      [
       -72.3048,
       -14.104800000000001
      ],
      [
       -72.30369999999999,
       -14.0986
      ],
      [
       -72.2992,
       -14.101799999999999
      ],
      [
       -72.2877,
       -14.1065
      ],
      [
       -72.2839,
       -14.103
      ],
      [
       -72.2659,
       -14.1154
      ],
      [
       -72.25489999999999,
       -14.1151
      ],
      [
       -72.25529999999999,
       -14.108499999999996
      ],
      [
       -72.2607,
       -14.105900000000004
      ],
      [
       -72.2735,
       -14.102600000000002
      ],
      [
       -72.2751,
       -14.099
      ],
      [
       -72.2671,
       -14.0908
      ],
      [
       -72.27159999999999,
       -14.081300000000002
      ],
      [
       -72.2869,
       -14.0781
      ],
      [
       -72.2912,
       -14.078600000000003
      ],
      [
       -72.2897,
       -14.072899999999999
      ],
      [
       -72.2901,
       -14.0697
      ],
      [
       -72.2889,
       -14.065399999999999
      ],
      [
       -72.2935,
       -14.060200000000004
      ],
      [
       -72.3065,
       -14.058899999999998
      ],
      [
       -72.3059,
       -14.053099999999995
      ],
      [
       -72.3112,
       -14.056199999999995
      ],
      [
       -72.32150000000001,
       -14.051699999999997
      ],
      [
       -72.3278,
       -14.0545
      ],
      [
       -72.33619999999999,
       -14.054699999999995
      ],
      [
       -72.3446,
       -14.050500000000003
      ],
      [
       -72.34609999999999,
       -14.057599999999999
      ],
      [
       -72.3524,
       -14.057699999999999
      ],
      [
       -72.35499999999999,
       -14.061899999999998
      ],
      [
       -72.3506,
       -14.069700000000001
      ],
      [
       -72.3445,
       -14.072299999999995
      ]
     ]
    ]
   }
  },
  {
   "type": "Feature",
   "properties": {
    "fid": 38282,
    "iso3": "PER",
    "area_km2": 0.0076
   },
   "geometry": {
    "type": "Polygon",
    "coordinates": [
     [
      [
       -72.270046,
       -14.124652
      ],
      [
       -72.270432,
       -14.124689
      ],
      [
       -72.270754,
       -14.124647000000003
      ],
      [
       -72.27083999999999,
       -14.124678
      ],
      [
       -72.27093599999999,
       -14.124855
      ],
      [
       -72.270926,
       -14.125255999999995
      ],
      [
       -72.271129,
       -14.125328999999997
      ],
      [
       -72.27094199999999,
       -14.125703000000001
      ],
      [
       -72.269922,
       -14.124845000000002
      ],
      [
       -72.270046,
       -14.124652
      ]
     ]
    ]
   }
  },
  {
   "type": "Feature",
   "properties": {
    "fid": 38283,
    "iso3": "PER",
    "area_km2": 0.0303
   },
   "geometry": {
    "type": "Polygon",
    "coordinates": [
     [
      [
       -72.271762,
       -14.121462999999999
      ],
      [
       -72.272036,
       -14.121405999999999
      ],
      [
       -72.27220200000001,
       -14.121307
      ],
      [
       -72.27233100000001,
       -14.121150999999998
      ],
      [
       -72.27276599999999,
       -14.121219
      ],
      [
       -72.273034,
       -14.121219
      ],
      [
       -72.273731,
       -14.121369999999999
      ],
      [
       -72.274284,
       -14.121744000000003
      ],
      [
       -72.274241,
       -14.121859
      ],
      [
       -72.274391,
       -14.122015
      ],
      [
       -72.274284,
       -14.122238999999999
      ],
      [
       -72.27390299999999,
       -14.122379
      ],
      [
       -72.27288899999999,
       -14.122436000000002
      ],
      [
       -72.27207899999999,
       -14.122218
      ],
      [
       -72.271687,
       -14.121931999999997
      ],
      [
       -72.271762,
       -14.121462999999999
      ]
     ]
    ]
   }
  },
  {
   "type": "Feature",
   "properties": {
    "fid": 38284,
    "iso3": "PER",
    "area_km2": 0.0319
   },
   "geometry": {
    "type": "Polygon",
    "coordinates": [
     [
      [
       -72.273275,
       -14.123113000000004
      ],
      [
       -72.272975,
       -14.122837
      ],
      [
       -72.273077,
       -14.122702000000002
      ],
      [
       -72.274305,
       -14.122608
      ],
      [
       -72.27470199999999,
       -14.122530000000001
      ],
      [
       -72.275239,
       -14.122556000000003
      ],
      [
       -72.275786,
       -14.122821000000004
      ],
      [
       -72.276183,
       -14.123045
      ],
      [
       -72.276365,
       -14.123289000000003
      ],
      [
       -72.276682,
       -14.123486999999999
      ],
      [
       -72.27642399999999,
       -14.12368
      ],
      [
       -72.27596299999999,
       -14.123289
      ],
      [
       -72.27538899999999,
       -14.12331
      ],
      [
       -72.274665,
       -14.123539
      ],
      [
       -72.274536,
       -14.123664
      ],
      [
       -72.27458399999999,
       -14.123981000000002
      ],
      [
       -72.274311,
       -14.124106
      ],
      [
       -72.27412799999999,
       -14.124127000000003
      ],
      [
       -72.273951,
       -14.123871999999999
      ],
      [
       -72.273855,
       -14.123674
      ],
      [
       -72.27386,
       -14.123544000000003
      ],
      [
       -72.27386,
       -14.123434999999999
      ],
      [
       -72.273769,
       -14.123227
      ],
      [
       -72.273383,
       -14.123211
      ],
      [
       -72.273275,
       -14.123113000000004
      ]
     ]
    ]
   }
  },
  {
   "type": "Feature",
   "properties": {
    "fid": 38285,
    "iso3": "PER",
    "area_km2": 0.0318
   },
   "geometry": {
    "type": "Polygon",
    "coordinates": [
     [
      [
       -72.27843,
       -14.123757999999995
      ],
      [
       -72.278774,
       -14.123851000000002
      ],
      [
       -72.27912800000001,
       -14.123778
      ],
      [
       -72.27962699999999,
       -14.123824999999997
      ],
      [
       -72.280061,
       -14.123892999999999
      ],
      [
       -72.28041499999999,
       -14.124065
      ],
      [
       -72.280689,
       -14.124391999999999
      ],
      [
       -72.28089299999999,
       -14.124616
      ],
      [
       -72.281145,
       -14.124762
      ],
      [
       -72.280941,
       -14.124902
      ],
      [
       -72.280726,
       -14.124913000000001
      ],
      [
       -72.280018,
       -14.124715000000004
      ],
      [
       -72.27985699999999,
       -14.124668
      ],
      [
       -72.27974999999999,
       -14.124818999999999
      ],
      [
       -72.279546,
       -14.124939
      ],
      [
       -72.279477,
       -14.124762
      ],
      [
       -72.279198,
       -14.124725000000003
      ],
      [
       -72.278758,
       -14.124616000000003
      ],
      [
       -72.278468,
       -14.124788
      ],
      [
       -72.278162,
       -14.124756
      ],
      [
       -72.277846,
       -14.124642000000001
      ],
      [
       -72.27755599999999,
       -14.124428999999997
      ],
      [
       -72.277524,
       -14.124346000000006
      ],
      [
       -72.27761,
       -14.124158000000003
      ],
      [
       -72.277985,
       -14.124023
      ],
      [
       -72.27843,
       -14.123757999999995
      ]
     ]
    ]
   }
  },
  {
   "type": "Feature",
   "properties": {
    "fid": 38286,
    "iso3": "PER",
    "area_km2": 0.0102
   },
   "geometry": {
    "type": "Polygon",
    "coordinates": [
     [
      [
       -72.280625,
       -14.123799
      ],
      [
       -72.281139,
       -14.123903000000002
      ],
      [
       -72.281284,
       -14.123928999999999
      ],
      [
       -72.281719,
       -14.124267
      ],
      [
       -72.281944,
       -14.124490999999999
      ],
      [
       -72.28214799999999,
       -14.124689000000004
      ],
      [
       -72.2821,
       -14.124870999999999
      ],
      [
       -72.281719,
       -14.124943999999996
      ],
      [
       -72.281199,
       -14.124704
      ],
      [
       -72.28077499999999,
       -14.124225999999997
      ],
      [
       -72.280625,
       -14.123799
      ]
     ]
    ]
   }
  }
 ],
 "license": "CC-BY-SA-4.0",
 "attribution": "Maus et al. 2022 (doi:10.1594/PANGAEA.942325)"
}
