{
 "type": "FeatureCollection",
 "features": [
  {
   "type": "Feature",
   "properties": {
    "fid": 25975,
    "iso3": "CHL",
    "area_km2": 0.1432
   },
   "geometry": {
    "type": "Polygon",
    "coordinates": [
     [
      [
       -70.36648799999999,
       -27.58243199999999
      ],
      [
       -70.36608,
       -27.584087
      ],
      [
       -70.36395499999999,
       -27.584733
      ],
      [
       -70.359814,
       -27.584695000000007
      ],
      [
       -70.3596,
       -27.584106000000006
      ],
      [
       -70.360243,
       -27.583268999999998
      ],
      [
       -70.362883,
       -27.582546
      ],
      [
       -70.364127,
       -27.582299
      ],
      [
       -70.36489999999999,
       -27.581881
      ],
      [
       -70.36648799999999,
       -27.58243199999999
      ]
     ]
    ]
   }
  },
  {
   "type": "Feature",
   "properties": {
    "fid": 25974,
    "iso3": "CHL",
    "area_km2": 0.1191
   },
   "geometry": {
    "type": "Polygon",
    "coordinates": [
     [
      [
       -70.362518,
       -27.590077999999988
      ],
      [
       -70.363312,
       -27.59178899999999
      ],
      [
       -70.362432,
       -27.592682999999997
      ],
      [
       -70.35784,
       -27.590211
      ],
      [
       -70.35799,
       -27.589336
      ],
      [
       -70.359836,
       -27.589564000000003
      ],
      [
       -70.35998599999999,
       -27.58849899999999
      ],
      [
       -70.362518,
       -27.590077999999988
      ]
     ]
    ]
   }
  },
  {
   "type": "Feature",
   "properties": {
    "fid": 25973,
    "iso3": "CHL",
    "area_km2": 1.5885
   },
   "geometry": {
    "type": "Polygon",
    "coordinates": [
     [
      [
       -70.36318299999999,
       -27.594908
      ],
      [
       -70.362175,
       -27.596714000000006
      ],
      [
       -70.359364,
       -27.597817000000003
      ],
      [
       -70.358677,
       -27.60027
      ],
      [
       -70.35642399999999,
       -27.600137
      ],
      [
       -70.354192,
       -27.596905000000007
      ],
      [
       -70.352111,
       -27.596542999999997
      ],
      [
       -70.346339,
       -27.595726
      ],
      [
       -70.343807,
       -27.595401999999993
      ],
      [
       -70.341146,
       -27.593919000000003
      ],
      [
       -70.340052,
       -27.592416999999998
      ],
      [
       -70.342433,
       -27.590571999999998
      ],
      [
       -70.34545899999999,
       -27.589716
      ],
      [
       -70.345159,
       -27.588271
      ],
      [
       -70.34709,
       -27.587529000000007
      ],
      [
       -70.350888,
       -27.589088999999998
      ],
      [
       -70.351961,
       -27.589772999999997
      ],
      [
       -70.354793,
       -27.589678
      ],
      [
       -70.357068,
       -27.590534000000005
      ],
      [
       -70.35790399999999,
       -27.592341000000005
      ],
      [
       -70.358548,
       -27.592131
      ],
      [
       -70.360501,
       -27.592664
      ],
      [
       -70.36196,
       -27.59331
      ],
      [
       -70.363226,
       -27.594165999999998
      ],
      [
       -70.36318299999999,
       -27.594908
      ]
     ]
    ]
   }
  },
  {
   "type": "Feature",
   "properties": {
    "fid": 25976,
    "iso3": "CHL",
    "area_km2": 0.1014
   },
   "geometry": {
    "type": "Polygon",
    "coordinates": [
     [
      [
       -70.359771,
       -27.576612
      ],
      [
       -70.360479,
       -27.578362
      ],
      [
       -70.358634,
       -27.579522
      ],
      [
       -70.357947,
       -27.579846
      ],
      [
       -70.35681,
       -27.579465
      ],
      [
       -70.35655299999999,
       -27.579161
      ],
      [
       -70.356917,
       -27.576631
      ],
      [
       -70.357668,
       -27.576459999999997
      ],
      [
       -70.358548,
       -27.576936000000003
      ],
      [
       -70.359771,
       -27.576612
      ]
     ]
    ]
   }
  },
  {
   "type": "Feature",
   "properties": {
    "fid": 2096,
    "iso3": "CHL",
    "area_km2": 22.9943
   },
   "geometry": {
    "type": "Polygon",
    "coordinates": [
     [
      [
       -70.2765,
       -27.514799999999997
      ],
      [
       -70.27669999999999,
       -27.514
      ],
      [
       -70.27669999999999,
       -27.513399999999997
      ],
      [
       -70.2764,
       -27.513099999999998
      ],
      [
       -70.2755,
       -27.512999999999998
      ],
      [
       -70.2749,
       -27.5125
      ],
      [
       -70.27409999999999,
       -27.512199999999993
      ],
      [
       -70.2738,
       -27.511699999999998
      ],
      [
       -70.274,
       -27.511000000000006
      ],
      [
       -70.2744,
       -27.510199999999994
      ],
      [
       -70.27459999999999,
       -27.5095
      ],
      [
       -70.2745,
       -27.508899999999997
      ],
      [
       -70.27459999999999,
       -27.508
      ],
      [
       -70.2743,
       -27.5068
      ],
      [
       -70.274,
       -27.505799999999997
      ],
      [
       -70.2742,
       -27.5051
      ],
      [
       -70.2745,
       -27.504699999999993
      ],
      [
       -70.2749,
       -27.504199999999997
      ],
      [
       -70.2749,
       -27.503500000000003
      ],
      [
       -70.2745,
       -27.5027
      ],
      [
       -70.2742,
       -27.500900000000005
      ],
      [
       -70.2739,
       -27.500299999999996
      ],
      [
       -70.2736,
       -27.499600000000004
      ],
      [
       -70.2734,
       -27.498799999999992
      ],
      [
       -70.2732,
       -27.498099999999997
      ],
      [
       -70.2732,
       -27.4974
      ],
      [
       -70.2731,
       -27.4967
      ],
      [
       -70.27289999999999,
       -27.495700000000006
      ],
      [
       -70.2728,
       -27.494900000000005
      ],
      [
       -70.2728,
       -27.494200000000006
      ],
      [
       -70.273,
       -27.493500000000004
      ],
      [
       -70.2732,
       -27.492900000000006
      ],
      [
       -70.2744,
       -27.492099999999997
      ],
      [
       -70.2756,
       -27.490499999999997
      ],
      [
       -70.2765,
       -27.4886
      ],
      [
       -70.2791,
       -27.487600000000004
      ],
      [
       -70.2807,
       -27.487799999999996
      ],
      [
       -70.2824,
       -27.4883
      ],
      [
       -70.2835,
       -27.48879999999999
      ],
      [
       -70.2849,
       -27.489300000000007
      ],
      [
       -70.28609999999999,
       -27.4902
      ],
      [
       -70.28739999999999,
       -27.491
      ],
      [
       -70.289,
       -27.492099999999997
      ],
      [
       -70.2906,
       -27.492800000000006
      ],
      [
       -70.2923,
       -27.493399999999998
      ],
      [
       -70.2933,
       -27.4942
      ],
      [
       -70.2945,
       -27.4937
      ],
      [
       -70.2966,
       -27.4938
      ],
      [
       -70.29769999999999,
       -27.493199999999998
      ],
      [
       -70.2992,
       -27.492300000000007
      ],
      [
       -70.3006,
       -27.493
      ],
      [
       -70.3035,
       -27.492500000000003
      ],
      [
       -70.3043,
       -27.493
      ],
      [
       -70.30539999999999,
       -27.4942
      ],
      [
       -70.3056,
       -27.494799999999998
      ],
      [
       -70.3064,
       -27.4956
      ],
      [
       -70.3074,
       -27.4954
      ],
      [
       -70.3087,
       -27.494799999999998
      ],
      [
       -70.3104,
       -27.494100000000007
      ],
      [
       -70.3119,
       -27.493699999999997
      ],
      [
       -70.314,
       -27.4938
      ],
      [
       -70.3154,
       -27.494100000000003
      ],
      [
       -70.3167,
       -27.494499999999995
      ],
      [
       -70.31869999999999,
       -27.494700000000005
      ],
      [
       -70.31909999999999,
       -27.4959
      ],
      [
       -70.31869999999999,
       -27.497100000000007
      ],
      [
       -70.3186,
       -27.498500000000007
      ],
      [
       -70.31869999999999,
       -27.500000000000007
      ],
      [
       -70.32,
       -27.501900000000003
      ],
      [
       -70.3214,
       -27.503500000000003
      ],
      [
       -70.3248,
       -27.504400000000008
      ],
      [
       -70.3258,
       -27.505300000000002
      ],
      [
       -70.3257,
       -27.5072
      ],
      [
       -70.3248,
       -27.508000000000006
      ],
      [
       -70.3239,
       -27.5096
      ],
      [
       -70.324,
       -27.5114
      ],
      [
       -70.324,
       -27.513300000000005
      ],
      [
       -70.3235,
       -27.514899999999997
      ],
      [
       -70.32469999999999,
       -27.516000000000002
      ],
      [
       -70.3267,
       -27.51600000000001
      ],
      [
       -70.3277,
       -27.5156
      ],
      [
       -70.32979999999999,
       -27.514999999999997
      ],
      [
       -70.3334,
       -27.512499999999992
      ],
      [
       -70.3355,
       -27.509600000000006
      ],
      [
       -70.3383,
       -27.5065
      ],
      [
       -70.3378,
       -27.509999999999998
      ],
      [
       -70.33879999999999,
       -27.5105
      ],
      [
       -70.3468,
       -27.510299999999997
      ],
      [
       -70.3412,
       -27.511699999999998
      ],
      [
       -70.3381,
       -27.512999999999998
      ],
      [
       -70.33619999999999,
       -27.5138
      ],
      [
       -70.336,
       -27.515499999999992
      ],
      [
       -70.3364,
       -27.516800000000003
      ],
      [
       -70.335,
       -27.517300000000002
      ],
      [
       -70.33539999999999,
       -27.5187
      ],
      [
       -70.338,
       -27.5201
      ],
      [
       -70.342,
       -27.518100000000008
      ],
      [
       -70.3411,
       -27.519499999999997
      ],
      [
       -70.33789999999999,
       -27.522000000000002
      ],
      [
       -70.3364,
       -27.5228
      ],
      [
       -70.33959999999999,
       -27.523999999999997
      ],
      [
       -70.3393,
       -27.5243
      ],
      [
       -70.3367,
       -27.5245
      ],
      [
       -70.3346,
       -27.5248
      ],
      [
       -70.334,
       -27.5263
      ],
      [
       -70.3334,
       -27.5279
      ],
      [
       -70.3309,
       -27.527800000000003
      ],
      [
       -70.3279,
       -27.526799999999987
      ],
      [
       -70.3246,
       -27.526699999999998
      ],
      [
       -70.32209999999999,
       -27.52679999999999
      ],
      [
       -70.3186,
       -27.526799999999987
      ],
      [
       -70.3156,
       -27.52679999999999
      ],
      [
       -70.3137,
       -27.527500000000007
      ],
      [
       -70.3138,
       -27.5289
      ],
      [
       -70.31490000000001,
       -27.5289
      ],
      [
       -70.3167,
       -27.529500000000006
      ],
      [
       -70.31750000000001,
       -27.530299999999997
      ],
      [
       -70.3173,
       -27.531399999999998
      ],
      [
       -70.3151,
       -27.5311
      ],
      [
       -70.3138,
       -27.531399999999998
      ],
      [
       -70.31230000000001,
       -27.531799999999997
      ],
      [
       -70.3117,
       -27.5324
      ],
      [
       -70.3119,
       -27.533299999999997
      ],
      [
       -70.312,
       -27.5345
      ],
      [
       -70.31049999999999,
       -27.534700000000004
      ],
      [
       -70.3087,
       -27.534399999999998
      ],
      [
       -70.3073,
       -27.5339
      ],
      [
       -70.3056,
       -27.533299999999997
      ],
      [
       -70.3049,
       -27.5324
      ],
      [
       -70.3031,
       -27.531900000000004
      ],
      [
       -70.30149999999999,
       -27.531599999999997
      ],
      [
       -70.3002,
       -27.5322
      ],
      [
       -70.30069999999999,
       -27.533199999999997
      ],
      [
       -70.3014,
       -27.5342
      ],
      [
       -70.301,
       -27.535099999999993
      ],
      [
       -70.301,
       -27.536000000000005
      ],
      [
       -70.3016,
       -27.536400000000008
      ],
      [
       -70.303,
       -27.5357
      ],
      [
       -70.304,
       -27.536700000000003
      ],
      [
       -70.3049,
       -27.538199999999993
      ],
      [
       -70.3047,
       -27.539299999999997
      ],
      [
       -70.30369999999999,
       -27.540399999999998
      ],
      [
       -70.303,
       -27.541200000000007
      ],
      [
       -70.3018,
       -27.5418
      ],
      [
       -70.3009,
       -27.542099999999998
      ],
      [
       -70.2996,
       -27.5418
      ],
      [
       -70.29939999999999,
       -27.5425
      ],
      [
       -70.2982,
       -27.5429
      ],
      [
       -70.298,
       -27.543799999999997
      ],
      [
       -70.297,
       -27.5443
      ],
      [
       -70.29549999999999,
       -27.5443
      ],
      [
       -70.2942,
       -27.543899999999997
      ],
      [
       -70.2931,
       -27.543499999999998
      ],
      [
       -70.2914,
       -27.543499999999998
      ],
      [
       -70.2898,
       -27.5428
      ],
      [
       -70.2883,
       -27.541999999999998
      ],
      [
       -70.2895,
       -27.5414
      ],
      [
       -70.29039999999999,
       -27.540399999999998
      ],
      [
       -70.2903,
       -27.539099999999998
      ],
      [
       -70.2907,
       -27.537499999999998
      ],
      [
       -70.2899,
       -27.535899999999998
      ],
      [
       -70.2898,
       -27.534399999999998
      ],
      [
       -70.2886,
       -27.533199999999997
      ],
      [
       -70.28739999999999,
       -27.5325
      ],
      [
       -70.28659999999999,
       -27.531699999999997
      ],
      [
       -70.2868,
       -27.5306
      ],
      [
       -70.2871,
       -27.529399999999995
      ],
      [
       -70.2856,
       -27.5273
      ],
      [
       -70.28479999999999,
       -27.526
      ],
      [
       -70.28399999999999,
       -27.5251
      ],
      [
       -70.283,
       -27.524200000000004
      ],
      [
       -70.2819,
       -27.5231
      ],
      [
       -70.2807,
       -27.522199999999998
      ],
      [
       -70.2798,
       -27.521099999999997
      ],
      [
       -70.2789,
       -27.5201
      ],
      [
       -70.2783,
       -27.5187
      ],
      [
       -70.2782,
       -27.5175
      ],
      [
       -70.27709999999999,
       -27.516399999999994
      ],
      [
       -70.2765,
       -27.514799999999997
      ]
     ]
    ]
   }
  },
  {
   "type": "Feature",
   "properties": {
    "fid": 2063,
    "iso3": "CHL",
    "area_km2": 1.693
   },
   "geometry": {
    "type": "Polygon",
    "coordinates": [
     [
      [
       -70.3346,
       -27.450499999999995
      ],
      [
       -70.33579999999999,
       -27.452399999999997
      ],
      [
       -70.3359,
       -27.4534
      ],
      [
       -70.335,
       -27.4543
      ],
      [
       -70.3342,
       -27.4542
      ],
      [
       -70.3331,
       -27.453799999999998
      ],
      [
       -70.3325,
       -27.45349999999999
      ],
      [
       -70.3317,
       -27.453200000000002
      ],
      [
       -70.32939999999999,
       -27.453200000000002
      ],
      [
       -70.3278,
       -27.45329999999999
      ],
      [
       -70.32679999999999,
       -27.4532
      ],
      [
       -70.3262,
       -27.453200000000002
      ],
      [
       -70.325,
       -27.4533
      ],
      [
       -70.3245,
       -27.45349999999999
      ],
      [
       -70.32379999999999,
       -27.4534
      ],
      [
       -70.323,
       -27.4532
      ],
      [
       -70.32169999999999,
       -27.453
      ],
      [
       -70.3214,
       -27.453
      ],
      [
       -70.32039999999999,
       -27.453200000000002
      ],
      [
       -70.3196,
       -27.4532
      ],
      [
       -70.31869999999999,
       -27.452900000000007
      ],
      [
       -70.3184,
       -27.452399999999997
      ],
      [
       -70.31739999999999,
       -27.451800000000006
      ],
      [
       -70.3163,
       -27.4516
      ],
      [
       -70.315,
       -27.4519
      ],
      [
       -70.314,
       -27.452199999999998
      ],
      [
       -70.3133,
       -27.4526
      ],
      [
       -70.3128,
       -27.4531
      ],
      [
       -70.3125,
       -27.45359999999999
      ],
      [
       -70.312,
       -27.453699999999998
      ],
      [
       -70.31139999999999,
       -27.4535
      ],
      [
       -70.31139999999999,
       -27.452900000000007
      ],
      [
       -70.3116,
       -27.452399999999997
      ],
      [
       -70.31179999999999,
       -27.4517
      ],
      [
       -70.312,
       -27.450899999999997
      ],
      [
       -70.3124,
       -27.4504
      ],
      [
       -70.3128,
       -27.44980000000001
      ],
      [
       -70.3133,
       -27.448999999999998
      ],
      [
       -70.31360000000001,
       -27.4487
      ],
      [
       -70.314,
       -27.4486
      ],
      [
       -70.3147,
       -27.449199999999998
      ],
      [
       -70.31519999999999,
       -27.4489
      ],
      [
       -70.3155,
       -27.4482
      ],
      [
       -70.31609999999999,
       -27.447599999999998
      ],
      [
       -70.3166,
       -27.447
      ],
      [
       -70.3172,
       -27.44619999999999
      ],
      [
       -70.3176,
       -27.4458
      ],
      [
       -70.3189,
       -27.4449
      ],
      [
       -70.3223,
       -27.442300000000007
      ],
      [
       -70.3231,
       -27.4428
      ],
      [
       -70.3257,
       -27.444699999999994
      ],
      [
       -70.3291,
       -27.4464
      ],
      [
       -70.3346,
       -27.450499999999995
      ]
     ]
    ]
   }
  },
  {
   "type": "Feature",
   "properties": {
    "fid": 2066,
    "iso3": "CHL",
    "area_km2": 1.7311
   },
   "geometry": {
    "type": "Polygon",
    "coordinates": [
     [
      [
       -70.28739999999999,
       -27.476499999999998
      ],
      [
       -70.2884,
       -27.476600000000005
      ],
      [
       -70.2893,
       -27.476999999999993
      ],
      [
       -70.29039999999999,
       -27.4776
      ],
      [
       -70.2912,
       -27.4778
      ],
      [
       -70.29209999999999,
       -27.476999999999993
      ],
      [
       -70.2937,
       -27.476900000000004
      ],
      [
       -70.2945,
       -27.4775
      ],
      [
       -70.2952,
       -27.477999999999998
      ],
      [
       -70.2958,
       -27.477999999999998
      ],
      [
       -70.2965,
       -27.478599999999993
      ],
      [
       -70.2961,
       -27.4802
      ],
      [
       -70.29540000000001,
       -27.481199999999998
      ],
      [
       -70.2946,
       -27.4819
      ],
      [
       -70.29429999999999,
       -27.482599999999998
      ],
      [
       -70.29410000000001,
       -27.483100000000004
      ],
      [
       -70.2936,
       -27.483700000000006
      ],
      [
       -70.29410000000001,
       -27.484200000000005
      ],
      [
       -70.29639999999999,
       -27.484299999999998
      ],
      [
       -70.2972,
       -27.4848
      ],
      [
       -70.29670000000002,
       -27.485500000000002
      ],
      [
       -70.2952,
       -27.4866
      ],
      [
       -70.2952,
       -27.487499999999994
      ],
      [
       -70.29599999999999,
       -27.4884
      ],
      [
       -70.2961,
       -27.4895
      ],
      [
       -70.2956,
       -27.490499999999997
      ],
      [
       -70.29429999999999,
       -27.490299999999994
      ],
      [
       -70.29299999999999,
       -27.4898
      ],
      [
       -70.2923,
       -27.4892
      ],
      [
       -70.29169999999999,
       -27.488400000000006
      ],
      [
       -70.29079999999999,
       -27.487099999999998
      ],
      [
       -70.2898,
       -27.486
      ],
      [
       -70.2879,
       -27.4854
      ],
      [
       -70.2865,
       -27.485199999999995
      ],
      [
       -70.285,
       -27.485199999999995
      ],
      [
       -70.2835,
       -27.485500000000002
      ],
      [
       -70.2826,
       -27.4863
      ],
      [
       -70.28139999999999,
       -27.4867
      ],
      [
       -70.2805,
       -27.4865
      ],
      [
       -70.28,
       -27.485500000000002
      ],
      [
       -70.27969999999999,
       -27.4851
      ],
      [
       -70.27879999999999,
       -27.4847
      ],
      [
       -70.2782,
       -27.48429999999999
      ],
      [
       -70.2775,
       -27.4838
      ],
      [
       -70.2768,
       -27.4838
      ],
      [
       -70.2758,
       -27.4839
      ],
      [
       -70.2758,
       -27.483200000000007
      ],
      [
       -70.2756,
       -27.4822
      ],
      [
       -70.2749,
       -27.4815
      ],
      [
       -70.2743,
       -27.4809
      ],
      [
       -70.2752,
       -27.4805
      ],
      [
       -70.2757,
       -27.4795
      ],
      [
       -70.27669999999999,
       -27.4791
      ],
      [
       -70.2772,
       -27.478899999999996
      ],
      [
       -70.27799999999999,
       -27.4788
      ],
      [
       -70.2786,
       -27.4777
      ],
      [
       -70.27929999999999,
       -27.4777
      ],
      [
       -70.28,
       -27.4785
      ],
      [
       -70.28009999999999,
       -27.47919999999999
      ],
      [
       -70.2804,
       -27.479699999999998
      ],
      [
       -70.2803,
       -27.4807
      ],
      [
       -70.2813,
       -27.481299999999997
      ],
      [
       -70.2828,
       -27.481600000000007
      ],
      [
       -70.2838,
       -27.4807
      ],
      [
       -70.2846,
       -27.4801
      ],
      [
       -70.28529999999999,
       -27.479000000000003
      ],
      [
       -70.28609999999999,
       -27.478599999999993
      ],
      [
       -70.2865,
       -27.4774
      ],
      [
       -70.2869,
       -27.476799999999997
      ],
      [
       -70.28739999999999,
       -27.476499999999998
      ]
     ]
    ]
   }
  },
  {
   "type": "Feature",
   "properties": {
    "fid": 2065,
    "iso3": "CHL",
    "area_km2": 3.3541
   },
   "geometry": {
    "type": "Polygon",
    "coordinates": [
     [
      [
       -70.2633,
       -27.4879
      ],
      [
       -70.26389999999999,
       -27.4886
      ],
      [
       -70.264,
       -27.489199999999993
      ],
      [
       -70.26389999999999,
       -27.4899
      ],
      [
       -70.26339999999999,
       -27.490700000000007
      ],
      [
       -70.2633,
       -27.4912
      ],
      [
       -70.2631,
       -27.4916
      ],
      [
       -70.2629,
       -27.492200000000004
      ],
      [
       -70.2627,
       -27.49319999999999
      ],
      [
       -70.2625,
       -27.494
      ],
      [
       -70.2621,
       -27.4944
      ],
      [
       -70.2619,
       -27.49479999999999
      ],
      [
       -70.262,
       -27.4953
      ],
      [
       -70.2619,
       -27.4957
      ],
      [
       -70.2619,
       -27.496199999999998
      ],
      [
       -70.2618,
       -27.496499999999997
      ],
      [
       -70.2616,
       -27.497100000000007
      ],
      [
       -70.2615,
       -27.498199999999997
      ],
      [
       -70.2617,
       -27.498699999999996
      ],
      [
       -70.2618,
       -27.499200000000005
      ],
      [
       -70.2617,
       -27.499600000000004
      ],
      [
       -70.2618,
       -27.500100000000003
      ],
      [
       -70.26219999999999,
       -27.5004
      ],
      [
       -70.26259999999999,
       -27.5004
      ],
      [
       -70.2632,
       -27.5003
      ],
      [
       -70.2636,
       -27.5
      ],
      [
       -70.264,
       -27.499799999999997
      ],
      [
       -70.2642,
       -27.49990000000001
      ],
      [
       -70.2644,
       -27.499899999999993
      ],
      [
       -70.2648,
       -27.500100000000003
      ],
      [
       -70.265,
       -27.5004
      ],
      [
       -70.2652,
       -27.5008
      ],
      [
       -70.2648,
       -27.5013
      ],
      [
       -70.2646,
       -27.5016
      ],
      [
       -70.2641,
       -27.502
      ],
      [
       -70.26389999999999,
       -27.502399999999998
      ],
      [
       -70.26339999999999,
       -27.503
      ],
      [
       -70.2632,
       -27.5034
      ],
      [
       -70.2628,
       -27.5037
      ],
      [
       -70.26219999999999,
       -27.50379999999999
      ],
      [
       -70.262,
       -27.504099999999998
      ],
      [
       -70.2621,
       -27.504299999999997
      ],
      [
       -70.2624,
       -27.5045
      ],
      [
       -70.2628,
       -27.50460000000001
      ],
      [
       -70.263,
       -27.5049
      ],
      [
       -70.263,
       -27.5052
      ],
      [
       -70.2627,
       -27.505499999999994
      ],
      [
       -70.2629,
       -27.505599999999998
      ],
      [
       -70.26339999999999,
       -27.5059
      ],
      [
       -70.264,
       -27.506100000000004
      ],
      [
       -70.2641,
       -27.5066
      ],
      [
       -70.2637,
       -27.506900000000005
      ],
      [
       -70.2632,
       -27.50699999999999
      ],
      [
       -70.2625,
       -27.507099999999998
      ],
      [
       -70.2617,
       -27.5073
      ],
      [
       -70.2618,
       -27.5078
      ],
      [
       -70.2618,
       -27.508300000000006
      ],
      [
       -70.2619,
       -27.508699999999997
      ],
      [
       -70.2621,
       -27.5092
      ],
      [
       -70.2621,
       -27.5098
      ],
      [
       -70.2621,
       -27.510299999999997
      ],
      [
       -70.2618,
       -27.510800000000007
      ],
      [
       -70.2614,
       -27.510800000000003
      ],
      [
       -70.2611,
       -27.5111
      ],
      [
       -70.2606,
       -27.5118
      ],
      [
       -70.2599,
       -27.5119
      ],
      [
       -70.2591,
       -27.5119
      ],
      [
       -70.2577,
       -27.5123
      ],
      [
       -70.2565,
       -27.5122
      ],
      [
       -70.2559,
       -27.512000000000008
      ],
      [
       -70.2556,
       -27.511699999999994
      ],
      [
       -70.2554,
       -27.511
      ],
      [
       -70.2552,
       -27.510299999999997
      ],
      [
       -70.2548,
       -27.509700000000006
      ],
      [
       -70.2543,
       -27.508799999999997
      ],
      [
       -70.2539,
       -27.5083
      ],
      [
       -70.2531,
       -27.5074
      ],
      [
       -70.25229999999999,
       -27.50619999999999
      ],
      [
       -70.2518,
       -27.5055
      ],
      [
       -70.2511,
       -27.5047
      ],
      [
       -70.2505,
       -27.5036
      ],
      [
       -70.2503,
       -27.502400000000005
      ],
      [
       -70.25,
       -27.5016
      ],
      [
       -70.2494,
       -27.501499999999993
      ],
      [
       -70.2484,
       -27.500999999999998
      ],
      [
       -70.2475,
       -27.5005
      ],
      [
       -70.2465,
       -27.4999
      ],
      [
       -70.2461,
       -27.4991
      ],
      [
       -70.2461,
       -27.4984
      ],
      [
       -70.2462,
       -27.4972
      ],
      [
       -70.2462,
       -27.4959
      ],
      [
       -70.2465,
       -27.494600000000005
      ],
      [
       -70.2473,
       -27.493399999999998
      ],
      [
       -70.2478,
       -27.492700000000006
      ],
      [
       -70.2481,
       -27.491899999999998
      ],
      [
       -70.2486,
       -27.491299999999995
      ],
      [
       -70.24929999999999,
       -27.490800000000004
      ],
      [
       -70.25,
       -27.490499999999997
      ],
      [
       -70.2503,
       -27.490000000000006
      ],
      [
       -70.2505,
       -27.4894
      ],
      [
       -70.2508,
       -27.4892
      ],
      [
       -70.2513,
       -27.488999999999997
      ],
      [
       -70.25229999999999,
       -27.48879999999999
      ],
      [
       -70.2534,
       -27.4886
      ],
      [
       -70.2542,
       -27.488400000000006
      ],
      [
       -70.2551,
       -27.487999999999992
      ],
      [
       -70.256,
       -27.487899999999993
      ],
      [
       -70.2568,
       -27.4876
      ],
      [
       -70.2573,
       -27.4877
      ],
      [
       -70.25789999999999,
       -27.487900000000007
      ],
      [
       -70.25829999999999,
       -27.488299999999995
      ],
      [
       -70.2588,
       -27.488300000000006
      ],
      [
       -70.2591,
       -27.487799999999996
      ],
      [
       -70.2599,
       -27.487499999999997
      ],
      [
       -70.2607,
       -27.487600000000008
      ],
      [
       -70.2618,
       -27.487500000000004
      ],
      [
       -70.2633,
       -27.4879
      ]
     ]
    ]
   }
  },
  {
   "type": "Feature",
   "properties": {
    "fid": 2060,
    "iso3": "CHL",
    "area_km2": 0.6116
   },
   "geometry": {
    "type": "Polygon",
    "coordinates": [
     [
      [
       -70.2623,
       -27.469199999999997
      ],
      [
       -70.2627,
       -27.468999999999994
      ],
      [
       -70.2629,
       -27.468999999999994
      ],
      [
       -70.2636,
       -27.468700000000005
      ],
      [
       -70.2637,
       -27.469199999999997
      ],
      [
       -70.2637,
       -27.4701
      ],
      [
       -70.2636,
       -27.4702
      ],
      [
       -70.2635,
       -27.470499999999998
      ],
      [
       -70.2633,
       -27.471400000000006
      ],
      [
       -70.2627,
       -27.4714
      ],
      [
       -70.2625,
       -27.4717
      ],
      [
       -70.2623,
       -27.4724
      ],
      [
       -70.2627,
       -27.473099999999988
      ],
      [
       -70.2631,
       -27.474100000000004
      ],
      [
       -70.2631,
       -27.474899999999998
      ],
      [
       -70.263,
       -27.4755
      ],
      [
       -70.2627,
       -27.4761
      ],
      [
       -70.2623,
       -27.476900000000008
      ],
      [
       -70.2621,
       -27.47779999999999
      ],
      [
       -70.2619,
       -27.478299999999997
      ],
      [
       -70.2618,
       -27.478800000000007
      ],
      [
       -70.2617,
       -27.47939999999999
      ],
      [
       -70.2612,
       -27.479699999999998
      ],
      [
       -70.2604,
       -27.480300000000003
      ],
      [
       -70.2593,
       -27.480999999999995
      ],
      [
       -70.2584,
       -27.481600000000007
      ],
      [
       -70.2577,
       -27.4821
      ],
      [
       -70.2568,
       -27.4823
      ],
      [
       -70.25569999999999,
       -27.4818
      ],
      [
       -70.2556,
       -27.48099999999999
      ],
      [
       -70.2559,
       -27.480400000000007
      ],
      [
       -70.2565,
       -27.479699999999998
      ],
      [
       -70.2572,
       -27.4787
      ],
      [
       -70.2576,
       -27.4776
      ],
      [
       -70.25789999999999,
       -27.477100000000007
      ],
      [
       -70.2573,
       -27.476700000000005
      ],
      [
       -70.2571,
       -27.476399999999995
      ],
      [
       -70.2569,
       -27.476
      ],
      [
       -70.25699999999999,
       -27.475600000000004
      ],
      [
       -70.2576,
       -27.475199999999997
      ],
      [
       -70.2582,
       -27.4747
      ],
      [
       -70.25869999999999,
       -27.474499999999995
      ],
      [
       -70.2591,
       -27.474199999999996
      ],
      [
       -70.2593,
       -27.474100000000004
      ],
      [
       -70.25959999999999,
       -27.473700000000004
      ],
      [
       -70.2591,
       -27.473599999999998
      ],
      [
       -70.2585,
       -27.473399999999994
      ],
      [
       -70.2581,
       -27.473300000000002
      ],
      [
       -70.2576,
       -27.473200000000006
      ],
      [
       -70.2576,
       -27.473000000000003
      ],
      [
       -70.2577,
       -27.472699999999996
      ],
      [
       -70.258,
       -27.4726
      ],
      [
       -70.25829999999999,
       -27.472299999999994
      ],
      [
       -70.2585,
       -27.4722
      ],
      [
       -70.2586,
       -27.471999999999998
      ],
      [
       -70.2588,
       -27.471700000000006
      ],
      [
       -70.2589,
       -27.4716
      ],
      [
       -70.259,
       -27.4714
      ],
      [
       -70.259,
       -27.471199999999996
      ],
      [
       -70.2589,
       -27.471
      ],
      [
       -70.2591,
       -27.470599999999997
      ],
      [
       -70.25919999999999,
       -27.470599999999997
      ],
      [
       -70.25959999999999,
       -27.470499999999998
      ],
      [
       -70.2599,
       -27.4702
      ],
      [
       -70.2602,
       -27.470100000000006
      ],
      [
       -70.2605,
       -27.469899999999992
      ],
      [
       -70.2608,
       -27.4697
      ],
      [
       -70.26089999999999,
       -27.4695
      ],
      [
       -70.261,
       -27.4694
      ],
      [
       -70.2612,
       -27.4694
      ],
      [
       -70.26129999999999,
       -27.4694
      ],
      [
       -70.2615,
       -27.4694
      ],
      [
       -70.2618,
       -27.4693
      ],
      [
       -70.2623,
       -27.469199999999997
      ]
     ]
    ]
   }
  },
  {
   "type": "Feature",
   "properties": {
    "fid": 2051,
    "iso3": "CHL",
    "area_km2": 0.7997
   },
   "geometry": {
    "type": "Polygon",
    "coordinates": [
     [
      [
       -70.25059999999999,
       -27.572599999999994
      ],
      [
       -70.25019999999999,
       -27.575100000000003
      ],
      [
       -70.2452,
       -27.5741
      ],
      [
       -70.24499999999999,
       -27.5732
      ],
      [
       -70.2413,
       -27.5732
      ],
      [
       -70.2407,
       -27.5716
      ],
      [
       -70.24759999999999,
       -27.572300000000002
      ],
      [
       -70.24759999999999,
       -27.57219999999999
      ],
      [
       -70.2451,
       -27.5686
      ],
      [
       -70.24159999999999,
       -27.566899999999993
      ],
      [
       -70.24119999999999,
       -27.565900000000003
      ],
      [
       -70.24,
       -27.5647
      ],
      [
       -70.23960000000001,
       -27.5639
      ],
      [
       -70.23960000000001,
       -27.563299999999995
      ],
      [
       -70.2391,
       -27.5627
      ],
      [
       -70.2394,
       -27.561100000000007
      ],
      [
       -70.2397,
       -27.559800000000006
      ],
      [
       -70.2402,
       -27.5593
      ],
      [
       -70.2415,
       -27.56
      ],
      [
       -70.2427,
       -27.561
      ],
      [
       -70.244,
       -27.561399999999992
      ],
      [
       -70.2452,
       -27.561899999999998
      ],
      [
       -70.2469,
       -27.562400000000004
      ],
      [
       -70.2477,
       -27.5642
      ],
      [
       -70.2478,
       -27.566499999999998
      ],
      [
       -70.2475,
       -27.5672
      ],
      [
       -70.2468,
       -27.568099999999998
      ],
      [
       -70.2466,
       -27.5687
      ],
      [
       -70.24719999999999,
       -27.5701
      ],
      [
       -70.2486,
       -27.5714
      ],
      [
       -70.2491,
       -27.5725
      ],
      [
       -70.25059999999999,
       -27.572599999999994
      ]
     ]
    ]
   }
  },
  {
   "type": "Feature",
   "properties": {
    "fid": 2053,
    "iso3": "CHL",
    "area_km2": 0.2303
   },
   "geometry": {
    "type": "Polygon",
    "coordinates": [
     [
      [
       -70.23689999999999,
       -27.5719
      ],
      [
       -70.2376,
       -27.5725
      ],
      [
       -70.2375,
       -27.5732
      ],
      [
       -70.23689999999999,
       -27.5738
      ],
      [
       -70.23599999999999,
       -27.573900000000005
      ],
      [
       -70.2351,
       -27.5739
      ],
      [
       -70.2341,
       -27.5739
      ],
      [
       -70.2324,
       -27.573800000000006
      ],
      [
       -70.2307,
       -27.573600000000003
      ],
      [
       -70.2298,
       -27.573499999999996
      ],
      [
       -70.2289,
       -27.573
      ],
      [
       -70.2285,
       -27.572300000000002
      ],
      [
       -70.22919999999999,
       -27.571199999999997
      ],
      [
       -70.22959999999999,
       -27.5709
      ],
      [
       -70.2362,
       -27.5715
      ],
      [
       -70.2367,
       -27.571699999999996
      ],
      [
       -70.23689999999999,
       -27.5719
      ]
     ]
    ]
   }
  },
  {
   "type": "Feature",
   "properties": {
    "fid": 2064,
    "iso3": "CHL",
    "area_km2": 1.7172
   },
   "geometry": {
    "type": "Polygon",
    "coordinates": [
     [
      [
       -70.225,
       -27.4467
      ],
      [
       -70.2254,
       -27.447000000000006
      ],
      [
       -70.2255,
       -27.4474
      ],
      [
       -70.2257,
       -27.4482
      ],
      [
       -70.226,
       -27.449199999999998
      ],
      [
       -70.22619999999999,
       -27.4496
      ],
      [
       -70.2263,
       -27.450300000000002
      ],
      [
       -70.2267,
       -27.451100000000004
      ],
      [
       -70.2269,
       -27.4515
      ],
      [
       -70.2267,
       -27.4519
      ],
      [
       -70.2265,
       -27.45229999999999
      ],
      [
       -70.2263,
       -27.453
      ],
      [
       -70.226,
       -27.453699999999998
      ],
      [
       -70.22579999999999,
       -27.4546
      ],
      [
       -70.2255,
       -27.455299999999994
      ],
      [
       -70.2252,
       -27.4561
      ],
      [
       -70.22489999999999,
       -27.456899999999997
      ],
      [
       -70.2244,
       -27.4574
      ],
      [
       -70.22400000000002,
       -27.4583
      ],
      [
       -70.22400000000002,
       -27.4591
      ],
      [
       -70.2237,
       -27.4596
      ],
      [
       -70.2234,
       -27.4598
      ],
      [
       -70.2221,
       -27.459899999999998
      ],
      [
       -70.221,
       -27.459999999999997
      ],
      [
       -70.2196,
       -27.459899999999998
      ],
      [
       -70.2187,
       -27.4595
      ],
      [
       -70.2178,
       -27.458499999999997
      ],
      [
       -70.21679999999999,
       -27.4575
      ],
      [
       -70.21549999999999,
       -27.456799999999998
      ],
      [
       -70.2153,
       -27.456
      ],
      [
       -70.21509999999999,
       -27.45509999999999
      ],
      [
       -70.2139,
       -27.4543
      ],
      [
       -70.2131,
       -27.453
      ],
      [
       -70.2136,
       -27.452300000000005
      ],
      [
       -70.21419999999999,
       -27.4519
      ],
      [
       -70.2147,
       -27.451500000000006
      ],
      [
       -70.2149,
       -27.450900000000004
      ],
      [
       -70.21459999999999,
       -27.450200000000006
      ],
      [
       -70.2145,
       -27.449499999999997
      ],
      [
       -70.2145,
       -27.449199999999998
      ],
      [
       -70.2145,
       -27.448900000000002
      ],
      [
       -70.2147,
       -27.448500000000003
      ],
      [
       -70.215,
       -27.4482
      ],
      [
       -70.21509999999999,
       -27.447899999999997
      ],
      [
       -70.2149,
       -27.4474
      ],
      [
       -70.2154,
       -27.447100000000006
      ],
      [
       -70.2157,
       -27.4468
      ],
      [
       -70.21560000000001,
       -27.4462
      ],
      [
       -70.2157,
       -27.445300000000003
      ],
      [
       -70.216,
       -27.444799999999997
      ],
      [
       -70.2162,
       -27.4443
      ],
      [
       -70.2165,
       -27.444
      ],
      [
       -70.21690000000001,
       -27.443400000000008
      ],
      [
       -70.2175,
       -27.443400000000004
      ],
      [
       -70.218,
       -27.443400000000004
      ],
      [
       -70.21889999999999,
       -27.4435
      ],
      [
       -70.2194,
       -27.443800000000003
      ],
      [
       -70.22,
       -27.443900000000006
      ],
      [
       -70.22019999999999,
       -27.4437
      ],
      [
       -70.22059999999999,
       -27.4434
      ],
      [
       -70.2213,
       -27.443099999999998
      ],
      [
       -70.2217,
       -27.4435
      ],
      [
       -70.22189999999999,
       -27.4441
      ],
      [
       -70.222,
       -27.444600000000005
      ],
      [
       -70.2224,
       -27.445399999999992
      ],
      [
       -70.2231,
       -27.445899999999995
      ],
      [
       -70.2238,
       -27.4464
      ],
      [
       -70.225,
       -27.4467
      ]
     ]
    ]
   }
  }
 ],
 "license": "CC-BY-SA-4.0",
 "attribution": "Maus et al. 2022 (doi:10.1594/PANGAEA.942325)"
}
