{
 "type": "FeatureCollection",
 "features": [
  {
   "type": "Feature",
   "properties": {
    "fid": 4074,
    "iso3": "COD",
    "area_km2": 1.4186
   },
   "geometry": {
    "type": "Polygon",
    "coordinates": [
     [
      [
       25.317600000000002,
       -10.6712
      ],
      [
       25.311600000000002,
       -10.673
      ],
      [
       25.309299999999993,
       -10.6739
      ],
      [
       25.30879999999999,
       -10.676400000000001
      ],
      [
       25.308699999999998,
       -10.6777
      ],
      [
       25.3123,
       -10.677299999999999
      ],
      [
       25.3161,
       -10.6749
      ],
      [
       25.3203,
       -10.6739
      ],
      [
       25.3219,
       -10.6702
      ],
      [
       25.325000000000006,
       -10.666600000000003
      ],
      [
       25.326100000000007,
       -10.6702
      ],
      [
       25.3285,
       -10.673399999999996
      ],
      [
       25.330800000000004,
       -10.671999999999999
      ],
      [
       25.3314,
       -10.6668
      ],
      [
       25.3249,
       -10.660200000000003
      ],
      [
       25.321199999999994,
       -10.6657
      ],
      [
       25.322199999999995,
       -10.666599999999999
      ],
      [
       25.320399999999996,
       -10.6693
      ],
      [
       25.318400000000004,
       -10.672299999999998
      ],
      [
       25.317600000000002,
       -10.6712
      ]
     ]
    ]
   }
  },
  {
   "type": "Feature",
   "properties": {
    "fid": 4077,
    "iso3": "COD",
    "area_km2": 1.084
   },
   "geometry": {
    "type": "Polygon",
    "coordinates": [
     [
      [
       25.4496,
       -10.6632
      ],
      [
       25.4521,
       -10.6725
      ],
      [
       25.451,
       -10.676699999999997
      ],
      [
       25.452399999999997,
       -10.6771
      ],
      [
       25.4573,
       -10.6718
      ],
      [
       25.459400000000002,
       -10.6658
      ],
      [
       25.458,
       -10.661999999999999
      ],
      [
       25.4496,
       -10.6632
      ]
     ]
    ]
   }
  },
  {
   "type": "Feature",
   "properties": {
    "fid": 4100,
    "iso3": "COD",
    "area_km2": 4.3298
   },
   "geometry": {
    "type": "Polygon",
    "coordinates": [
     [
      [
       25.4226,
       -10.624800000000002
      ],
      [
       25.422599999999996,
       -10.624900000000004
      ],
      [
       25.4225,
       -10.624699999999995
      ],
      [
       25.417199999999998,
       -10.635300000000003
      ],
      [
       25.41119999999999,
       -10.646799999999999
      ],
      [
       25.4114,
       -10.6469
      ],
      [
       25.4269,
       -10.651999999999996
      ],
      [
       25.436,
       -10.651399999999999
      ],
      [
       25.4389,
       -10.6467
      ],
      [
       25.436799999999998,
       -10.6441
      ],
      [
       25.4267,
       -10.644400000000003
      ],
      [
       25.429599999999997,
       -10.634
      ],
      [
       25.4303,
       -10.6322
      ],
      [
       25.4302,
       -10.632100000000003
      ],
      [
       25.4302,
       -10.632
      ],
      [
       25.4226,
       -10.624800000000002
      ]
     ]
    ]
   }
  },
  {
   "type": "Feature",
   "properties": {
    "fid": 4103,
    "iso3": "COD",
    "area_km2": 1.9349
   },
   "geometry": {
    "type": "Polygon",
    "coordinates": [
     [
      [
       25.417399999999997,
       -10.622999999999996
      ],
      [
       25.4184,
       -10.618400000000003
      ],
      [
       25.407899999999998,
       -10.6068
      ],
      [
       25.4098,
       -10.614899999999999
      ],
      [
       25.409699999999997,
       -10.617899999999999
      ],
      [
       25.409100000000002,
       -10.626400000000002
      ],
      [
       25.4,
       -10.6311
      ],
      [
       25.417499999999997,
       -10.6294
      ],
      [
       25.417399999999997,
       -10.622999999999996
      ]
     ]
    ]
   }
  },
  {
   "type": "Feature",
   "properties": {
    "fid": 4112,
    "iso3": "COD",
    "area_km2": 5.7266
   },
   "geometry": {
    "type": "Polygon",
    "coordinates": [
     [
      [
       25.3389,
       -10.731499999999999
      ],
      [
       25.3374,
       -10.7331
      ],
      [
       25.334999999999997,
       -10.7423
      ],
      [
       25.333599999999993,
       -10.749300000000002
      ],
      [
       25.3315,
       -10.756499999999999
      ],
      [
       25.323,
       -10.7553
      ],
      [
       25.3208,
       -10.7796
      ],
      [
       25.3312,
       -10.786399999999999
      ],
      [
       25.340400000000002,
       -10.759400000000003
      ],
      [
       25.3342,
       -10.757099999999996
      ],
      [
       25.337299999999995,
       -10.7473
      ],
      [
       25.340299999999996,
       -10.732099999999999
      ],
      [
       25.3389,
       -10.731499999999999
      ]
     ]
    ]
   }
  },
  {
   "type": "Feature",
   "properties": {
    "fid": 4127,
    "iso3": "COD",
    "area_km2": 66.3774
   },
   "geometry": {
    "type": "Polygon",
    "coordinates": [
     [
      [
       25.451799999999995,
       -10.7229
      ],
      [
       25.4513,
       -10.723100000000002
      ],
      [
       25.4508,
       -10.724099999999996
      ],
      [
       25.450600000000005,
       -10.7252
      ],
      [
       25.449299999999997,
       -10.717599999999996
      ],
      [
       25.4511,
       -10.7181
      ],
      [
       25.452900000000003,
       -10.716199999999999
      ],
      [
       25.453700000000005,
       -10.7142
      ],
      [
       25.45489999999999,
       -10.712399999999999
      ],
      [
       25.456199999999992,
       -10.7097
      ],
      [
       25.4592,
       -10.7097
      ],
      [
       25.460900000000006,
       -10.710099999999999
      ],
      [
       25.4633,
       -10.7115
      ],
      [
       25.4648,
       -10.712400000000002
      ],
      [
       25.466100000000004,
       -10.7115
      ],
      [
       25.466200000000004,
       -10.710099999999999
      ],
      [
       25.4618,
       -10.7066
      ],
      [
       25.459299999999992,
       -10.705
      ],
      [
       25.456400000000006,
       -10.7045
      ],
      [
       25.447699999999998,
       -10.7034
      ],
      [
       25.4481,
       -10.699
      ],
      [
       25.450499999999998,
       -10.698
      ],
      [
       25.450699999999998,
       -10.697
      ],
      [
       25.4502,
       -10.695699999999995
      ],
      [
       25.4508,
       -10.6947
      ],
      [
       25.451399999999992,
       -10.6947
      ],
      [
       25.451999999999998,
       -10.693400000000002
      ],
      [
       25.452100000000005,
       -10.691400000000002
      ],
      [
       25.452799999999996,
       -10.6899
      ],
      [
       25.452699999999993,
       -10.6882
      ],
      [
       25.450599999999998,
       -10.6881
      ],
      [
       25.449200000000005,
       -10.6875
      ],
      [
       25.4465,
       -10.687400000000004
      ],
      [
       25.444399999999998,
       -10.688700000000003
      ],
      [
       25.441299999999995,
       -10.689200000000001
      ],
      [
       25.436400000000003,
       -10.6897
      ],
      [
       25.433799999999998,
       -10.6915
      ],
      [
       25.4325,
       -10.6955
      ],
      [
       25.428999999999995,
       -10.6946
      ],
      [
       25.4273,
       -10.6928
      ],
      [
       25.4281,
       -10.690700000000003
      ],
      [
       25.425700000000006,
       -10.689499999999999
      ],
      [
       25.4242,
       -10.6922
      ],
      [
       25.423299999999998,
       -10.691900000000004
      ],
      [
       25.422800000000006,
       -10.688400000000001
      ],
      [
       25.4144,
       -10.684199999999999
      ],
      [
       25.4074,
       -10.684300000000004
      ],
      [
       25.4056,
       -10.681600000000003
      ],
      [
       25.402600000000007,
       -10.6831
      ],
      [
       25.396799999999995,
       -10.681199999999999
      ],
      [
       25.3893,
       -10.685799999999999
      ],
      [
       25.3811,
       -10.690299999999999
      ],
      [
       25.3754,
       -10.6992
      ],
      [
       25.372999999999998,
       -10.700199999999999
      ],
      [
       25.366999999999994,
       -10.703899999999999
      ],
      [
       25.365399999999998,
       -10.7129
      ],
      [
       25.365,
       -10.7164
      ],
      [
       25.356700000000007,
       -10.7163
      ],
      [
       25.3602,
       -10.7072
      ],
      [
       25.353600000000004,
       -10.7037
      ],
      [
       25.342199999999995,
       -10.718499999999999
      ],
      [
       25.33909999999999,
       -10.7236
      ],
      [
       25.3404,
       -10.7266
      ],
      [
       25.341600000000003,
       -10.7348
      ],
      [
       25.346799999999998,
       -10.735999999999999
      ],
      [
       25.346200000000003,
       -10.7408
      ],
      [
       25.349400000000006,
       -10.746
      ],
      [
       25.354699999999998,
       -10.748800000000003
      ],
      [
       25.3522,
       -10.756499999999999
      ],
      [
       25.3543,
       -10.759400000000003
      ],
      [
       25.3569,
       -10.764900000000003
      ],
      [
       25.36379999999999,
       -10.770699999999998
      ],
      [
       25.372700000000002,
       -10.774200000000002
      ],
      [
       25.377399999999994,
       -10.7624
      ],
      [
       25.379099999999998,
       -10.7553
      ],
      [
       25.3748,
       -10.7502
      ],
      [
       25.3752,
       -10.7464
      ],
      [
       25.383399999999998,
       -10.7468
      ],
      [
       25.3861,
       -10.751899999999996
      ],
      [
       25.38919999999999,
       -10.754299999999999
      ],
      [
       25.39589999999999,
       -10.753599999999997
      ],
      [
       25.3998,
       -10.749300000000003
      ],
      [
       25.399200000000004,
       -10.744299999999997
      ],
      [
       25.4007,
       -10.743
      ],
      [
       25.3997,
       -10.740499999999999
      ],
      [
       25.3996,
       -10.738999999999999
      ],
      [
       25.397900000000003,
       -10.738400000000004
      ],
      [
       25.394700000000004,
       -10.740399999999998
      ],
      [
       25.3936,
       -10.740499999999999
      ],
      [
       25.394399999999997,
       -10.7372
      ],
      [
       25.3962,
       -10.735199999999999
      ],
      [
       25.3966,
       -10.7313
      ],
      [
       25.398200000000006,
       -10.730000000000002
      ],
      [
       25.4016,
       -10.7295
      ],
      [
       25.400499999999997,
       -10.7266
      ],
      [
       25.4043,
       -10.725800000000003
      ],
      [
       25.408199999999997,
       -10.725800000000003
      ],
      [
       25.4096,
       -10.727799999999997
      ],
      [
       25.4111,
       -10.7317
      ],
      [
       25.412099999999995,
       -10.733799999999999
      ],
      [
       25.4163,
       -10.732899999999999
      ],
      [
       25.4183,
       -10.731399999999995
      ],
      [
       25.4198,
       -10.728399999999999
      ],
      [
       25.42,
       -10.7238
      ],
      [
       25.421799999999994,
       -10.7229
      ],
      [
       25.424100000000003,
       -10.720500000000003
      ],
      [
       25.4263,
       -10.718299999999997
      ],
      [
       25.429199999999998,
       -10.718399999999999
      ],
      [
       25.4362,
       -10.7189
      ],
      [
       25.4378,
       -10.719299999999999
      ],
      [
       25.4401,
       -10.7269
      ],
      [
       25.447499999999998,
       -10.726800000000003
      ],
      [
       25.450600000000005,
       -10.7255
      ],
      [
       25.450499999999998,
       -10.725800000000003
      ],
      [
       25.449500000000004,
       -10.7266
      ],
      [
       25.447699999999998,
       -10.727200000000002
      ],
      [
       25.4471,
       -10.728399999999999
      ],
      [
       25.446799999999996,
       -10.729899999999999
      ],
      [
       25.4481,
       -10.733700000000002
      ],
      [
       25.4501,
       -10.737599999999999
      ],
      [
       25.4533,
       -10.7381
      ],
      [
       25.45479999999999,
       -10.7372
      ],
      [
       25.455099999999998,
       -10.735299999999999
      ],
      [
       25.458199999999998,
       -10.7346
      ],
      [
       25.459400000000002,
       -10.7317
      ],
      [
       25.4618,
       -10.729899999999999
      ],
      [
       25.4665,
       -10.7285
      ],
      [
       25.4713,
       -10.7293
      ],
      [
       25.4725,
       -10.7243
      ],
      [
       25.468899999999998,
       -10.723099999999999
      ],
      [
       25.462899999999998,
       -10.722500000000004
      ],
      [
       25.4581,
       -10.724
      ],
      [
       25.451799999999995,
       -10.7229
      ]
     ]
    ]
   }
  },
  {
   "type": "Feature",
   "properties": {
    "fid": 4114,
    "iso3": "COD",
    "area_km2": 1.3826
   },
   "geometry": {
    "type": "Polygon",
    "coordinates": [
     [
      [
       25.404999999999998,
       -10.7578
      ],
      [
       25.40139999999999,
       -10.7625
      ],
      [
       25.4055,
       -10.7659
      ],
      [
       25.4103,
       -10.765200000000004
      ],
      [
       25.4169,
       -10.762099999999998
      ],
      [
       25.415799999999994,
       -10.756400000000003
      ],
      [
       25.409299999999998,
       -10.7546
      ],
      [
       25.404999999999998,
       -10.7578
      ]
     ]
    ]
   }
  },
  {
   "type": "Feature",
   "properties": {
    "fid": 4125,
    "iso3": "COD",
    "area_km2": 2.5424
   },
   "geometry": {
    "type": "Polygon",
    "coordinates": [
     [
      [
       25.320099999999993,
       -10.735199999999999
      ],
      [
       25.3205,
       -10.739100000000002
      ],
      [
       25.3314,
       -10.7394
      ],
      [
       25.334799999999998,
       -10.735199999999999
      ],
      [
       25.334999999999997,
       -10.7266
      ],
      [
       25.3273,
       -10.724599999999999
      ],
      [
       25.3238,
       -10.7257
      ],
      [
       25.319799999999997,
       -10.7262
      ],
      [
       25.319799999999997,
       -10.7308
      ],
      [
       25.3143,
       -10.734399999999999
      ],
      [
       25.320099999999993,
       -10.735199999999999
      ]
     ]
    ]
   }
  },
  {
   "type": "Feature",
   "properties": {
    "fid": 4071,
    "iso3": "COD",
    "area_km2": 0.6507
   },
   "geometry": {
    "type": "Polygon",
    "coordinates": [
     [
      [
       25.370099999999997,
       -10.6931
      ],
      [
       25.3679,
       -10.698199999999996
      ],
      [
       25.371,
       -10.7
      ],
      [
       25.372100000000003,
       -10.6977
      ],
      [
       25.375799999999998,
       -10.694800000000003
      ],
      [
       25.3763,
       -10.6929
      ],
      [
       25.3784,
       -10.6919
      ],
      [
       25.380499999999998,
       -10.6907
      ],
      [
       25.380499999999998,
       -10.689400000000001
      ],
      [
       25.376900000000003,
       -10.689099999999996
      ],
      [
       25.370099999999997,
       -10.6931
      ]
     ]
    ]
   }
  },
  {
   "type": "Feature",
   "properties": {
    "fid": 4073,
    "iso3": "COD",
    "area_km2": 1.4087
   },
   "geometry": {
    "type": "Polygon",
    "coordinates": [
     [
      [
       25.426899999999993,
       -10.6864
      ],
      [
       25.4288,
       -10.6886
      ],
      [
       25.440699999999996,
       -10.689099999999996
      ],
      [
       25.4405,
       -10.6782
      ],
      [
       25.435499999999998,
       -10.6776
      ],
      [
       25.434900000000006,
       -10.679
      ],
      [
       25.430699999999998,
       -10.680199999999996
      ],
      [
       25.429700000000004,
       -10.6837
      ],
      [
       25.426899999999993,
       -10.6864
      ]
     ]
    ]
   }
  },
  {
   "type": "Feature",
   "properties": {
    "fid": 4075,
    "iso3": "COD",
    "area_km2": 4.853
   },
   "geometry": {
    "type": "Polygon",
    "coordinates": [
     [
      [
       25.3801,
       -10.6787
      ],
      [
       25.376900000000003,
       -10.686400000000003
      ],
      [
       25.377000000000002,
       -10.6889
      ],
      [
       25.3824,
       -10.689
      ],
      [
       25.392200000000006,
       -10.6839
      ],
      [
       25.3952,
       -10.6817
      ],
      [
       25.3995,
       -10.675799999999999
      ],
      [
       25.4011,
       -10.674099999999996
      ],
      [
       25.400499999999994,
       -10.6708
      ],
      [
       25.3922,
       -10.668099999999999
      ],
      [
       25.380699999999997,
       -10.665099999999999
      ],
      [
       25.374800000000008,
       -10.663800000000002
      ],
      [
       25.377,
       -10.6687
      ],
      [
       25.379800000000003,
       -10.672000000000002
      ],
      [
       25.3749,
       -10.673000000000004
      ],
      [
       25.376199999999997,
       -10.6756
      ],
      [
       25.3788,
       -10.6784
      ],
      [
       25.3801,
       -10.6787
      ]
     ]
    ]
   }
  }
 ],
 "license": "CC-BY-SA-4.0",
 "attribution": "Maus et al. 2022 (doi:10.1594/PANGAEA.942325)"
}
