{
 "type": "FeatureCollection",
 "features": [
  {
   "type": "Feature",
   "properties": {
    "fid": 19034,
    "iso3": "RUS",
    "area_km2": 0.2338
   },
   "geometry": {
    "type": "Polygon",
    "coordinates": [
     [
      [
       113.9588,
       62.4741
      ],
      [
       113.9576,
       62.47359999999999
      ],
      [
       113.95639999999999,
       62.4732
      ],
      [
       113.9553,
       62.472699999999996
      ],
      [
       113.9528,
       62.471399999999996
      ],
      [
       113.9524,
       62.47099999999999
      ],
      [
       113.9523,
       62.4706
      ],
      [
       113.95270000000001,
       62.470299999999995
      ],
      [
       113.95389999999999,
       62.469899999999996
      ],
      [
       113.95469999999999,
       62.4696
      ],
      [
       113.95819999999999,
       62.468799999999995
      ],
      [
       113.96509999999999,
       62.4709
      ],
      [
       113.9657,
       62.4718
      ],
      [
       113.9588,
       62.4741
      ]
     ]
    ]
   }
  },
  {
   "type": "Feature",
   "properties": {
    "fid": 19027,
    "iso3": "RUS",
    "area_km2": 0.0249
   },
   "geometry": {
    "type": "Polygon",
    "coordinates": [
     [
      [
       113.94999999999999,
       62.473
      ],
      [
       113.9503,
       62.47389999999999
      ],
      [
       113.9498,
       62.4741
      ],
      [
       113.9473,
       62.4745
      ],
      [
       113.94699999999999,
       62.4741
      ],
      [
       113.94699999999999,
       62.473499999999994
      ],
      [
       113.9474,
       62.4728
      ],
      [
       113.9477,
       62.4728
      ],
      [
       113.949,
       62.4728
      ],
      [
       113.94999999999999,
       62.473
      ]
     ]
    ]
   }
  },
  {
   "type": "Feature",
   "properties": {
    "fid": 19018,
    "iso3": "RUS",
    "area_km2": 0.2255
   },
   "geometry": {
    "type": "Polygon",
    "coordinates": [
     [
      [
       113.8775,
       62.491299999999995
      ],
      [
       113.8724,
       62.4908
      ],
      [
       113.87150000000001,
       62.4893
      ],
      [
       113.8651,
       62.4883
      ],
      [
       113.8639,
       62.48749999999999
      ],
      [
       113.8643,
       62.4868
      ],
      [
       113.86869999999999,
       62.4868
      ],
      [
       113.8737,
       62.487300000000005
      ],
      [
       113.877,
       62.4881
      ],
      [
       113.87989999999999,
       62.48849999999999
      ],
      [
       113.8805,
       62.4895
      ],
      [
       113.8775,
       62.491299999999995
      ]
     ]
    ]
   }
  },
  {
   "type": "Feature",
   "properties": {
    "fid": 19085,
    "iso3": "RUS",
    "area_km2": 2.1904
   },
   "geometry": {
    "type": "Polygon",
    "coordinates": [
     [
      [
       114.00609999999999,
       62.499199999999995
      ],
      [
       114.00659999999999,
       62.5004
      ],
      [
       114.00590000000001,
       62.5021
      ],
      [
       114.00519999999999,
       62.5035
      ],
      [
       114.0045,
       62.5044
      ],
      [
       114.00309999999999,
       62.5055
      ],
      [
       114.0008,
       62.5056
      ],
      [
       113.9995,
       62.504900000000006
      ],
      [
       113.9965,
       62.504
      ],
      [
       113.9944,
       62.5035
      ],
      [
       113.9922,
       62.503699999999995
      ],
      [
       113.9897,
       62.503800000000005
      ],
      [
       113.9878,
       62.503800000000005
      ],
      [
       113.98679999999999,
       62.504
      ],
      [
       113.9859,
       62.5043
      ],
      [
       113.98379999999999,
       62.5044
      ],
      [
       113.98169999999999,
       62.5044
      ],
      [
       113.98259999999999,
       62.503600000000006
      ],
      [
       113.9748,
       62.50149999999999
      ],
      [
       113.9618,
       62.497699999999995
      ],
      [
       113.95769999999999,
       62.496100000000006
      ],
      [
       113.9562,
       62.496199999999995
      ],
      [
       113.9542,
       62.496399999999994
      ],
      [
       113.95400000000001,
       62.4958
      ],
      [
       113.95299999999999,
       62.4955
      ],
      [
       113.9499,
       62.4954
      ],
      [
       113.9464,
       62.49529999999999
      ],
      [
       113.9431,
       62.49499999999999
      ],
      [
       113.94399999999999,
       62.49380000000001
      ],
      [
       113.9476,
       62.493500000000004
      ],
      [
       113.9511,
       62.492799999999995
      ],
      [
       113.9524,
       62.4931
      ],
      [
       113.9545,
       62.49109999999999
      ],
      [
       113.9557,
       62.4908
      ],
      [
       113.95639999999999,
       62.490700000000004
      ],
      [
       113.9575,
       62.4909
      ],
      [
       113.9581,
       62.4929
      ],
      [
       113.9637,
       62.494299999999996
      ],
      [
       113.97229999999999,
       62.4952
      ],
      [
       113.97470000000001,
       62.4954
      ],
      [
       113.9765,
       62.495599999999996
      ],
      [
       113.9807,
       62.4952
      ],
      [
       113.98219999999999,
       62.4952
      ],
      [
       113.98259999999999,
       62.49399999999999
      ],
      [
       113.98349999999999,
       62.4933
      ],
      [
       113.98729999999999,
       62.4933
      ],
      [
       113.9887,
       62.49360000000001
      ],
      [
       113.98859999999999,
       62.4945
      ],
      [
       113.9885,
       62.495099999999994
      ],
      [
       113.9904,
       62.4954
      ],
      [
       113.9944,
       62.4955
      ],
      [
       113.99759999999999,
       62.4952
      ],
      [
       114.00319999999999,
       62.497400000000006
      ],
      [
       114.00609999999999,
       62.499199999999995
      ]
     ]
    ]
   }
  },
  {
   "type": "Feature",
   "properties": {
    "fid": 19089,
    "iso3": "RUS",
    "area_km2": 0.343
   },
   "geometry": {
    "type": "Polygon",
    "coordinates": [
     [
      [
       113.9829,
       62.51739999999999
      ],
      [
       113.9816,
       62.5173
      ],
      [
       113.982,
       62.51650000000001
      ],
      [
       113.98379999999999,
       62.5159
      ],
      [
       113.9844,
       62.515299999999996
      ],
      [
       113.9837,
       62.514700000000005
      ],
      [
       113.98469999999999,
       62.51379999999999
      ],
      [
       113.9871,
       62.513
      ],
      [
       113.988,
       62.512699999999995
      ],
      [
       113.9891,
       62.512699999999995
      ],
      [
       113.9903,
       62.5123
      ],
      [
       113.9917,
       62.51279999999999
      ],
      [
       113.9943,
       62.51240000000001
      ],
      [
       113.9949,
       62.5119
      ],
      [
       113.9953,
       62.511399999999995
      ],
      [
       113.9962,
       62.511100000000006
      ],
      [
       113.997,
       62.5104
      ],
      [
       113.99799999999999,
       62.5097
      ],
      [
       113.99870000000001,
       62.509299999999996
      ],
      [
       113.99839999999999,
       62.5084
      ],
      [
       113.9977,
       62.5079
      ],
      [
       113.9991,
       62.507200000000005
      ],
      [
       114.0004,
       62.506699999999995
      ],
      [
       114.00219999999999,
       62.507200000000005
      ],
      [
       114.003,
       62.507999999999996
      ],
      [
       114.00229999999999,
       62.508500000000005
      ],
      [
       114.00130000000001,
       62.509299999999996
      ],
      [
       114.00070000000001,
       62.5097
      ],
      [
       113.9999,
       62.5108
      ],
      [
       113.9983,
       62.511100000000006
      ],
      [
       113.9983,
       62.5117
      ],
      [
       113.9982,
       62.51240000000001
      ],
      [
       113.9975,
       62.5133
      ],
      [
       113.9953,
       62.51500000000001
      ],
      [
       113.9932,
       62.515299999999996
      ],
      [
       113.99149999999999,
       62.51539999999999
      ],
      [
       113.9897,
       62.5156
      ],
      [
       113.9884,
       62.5158
      ],
      [
       113.9876,
       62.5159
      ],
      [
       113.98649999999999,
       62.5166
      ],
      [
       113.9858,
       62.517500000000005
      ],
      [
       113.9844,
       62.517500000000005
      ],
      [
       113.9829,
       62.51739999999999
      ]
     ]
    ]
   }
  },
  {
   "type": "Feature",
   "properties": {
    "fid": 19048,
    "iso3": "RUS",
    "area_km2": 4.0696
   },
   "geometry": {
    "type": "Polygon",
    "coordinates": [
     [
      [
       114.04629999999999,
       62.5344
      ],
      [
       114.0189,
       62.5258
      ],
      [
       114.0242,
       62.52389999999999
      ],
      [
       114.0269,
       62.5234
      ],
      [
       114.0269,
       62.5197
      ],
      [
       114.02659999999999,
       62.517999999999994
      ],
      [
       114.02210000000001,
       62.5172
      ],
      [
       114.02069999999999,
       62.5158
      ],
      [
       114.0201,
       62.51409999999999
      ],
      [
       114.01679999999999,
       62.51149999999999
      ],
      [
       114.0171,
       62.5081
      ],
      [
       114.0252,
       62.5081
      ],
      [
       114.0319,
       62.50859999999999
      ],
      [
       114.0371,
       62.5092
      ],
      [
       114.04379999999999,
       62.5096
      ],
      [
       114.05059999999999,
       62.511
      ],
      [
       114.0527,
       62.5122
      ],
      [
       114.0559,
       62.520199999999996
      ],
      [
       114.05749999999999,
       62.52419999999999
      ],
      [
       114.0559,
       62.5267
      ],
      [
       114.05399999999999,
       62.528999999999996
      ],
      [
       114.0503,
       62.5323
      ],
      [
       114.04629999999999,
       62.5344
      ]
     ]
    ]
   }
  },
  {
   "type": "Feature",
   "properties": {
    "fid": 19028,
    "iso3": "RUS",
    "area_km2": 0.7116
   },
   "geometry": {
    "type": "Polygon",
    "coordinates": [
     [
      [
       113.9553,
       62.517500000000005
      ],
      [
       113.95049999999999,
       62.516799999999996
      ],
      [
       113.9488,
       62.5173
      ],
      [
       113.9462,
       62.516799999999996
      ],
      [
       113.9382,
       62.51500000000001
      ],
      [
       113.9341,
       62.51409999999999
      ],
      [
       113.92020000000001,
       62.5117
      ],
      [
       113.9204,
       62.511
      ],
      [
       113.9343,
       62.5118
      ],
      [
       113.9435,
       62.511300000000006
      ],
      [
       113.95429999999999,
       62.5118
      ],
      [
       113.9581,
       62.514900000000004
      ],
      [
       113.9553,
       62.517500000000005
      ]
     ]
    ]
   }
  },
  {
   "type": "Feature",
   "properties": {
    "fid": 19092,
    "iso3": "RUS",
    "area_km2": 1.3206
   },
   "geometry": {
    "type": "Polygon",
    "coordinates": [
     [
      [
       114.0114,
       62.531299999999995
      ],
      [
       114.0085,
       62.531299999999995
      ],
      [
       114.00739999999999,
       62.5311
      ],
      [
       114.00699999999999,
       62.530499999999996
      ],
      [
       114.00619999999999,
       62.5297
      ],
      [
       114.0056,
       62.52910000000001
      ],
      [
       114.00489999999999,
       62.528
      ],
      [
       114.00309999999999,
       62.5246
      ],
      [
       114.00200000000001,
       62.5241
      ],
      [
       114.0004,
       62.523700000000005
      ],
      [
       113.99839999999999,
       62.52289999999999
      ],
      [
       113.9965,
       62.52259999999999
      ],
      [
       113.993,
       62.522499999999994
      ],
      [
       113.9914,
       62.522400000000005
      ],
      [
       113.993,
       62.52159999999999
      ],
      [
       113.99409999999999,
       62.52129999999999
      ],
      [
       113.99589999999999,
       62.5209
      ],
      [
       113.9977,
       62.520199999999996
      ],
      [
       114.00000000000001,
       62.520199999999996
      ],
      [
       114.0015,
       62.520599999999995
      ],
      [
       114.00269999999999,
       62.5212
      ],
      [
       114.00359999999999,
       62.521699999999996
      ],
      [
       114.0045,
       62.52259999999999
      ],
      [
       114.0055,
       62.522999999999996
      ],
      [
       114.0068,
       62.523199999999996
      ],
      [
       114.00869999999999,
       62.5233
      ],
      [
       114.0101,
       62.522499999999994
      ],
      [
       114.01089999999999,
       62.52129999999999
      ],
      [
       114.0106,
       62.520399999999995
      ],
      [
       114.00739999999999,
       62.5196
      ],
      [
       114.0051,
       62.5179
      ],
      [
       114.01299999999999,
       62.51370000000001
      ],
      [
       114.018,
       62.51379999999999
      ],
      [
       114.01939999999999,
       62.51650000000001
      ],
      [
       114.0205,
       62.517599999999995
      ],
      [
       114.0256,
       62.5186
      ],
      [
       114.02619999999999,
       62.520100000000006
      ],
      [
       114.0255,
       62.52289999999999
      ],
      [
       114.02199999999999,
       62.523799999999994
      ],
      [
       114.0196,
       62.52419999999999
      ],
      [
       114.0183,
       62.5247
      ],
      [
       114.0169,
       62.525000000000006
      ],
      [
       114.0153,
       62.525000000000006
      ],
      [
       114.014,
       62.5246
      ],
      [
       114.0132,
       62.5243
      ],
      [
       114.0119,
       62.5243
      ],
      [
       114.0124,
       62.525000000000006
      ],
      [
       114.0137,
       62.5257
      ],
      [
       114.01549999999999,
       62.5267
      ],
      [
       114.0153,
       62.5271
      ],
      [
       114.0148,
       62.5271
      ],
      [
       114.0131,
       62.5269
      ],
      [
       114.01169999999999,
       62.526799999999994
      ],
      [
       114.01129999999999,
       62.527300000000004
      ],
      [
       114.0107,
       62.5282
      ],
      [
       114.00999999999999,
       62.52890000000001
      ],
      [
       114.01169999999999,
       62.529999999999994
      ],
      [
       114.0119,
       62.530699999999996
      ],
      [
       114.0114,
       62.531299999999995
      ]
     ]
    ]
   }
  },
  {
   "type": "Feature",
   "properties": {
    "fid": 19091,
    "iso3": "RUS",
    "area_km2": 0.2198
   },
   "geometry": {
    "type": "Polygon",
    "coordinates": [
     [
      [
       114.00479999999999,
       62.52259999999999
      ],
      [
       114.00390000000002,
       62.521899999999995
      ],
      [
       114.00319999999999,
       62.52129999999999
      ],
      [
       114.0029,
       62.52099999999999
      ],
      [
       114.00269999999999,
       62.5207
      ],
      [
       113.99889999999999,
       62.519800000000004
      ],
      [
       113.9951,
       62.5192
      ],
      [
       113.99480000000001,
       62.518299999999996
      ],
      [
       113.99669999999999,
       62.5179
      ],
      [
       113.99849999999999,
       62.517799999999994
      ],
      [
       113.99929999999999,
       62.5181
      ],
      [
       114.00139999999999,
       62.518899999999995
      ],
      [
       114.00489999999999,
       62.517999999999994
      ],
      [
       114.00739999999999,
       62.519800000000004
      ],
      [
       114.01039999999999,
       62.5205
      ],
      [
       114.0106,
       62.521499999999996
      ],
      [
       114.00999999999999,
       62.522499999999994
      ],
      [
       114.0086,
       62.5231
      ],
      [
       114.008,
       62.523199999999996
      ],
      [
       114.00699999999999,
       62.522999999999996
      ],
      [
       114.0058,
       62.52289999999999
      ],
      [
       114.00479999999999,
       62.52259999999999
      ]
     ]
    ]
   }
  },
  {
   "type": "Feature",
   "properties": {
    "fid": 19090,
    "iso3": "RUS",
    "area_km2": 1.2399
   },
   "geometry": {
    "type": "Polygon",
    "coordinates": [
     [
      [
       114.00130000000001,
       62.5331
      ],
      [
       113.99870000000001,
       62.533500000000004
      ],
      [
       113.9969,
       62.533899999999996
      ],
      [
       113.9951,
       62.5342
      ],
      [
       113.9929,
       62.5342
      ],
      [
       113.9892,
       62.5342
      ],
      [
       113.98559999999999,
       62.5333
      ],
      [
       113.9828,
       62.5322
      ],
      [
       113.9814,
       62.5309
      ],
      [
       113.98089999999999,
       62.5293
      ],
      [
       113.981,
       62.52779999999999
      ],
      [
       113.9816,
       62.526599999999995
      ],
      [
       113.9816,
       62.5256
      ],
      [
       113.98219999999999,
       62.5244
      ],
      [
       113.98250000000002,
       62.52359999999999
      ],
      [
       113.9854,
       62.5235
      ],
      [
       113.98809999999999,
       62.5233
      ],
      [
       113.9901,
       62.5231
      ],
      [
       113.9939,
       62.5228
      ],
      [
       113.9962,
       62.523199999999996
      ],
      [
       113.9982,
       62.52359999999999
      ],
      [
       113.9995,
       62.523999999999994
      ],
      [
       114.00099999999999,
       62.5246
      ],
      [
       114.00319999999999,
       62.526
      ],
      [
       114.0038,
       62.527300000000004
      ],
      [
       114.00439999999999,
       62.528099999999995
      ],
      [
       114.0043,
       62.52910000000001
      ],
      [
       114.0037,
       62.529900000000005
      ],
      [
       114.003,
       62.5306
      ],
      [
       114.0025,
       62.5316
      ],
      [
       114.0025,
       62.5322
      ],
      [
       114.00130000000001,
       62.5331
      ]
     ]
    ]
   }
  },
  {
   "type": "Feature",
   "properties": {
    "fid": 19047,
    "iso3": "RUS",
    "area_km2": 0.8799
   },
   "geometry": {
    "type": "Polygon",
    "coordinates": [
     [
      [
       114.0056,
       62.541500000000006
      ],
      [
       114.00179999999999,
       62.542899999999996
      ],
      [
       114.00099999999999,
       62.5424
      ],
      [
       114.0028,
       62.54130000000001
      ],
      [
       114.0021,
       62.54139999999999
      ],
      [
       114.00139999999999,
       62.541500000000006
      ],
      [
       114.00019999999999,
       62.5406
      ],
      [
       113.9995,
       62.540000000000006
      ],
      [
       113.99870000000001,
       62.5397
      ],
      [
       113.9966,
       62.5398
      ],
      [
       113.99589999999999,
       62.5386
      ],
      [
       113.9887,
       62.5393
      ],
      [
       113.9862,
       62.536
      ],
      [
       113.98819999999999,
       62.5357
      ],
      [
       113.9883,
       62.5355
      ],
      [
       113.9878,
       62.534800000000004
      ],
      [
       113.9883,
       62.5345
      ],
      [
       113.99449999999999,
       62.534299999999995
      ],
      [
       113.99589999999999,
       62.534299999999995
      ],
      [
       114.00099999999999,
       62.533500000000004
      ],
      [
       114.0028,
       62.5329
      ],
      [
       114.0105,
       62.53380000000001
      ],
      [
       114.0124,
       62.536100000000005
      ],
      [
       114.01249999999999,
       62.5383
      ],
      [
       114.0111,
       62.5398
      ],
      [
       114.0056,
       62.541500000000006
      ]
     ]
    ]
   }
  },
  {
   "type": "Feature",
   "properties": {
    "fid": 19084,
    "iso3": "RUS",
    "area_km2": 3.7596
   },
   "geometry": {
    "type": "Polygon",
    "coordinates": [
     [
      [
       113.9408,
       62.5695
      ],
      [
       113.92429999999999,
       62.567099999999996
      ],
      [
       113.9148,
       62.558800000000005
      ],
      [
       113.9114,
       62.552899999999994
      ],
      [
       113.9092,
       62.55160000000001
      ],
      [
       113.9088,
       62.550399999999996
      ],
      [
       113.9123,
       62.549299999999995
      ],
      [
       113.91449999999999,
       62.544399999999996
      ],
      [
       113.91279999999999,
       62.540200000000006
      ],
      [
       113.9198,
       62.5358
      ],
      [
       113.9263,
       62.535000000000004
      ],
      [
       113.9344,
       62.5371
      ],
      [
       113.9387,
       62.54269999999999
      ],
      [
       113.93509999999999,
       62.549299999999995
      ],
      [
       113.9323,
       62.555200000000006
      ],
      [
       113.9323,
       62.5579
      ],
      [
       113.9327,
       62.560100000000006
      ],
      [
       113.9365,
       62.562
      ],
      [
       113.93769999999999,
       62.5638
      ],
      [
       113.9387,
       62.56530000000001
      ],
      [
       113.9408,
       62.5695
      ]
     ]
    ]
   }
  },
  {
   "type": "Feature",
   "properties": {
    "fid": 19049,
    "iso3": "RUS",
    "area_km2": 2.7339
   },
   "geometry": {
    "type": "Polygon",
    "coordinates": [
     [
      [
       114.0371,
       62.5445
      ],
      [
       114.03229999999999,
       62.5474
      ],
      [
       114.02959999999999,
       62.5486
      ],
      [
       114.027,
       62.5496
      ],
      [
       114.0259,
       62.550799999999995
      ],
      [
       114.0236,
       62.55149999999999
      ],
      [
       114.0213,
       62.55179999999999
      ],
      [
       114.01989999999999,
       62.552
      ],
      [
       114.0183,
       62.552800000000005
      ],
      [
       114.01639999999999,
       62.552800000000005
      ],
      [
       114.01429999999999,
       62.55309999999999
      ],
      [
       114.0111,
       62.5536
      ],
      [
       114.00829999999999,
       62.553399999999996
      ],
      [
       114.0038,
       62.552899999999994
      ],
      [
       114.0016,
       62.552899999999994
      ],
      [
       114.00330000000001,
       62.55160000000001
      ],
      [
       114.00359999999999,
       62.551
      ],
      [
       114.00139999999999,
       62.5511
      ],
      [
       114.0008,
       62.55160000000001
      ],
      [
       114.00019999999999,
       62.55149999999999
      ],
      [
       113.9996,
       62.551399999999994
      ],
      [
       113.9983,
       62.5499
      ],
      [
       113.9965,
       62.550399999999996
      ],
      [
       113.99539999999999,
       62.5501
      ],
      [
       113.99579999999999,
       62.5497
      ],
      [
       113.9969,
       62.54919999999999
      ],
      [
       113.997,
       62.5484
      ],
      [
       113.99669999999999,
       62.546899999999994
      ],
      [
       113.99539999999999,
       62.54559999999999
      ],
      [
       114.00609999999999,
       62.54139999999999
      ],
      [
       114.01119999999999,
       62.5399
      ],
      [
       114.0131,
       62.53879999999999
      ],
      [
       114.0131,
       62.536
      ],
      [
       114.0189,
       62.53510000000001
      ],
      [
       114.02919999999999,
       62.536899999999996
      ],
      [
       114.0294,
       62.53809999999999
      ],
      [
       114.033,
       62.5395
      ],
      [
       114.03519999999999,
       62.5409
      ],
      [
       114.0371,
       62.5445
      ]
     ]
    ]
   }
  },
  {
   "type": "Feature",
   "properties": {
    "fid": 19065,
    "iso3": "RUS",
    "area_km2": 1.1084
   },
   "geometry": {
    "type": "Polygon",
    "coordinates": [
     [
      [
       114.09729999999999,
       62.5509
      ],
      [
       114.1081,
       62.5546
      ],
      [
       114.1077,
       62.555299999999995
      ],
      [
       114.10329999999999,
       62.5547
      ],
      [
       114.082,
       62.547999999999995
      ],
      [
       114.0822,
       62.546899999999994
      ],
      [
       114.0745,
       62.54429999999999
      ],
      [
       114.0625,
       62.540000000000006
      ],
      [
       114.051,
       62.5371
      ],
      [
       114.0534,
       62.535599999999995
      ],
      [
       114.06009999999999,
       62.5371
      ],
      [
       114.06469999999999,
       62.53790000000001
      ],
      [
       114.07929999999999,
       62.5421
      ],
      [
       114.0855,
       62.544399999999996
      ],
      [
       114.08699999999999,
       62.543800000000005
      ],
      [
       114.08539999999999,
       62.542899999999996
      ],
      [
       114.08699999999999,
       62.5423
      ],
      [
       114.0906,
       62.543099999999995
      ],
      [
       114.0885,
       62.545100000000005
      ],
      [
       114.10069999999999,
       62.548700000000004
      ],
      [
       114.09729999999999,
       62.5509
      ]
     ]
    ]
   }
  },
  {
   "type": "Feature",
   "properties": {
    "fid": 19066,
    "iso3": "RUS",
    "area_km2": 4.8429
   },
   "geometry": {
    "type": "Polygon",
    "coordinates": [
     [
      [
       114.1229,
       62.5711
      ],
      [
       114.1267,
       62.571999999999996
      ],
      [
       114.1301,
       62.573299999999996
      ],
      [
       114.1325,
       62.5747
      ],
      [
       114.1325,
       62.5774
      ],
      [
       114.131,
       62.5796
      ],
      [
       114.1304,
       62.5819
      ],
      [
       114.12729999999999,
       62.5826
      ],
      [
       114.1212,
       62.583099999999995
      ],
      [
       114.11479999999999,
       62.58410000000001
      ],
      [
       114.11189999999999,
       62.5847
      ],
      [
       114.109,
       62.5858
      ],
      [
       114.1061,
       62.58709999999999
      ],
      [
       114.091,
       62.5876
      ],
      [
       114.08919999999999,
       62.5863
      ],
      [
       114.091,
       62.584
      ],
      [
       114.0937,
       62.5821
      ],
      [
       114.08699999999999,
       62.5785
      ],
      [
       114.0825,
       62.577099999999994
      ],
      [
       114.0741,
       62.575399999999995
      ],
      [
       114.0692,
       62.57419999999999
      ],
      [
       114.065,
       62.5734
      ],
      [
       114.06009999999999,
       62.572700000000005
      ],
      [
       114.0587,
       62.57170000000001
      ],
      [
       114.0604,
       62.5699
      ],
      [
       114.06309999999999,
       62.5684
      ],
      [
       114.06609999999999,
       62.56699999999999
      ],
      [
       114.0702,
       62.5669
      ],
      [
       114.0731,
       62.5662
      ],
      [
       114.07589999999999,
       62.566500000000005
      ],
      [
       114.07669999999999,
       62.5684
      ],
      [
       114.0774,
       62.569599999999994
      ],
      [
       114.0795,
       62.570699999999995
      ],
      [
       114.0855,
       62.5712
      ],
      [
       114.0906,
       62.57129999999999
      ],
      [
       114.0946,
       62.5712
      ],
      [
       114.0983,
       62.571
      ],
      [
       114.1014,
       62.570699999999995
      ],
      [
       114.0985,
       62.5688
      ],
      [
       114.09779999999999,
       62.56669999999999
      ],
      [
       114.1018,
       62.565799999999996
      ],
      [
       114.10499999999999,
       62.56569999999999
      ],
      [
       114.10879999999999,
       62.5659
      ],
      [
       114.11189999999999,
       62.567299999999996
      ],
      [
       114.1134,
       62.5685
      ],
      [
       114.1184,
       62.57040000000001
      ],
      [
       114.1229,
       62.5711
      ]
     ]
    ]
   }
  },
  {
   "type": "Feature",
   "properties": {
    "fid": 19045,
    "iso3": "RUS",
    "area_km2": 0.0751
   },
   "geometry": {
    "type": "Polygon",
    "coordinates": [
     [
      [
       113.939,
       62.5848
      ],
      [
       113.94189999999999,
       62.5845
      ],
      [
       113.9443,
       62.58670000000001
      ],
      [
       113.9408,
       62.586999999999996
      ],
      [
       113.9408,
       62.587700000000005
      ],
      [
       113.9388,
       62.587999999999994
      ],
      [
       113.9375,
       62.587700000000005
      ],
      [
       113.93719999999999,
       62.58709999999999
      ],
      [
       113.93759999999999,
       62.586400000000005
      ],
      [
       113.9395,
       62.5863
      ],
      [
       113.939,
       62.5848
      ]
     ]
    ]
   }
  },
  {
   "type": "Feature",
   "properties": {
    "fid": 34392,
    "iso3": "RUS",
    "area_km2": 25.0892
   },
   "geometry": {
    "type": "Polygon",
    "coordinates": [
     [
      [
       114.23017499999999,
       62.483067
      ],
      [
       114.223309,
       62.48068800000001
      ],
      [
       114.219189,
       62.477832
      ],
      [
       114.223137,
       62.47680099999999
      ],
      [
       114.225197,
       62.47561100000001
      ],
      [
       114.228115,
       62.472438000000004
      ],
      [
       114.227943,
       62.470454
      ],
      [
       114.22742799999999,
       62.467915
      ],
      [
       114.227257,
       62.465773
      ],
      [
       114.223652,
       62.463153999999996
      ],
      [
       114.215069,
       62.463947000000005
      ],
      [
       114.20391099999999,
       62.464741000000004
      ],
      [
       114.19807399999999,
       62.466169
      ],
      [
       114.191895,
       62.46728
      ],
      [
       114.18417,
       62.46736
      ],
      [
       114.180393,
       62.464979
      ],
      [
       114.17421300000001,
       62.464186
      ],
      [
       114.168205,
       62.464979
      ],
      [
       114.16597399999999,
       62.467042000000006
      ],
      [
       114.16494399999999,
       62.468391
      ],
      [
       114.162712,
       62.469342999999995
      ],
      [
       114.15945099999999,
       62.466804
      ],
      [
       114.153442,
       62.466486999999994
      ],
      [
       114.146576,
       62.468074
      ],
      [
       114.140568,
       62.469263999999995
      ],
      [
       114.137478,
       62.471089
      ],
      [
       114.13473099999999,
       62.47394499999999
      ],
      [
       114.135075,
       62.47632499999999
      ],
      [
       114.13576099999999,
       62.481243
      ],
      [
       114.133873,
       62.484018999999996
      ],
      [
       114.129066,
       62.486239
      ],
      [
       114.123573,
       62.488142
      ],
      [
       114.114132,
       62.489094
      ],
      [
       114.108639,
       62.488856
      ],
      [
       114.10263099999999,
       62.487666999999995
      ],
      [
       114.09816699999999,
       62.48727
      ],
      [
       114.09696600000001,
       62.488856
      ],
      [
       114.096794,
       62.49123499999999
      ],
      [
       114.09610699999999,
       62.492979000000005
      ],
      [
       114.09336100000002,
       62.49496099999999
      ],
      [
       114.08958399999999,
       62.496309000000004
      ],
      [
       114.084435,
       62.49726
      ],
      [
       114.078941,
       62.497181000000005
      ],
      [
       114.073963,
       62.49623
      ],
      [
       114.067268,
       62.49512
      ],
      [
       114.061432,
       62.49361299999999
      ],
      [
       114.054909,
       62.494248
      ],
      [
       114.050102,
       62.496466999999996
      ],
      [
       114.049759,
       62.499004
      ],
      [
       114.051304,
       62.500906
      ],
      [
       114.056282,
       62.502174999999994
      ],
      [
       114.060574,
       62.504156
      ],
      [
       114.06125999999999,
       62.506454000000005
      ],
      [
       114.05988699999999,
       62.507801
      ],
      [
       114.057655,
       62.507801
      ],
      [
       114.05301999999999,
       62.50819800000001
      ],
      [
       114.048214,
       62.507960000000004
      ],
      [
       114.044609,
       62.506533
      ],
      [
       114.040661,
       62.506215999999995
      ],
      [
       114.03877299999999,
       62.507721999999994
      ],
      [
       114.03413800000001,
       62.507721999999994
      ],
      [
       114.02538299999999,
       62.507009
      ],
      [
       114.018002,
       62.507484000000005
      ],
      [
       114.01714299999999,
       62.505899
      ],
      [
       114.016972,
       62.50471100000001
      ],
      [
       114.01542699999999,
       62.503046000000005
      ],
      [
       114.01336699999999,
       62.501222999999996
      ],
      [
       114.013195,
       62.499083000000006
      ],
      [
       114.014568,
       62.495912
      ],
      [
       114.01714299999999,
       62.494248
      ],
      [
       114.02538299999999,
       62.492740999999995
      ],
      [
       114.04787100000001,
       62.49075899999999
      ],
      [
       114.057999,
       62.489172999999994
      ],
      [
       114.06675299999999,
       62.48838
      ],
      [
       114.07361999999999,
       62.48695300000001
      ],
      [
       114.083233,
       62.48425699999999
      ],
      [
       114.085293,
       62.482195
      ],
      [
       114.088726,
       62.479419
      ],
      [
       114.09250300000001,
       62.478784
      ],
      [
       114.096622,
       62.478943
      ],
      [
       114.102459,
       62.480608
      ],
      [
       114.10469099999999,
       62.482670999999996
      ],
      [
       114.11327399999999,
       62.484176999999995
      ],
      [
       114.11636399999999,
       62.483146000000005
      ],
      [
       114.117565,
       62.481480999999995
      ],
      [
       114.117565,
       62.477911999999996
      ],
      [
       114.117565,
       62.474104000000004
      ],
      [
       114.11842299999999,
       62.47021599999999
      ],
      [
       114.119625,
       62.46728
      ],
      [
       114.122028,
       62.464503
      ],
      [
       114.126835,
       62.460693
      ],
      [
       114.13318600000001,
       62.457995
      ],
      [
       114.14400099999999,
       62.457041999999994
      ],
      [
       114.15670399999999,
       62.455771999999996
      ],
      [
       114.16116699999999,
       62.45585200000001
      ],
      [
       114.167862,
       62.45585200000001
      ],
      [
       114.177647,
       62.454502
      ],
      [
       114.19601399999999,
       62.452597
      ],
      [
       114.198933,
       62.453708
      ],
      [
       114.20150799999999,
       62.454978
      ],
      [
       114.203739,
       62.456407
      ],
      [
       114.204426,
       62.458074
      ],
      [
       114.205799,
       62.459661999999994
      ],
      [
       114.216957,
       62.46093200000001
      ],
      [
       114.22863,
       62.460376
      ],
      [
       114.24305000000001,
       62.459027000000006
      ],
      [
       114.25077399999999,
       62.457280000000004
      ],
      [
       114.24699799999999,
       62.454899000000005
      ],
      [
       114.24734099999999,
       62.45172299999999
      ],
      [
       114.255409,
       62.450452999999996
      ],
      [
       114.259872,
       62.45124699999999
      ],
      [
       114.263477,
       62.451961999999995
      ],
      [
       114.270344,
       62.452437999999994
      ],
      [
       114.277554,
       62.451961999999995
      ],
      [
       114.28854000000001,
       62.451803
      ],
      [
       114.303989,
       62.450691000000006
      ],
      [
       114.314461,
       62.451485000000005
      ],
      [
       114.32149899999999,
       62.45347
      ],
      [
       114.33334400000001,
       62.45553399999999
      ],
      [
       114.33282899999999,
       62.460851999999996
      ],
      [
       114.330254,
       62.462756999999996
      ],
      [
       114.32579,
       62.464741000000004
      ],
      [
       114.316177,
       62.466328000000004
      ],
      [
       114.308281,
       62.467598
      ],
      [
       114.305363,
       62.467042000000006
      ],
      [
       114.301414,
       62.46736
      ],
      [
       114.29317499999999,
       62.467915
      ],
      [
       114.28802499999999,
       62.467200999999996
      ],
      [
       114.2803,
       62.46855
      ],
      [
       114.273949,
       62.469739999999994
      ],
      [
       114.266224,
       62.471723999999995
      ],
      [
       114.26605199999999,
       62.475294
      ],
      [
       114.245796,
       62.477991
      ],
      [
       114.24202,
       62.476245999999996
      ],
      [
       114.23944499999999,
       62.47537299999999
      ],
      [
       114.235497,
       62.475452
      ],
      [
       114.233437,
       62.477515000000004
      ],
      [
       114.235153,
       62.481480999999995
      ],
      [
       114.23017499999999,
       62.483067
      ]
     ]
    ]
   }
  }
 ],
 "license": "CC-BY-SA-4.0",
 "attribution": "Maus et al. 2022 (doi:10.1594/PANGAEA.942325)"
}
