{
 "type": "FeatureCollection",
 "features": [
  {
   "type": "Feature",
   "properties": {
    "fid": 40499,
    "iso3": "USA",
    "area_km2": 0.0409
   },
   "geometry": {
    "type": "Polygon",
    "coordinates": [
     [
      [
       -112.262034,
       40.54207200000001
      ],
      [
       -112.262067,
       40.541567
      ],
      [
       -112.26309099999999,
       40.541509999999995
      ],
      [
       -112.264341,
       40.541477000000015
      ],
      [
       -112.26449699999999,
       40.541134
      ],
      [
       -112.264631,
       40.541337999999996
      ],
      [
       -112.26481299999999,
       40.541382999999996
      ],
      [
       -112.26492599999999,
       40.54130199999999
      ],
      [
       -112.26455,
       40.540935
      ],
      [
       -112.264668,
       40.540628999999996
      ],
      [
       -112.259948,
       40.54064899999999
      ],
      [
       -112.259856,
       40.540971
      ],
      [
       -112.260082,
       40.541151
      ],
      [
       -112.26097200000001,
       40.541329999999995
      ],
      [
       -112.261181,
       40.54147700000001
      ],
      [
       -112.260983,
       40.541990999999996
      ],
      [
       -112.26106899999999,
       40.542140999999994
      ],
      [
       -112.262034,
       40.54207200000001
      ]
     ]
    ]
   }
  },
  {
   "type": "Feature",
   "properties": {
    "fid": 16146,
    "iso3": "USA",
    "area_km2": 42.859
   },
   "geometry": {
    "type": "Polygon",
    "coordinates": [
     [
      [
       -112.15169999999999,
       40.553999999999995
      ],
      [
       -112.16709999999999,
       40.5498
      ],
      [
       -112.16579999999999,
       40.5447
      ],
      [
       -112.178,
       40.5419
      ],
      [
       -112.17320000000001,
       40.53300000000001
      ],
      [
       -112.1762,
       40.5235
      ],
      [
       -112.1771,
       40.506899999999995
      ],
      [
       -112.15939999999999,
       40.501
      ],
      [
       -112.13159999999999,
       40.492999999999995
      ],
      [
       -112.1189,
       40.493600000000015
      ],
      [
       -112.1112,
       40.5074
      ],
      [
       -112.1004,
       40.5177
      ],
      [
       -112.0932,
       40.5163
      ],
      [
       -112.09349999999999,
       40.53859999999999
      ],
      [
       -112.09920000000001,
       40.5392
      ],
      [
       -112.1052,
       40.5505
      ],
      [
       -112.112,
       40.5606
      ],
      [
       -112.1259,
       40.5644
      ],
      [
       -112.1383,
       40.5704
      ],
      [
       -112.1481,
       40.572
      ],
      [
       -112.1527,
       40.5709
      ],
      [
       -112.1531,
       40.561299999999996
      ],
      [
       -112.1488,
       40.55950000000001
      ],
      [
       -112.15169999999999,
       40.553999999999995
      ]
     ]
    ]
   }
  },
  {
   "type": "Feature",
   "properties": {
    "fid": 16043,
    "iso3": "USA",
    "area_km2": 1.3815
   },
   "geometry": {
    "type": "Polygon",
    "coordinates": [
     [
      [
       -112.15849999999999,
       40.589999999999996
      ],
      [
       -112.1628,
       40.58659999999999
      ],
      [
       -112.1623,
       40.5801
      ],
      [
       -112.1591,
       40.577
      ],
      [
       -112.1535,
       40.5742
      ],
      [
       -112.14819999999999,
       40.5774
      ],
      [
       -112.151,
       40.58
      ],
      [
       -112.1544,
       40.5807
      ],
      [
       -112.1505,
       40.5826
      ],
      [
       -112.1519,
       40.586
      ],
      [
       -112.1545,
       40.5911
      ],
      [
       -112.15849999999999,
       40.589999999999996
      ]
     ]
    ]
   }
  },
  {
   "type": "Feature",
   "properties": {
    "fid": 16045,
    "iso3": "USA",
    "area_km2": 0.3548
   },
   "geometry": {
    "type": "Polygon",
    "coordinates": [
     [
      [
       -112.1388,
       40.59910000000001
      ],
      [
       -112.1382,
       40.5943
      ],
      [
       -112.1334,
       40.5935
      ],
      [
       -112.1305,
       40.5956
      ],
      [
       -112.1339,
       40.6001
      ],
      [
       -112.1388,
       40.59910000000001
      ]
     ]
    ]
   }
  },
  {
   "type": "Feature",
   "properties": {
    "fid": 16169,
    "iso3": "USA",
    "area_km2": 2.4033
   },
   "geometry": {
    "type": "Polygon",
    "coordinates": [
     [
      [
       -112.1224,
       40.605799999999995
      ],
      [
       -112.1253,
       40.6049
      ],
      [
       -112.12689999999999,
       40.6014
      ],
      [
       -112.1242,
       40.599
      ],
      [
       -112.1174,
       40.59740000000001
      ],
      [
       -112.1053,
       40.595
      ],
      [
       -112.0973,
       40.5956
      ],
      [
       -112.09909999999999,
       40.6061
      ],
      [
       -112.1224,
       40.605799999999995
      ]
     ]
    ]
   }
  },
  {
   "type": "Feature",
   "properties": {
    "fid": 16160,
    "iso3": "USA",
    "area_km2": 1.1349
   },
   "geometry": {
    "type": "Polygon",
    "coordinates": [
     [
      [
       -112.09460000000001,
       40.587799999999994
      ],
      [
       -112.1026,
       40.586
      ],
      [
       -112.106,
       40.584500000000006
      ],
      [
       -112.10879999999999,
       40.5837
      ],
      [
       -112.1133,
       40.5841
      ],
      [
       -112.1135,
       40.58299999999999
      ],
      [
       -112.1057,
       40.5798
      ],
      [
       -112.09809999999999,
       40.5805
      ],
      [
       -112.0911,
       40.58220000000001
      ],
      [
       -112.088,
       40.5864
      ],
      [
       -112.0902,
       40.588699999999996
      ],
      [
       -112.09460000000001,
       40.587799999999994
      ]
     ]
    ]
   }
  },
  {
   "type": "Feature",
   "properties": {
    "fid": 16149,
    "iso3": "USA",
    "area_km2": 0.4943
   },
   "geometry": {
    "type": "Polygon",
    "coordinates": [
     [
      [
       -112.0702,
       40.5743
      ],
      [
       -112.07369999999999,
       40.57280000000001
      ],
      [
       -112.0773,
       40.573699999999995
      ],
      [
       -112.07969999999999,
       40.573499999999996
      ],
      [
       -112.0812,
       40.5723
      ],
      [
       -112.0817,
       40.5708
      ],
      [
       -112.0816,
       40.5687
      ],
      [
       -112.0817,
       40.5668
      ],
      [
       -112.07719999999999,
       40.5685
      ],
      [
       -112.0666,
       40.5736
      ],
      [
       -112.0681,
       40.5746
      ],
      [
       -112.0702,
       40.5743
      ]
     ]
    ]
   }
  },
  {
   "type": "Feature",
   "properties": {
    "fid": 40504,
    "iso3": "USA",
    "area_km2": 0.2279
   },
   "geometry": {
    "type": "Polygon",
    "coordinates": [
     [
      [
       -112.065933,
       40.600586
      ],
      [
       -112.066716,
       40.600342
      ],
      [
       -112.067403,
       40.600187
      ],
      [
       -112.068669,
       40.600065
      ],
      [
       -112.06929099999999,
       40.600016
      ],
      [
       -112.070267,
       40.600049
      ],
      [
       -112.07052499999999,
       40.60028499999999
      ],
      [
       -112.07120099999999,
       40.600317
      ],
      [
       -112.071608,
       40.600072999999995
      ],
      [
       -112.072059,
       40.59969000000001
      ],
      [
       -112.07266999999999,
       40.599633
      ],
      [
       -112.072746,
       40.598664
      ],
      [
       -112.072177,
       40.59780000000001
      ],
      [
       -112.07091100000001,
       40.59763699999999
      ],
      [
       -112.070053,
       40.597482
      ],
      [
       -112.069935,
       40.597621
      ],
      [
       -112.06900100000001,
       40.597409000000006
      ],
      [
       -112.068315,
       40.597654
      ],
      [
       -112.06779999999999,
       40.597735
      ],
      [
       -112.066941,
       40.59793000000001
      ],
      [
       -112.066212,
       40.597621
      ],
      [
       -112.06549299999999,
       40.597156999999996
      ],
      [
       -112.06456999999999,
       40.597026
      ],
      [
       -112.06389399999999,
       40.597246
      ],
      [
       -112.063358,
       40.59758
      ],
      [
       -112.063347,
       40.59800399999998
      ],
      [
       -112.063615,
       40.598191
      ],
      [
       -112.06378699999999,
       40.598558
      ],
      [
       -112.063755,
       40.598949
      ],
      [
       -112.063476,
       40.59934
      ],
      [
       -112.063487,
       40.599772
      ],
      [
       -112.063841,
       40.599951
      ],
      [
       -112.06423799999999,
       40.600643
      ],
      [
       -112.064527,
       40.600773999999994
      ],
      [
       -112.065343,
       40.600562
      ],
      [
       -112.065933,
       40.600586
      ]
     ]
    ]
   }
  },
  {
   "type": "Feature",
   "properties": {
    "fid": 40500,
    "iso3": "USA",
    "area_km2": 0.4551
   },
   "geometry": {
    "type": "Polygon",
    "coordinates": [
     [
      [
       -112.059603,
       40.614018
      ],
      [
       -112.060268,
       40.613627
      ],
      [
       -112.06082599999999,
       40.613219
      ],
      [
       -112.061856,
       40.613186999999996
      ],
      [
       -112.062542,
       40.61335
      ],
      [
       -112.063143,
       40.61160700000001
      ],
      [
       -112.06400199999999,
       40.61142799999999
      ],
      [
       -112.06455899999999,
       40.611623
      ],
      [
       -112.06539599999999,
       40.61160700000001
      ],
      [
       -112.065547,
       40.612111999999996
      ],
      [
       -112.066276,
       40.61235600000001
      ],
      [
       -112.06700599999999,
       40.612454
      ],
      [
       -112.067628,
       40.61206299999999
      ],
      [
       -112.068765,
       40.61170500000001
      ],
      [
       -112.070546,
       40.611475999999996
      ],
      [
       -112.071469,
       40.610613
      ],
      [
       -112.069452,
       40.609994
      ],
      [
       -112.06857199999999,
       40.609488999999996
      ],
      [
       -112.067757,
       40.608838
      ],
      [
       -112.06309999999999,
       40.608675
      ],
      [
       -112.060096,
       40.60917999999998
      ],
      [
       -112.058809,
       40.608918999999986
      ],
      [
       -112.058852,
       40.609571
      ],
      [
       -112.058573,
       40.609652
      ],
      [
       -112.055762,
       40.609424
      ],
      [
       -112.05565500000002,
       40.61181899999998
      ],
      [
       -112.057886,
       40.612079
      ],
      [
       -112.05805799999999,
       40.612975
      ],
      [
       -112.058594,
       40.613935999999995
      ],
      [
       -112.059603,
       40.614018
      ]
     ]
    ]
   }
  },
  {
   "type": "Feature",
   "properties": {
    "fid": 40496,
    "iso3": "USA",
    "area_km2": 0.202
   },
   "geometry": {
    "type": "Polygon",
    "coordinates": [
     [
      [
       -112.03571,
       40.559134
      ],
      [
       -112.03874599999999,
       40.558067
      ],
      [
       -112.03922899999999,
       40.55801
      ],
      [
       -112.03953999999999,
       40.557765
      ],
      [
       -112.041128,
       40.557193999999996
      ],
      [
       -112.04252199999999,
       40.556273
      ],
      [
       -112.04412099999999,
       40.555434
      ],
      [
       -112.04389599999999,
       40.555181
      ],
      [
       -112.042447,
       40.555295
      ],
      [
       -112.04146,
       40.55514
      ],
      [
       -112.035913,
       40.555181
      ],
      [
       -112.035559,
       40.555409000000004
      ],
      [
       -112.03509799999999,
       40.555915
      ],
      [
       -112.03475499999999,
       40.556135
      ],
      [
       -112.034841,
       40.556354999999996
      ],
      [
       -112.035055,
       40.556396
      ],
      [
       -112.03533399999999,
       40.556729999999995
      ],
      [
       -112.03554899999999,
       40.556795
      ],
      [
       -112.035409,
       40.55719399999998
      ],
      [
       -112.03509799999999,
       40.557806
      ],
      [
       -112.035356,
       40.55805
      ],
      [
       -112.035152,
       40.558530999999995
      ],
      [
       -112.034948,
       40.558817000000005
      ],
      [
       -112.035173,
       40.559118
      ],
      [
       -112.034379,
       40.559379
      ],
      [
       -112.034476,
       40.559492999999996
      ],
      [
       -112.03571,
       40.559134
      ]
     ]
    ]
   }
  }
 ],
 "license": "CC-BY-SA-4.0",
 "attribution": "Maus et al. 2022 (doi:10.1594/PANGAEA.942325)"
}
