{
 "type": "FeatureCollection",
 "features": [
  {
   "type": "Feature",
   "properties": {
    "fid": 3422,
    "iso3": "PER",
    "area_km2": 40.5381
   },
   "geometry": {
    "type": "Polygon",
    "coordinates": [
     [
      [
       -71.5821,
       -16.5608
      ],
      [
       -71.58019999999999,
       -16.5608
      ],
      [
       -71.57759999999999,
       -16.5608
      ],
      [
       -71.5753,
       -16.5613
      ],
      [
       -71.5728,
       -16.5613
      ],
      [
       -71.571,
       -16.5602
      ],
      [
       -71.569,
       -16.55899999999999
      ],
      [
       -71.56649999999999,
       -16.5585
      ],
      [
       -71.56309999999999,
       -16.5583
      ],
      [
       -71.56009999999999,
       -16.5584
      ],
      [
       -71.5585,
       -16.5585
      ],
      [
       -71.5574,
       -16.556
      ],
      [
       -71.5574,
       -16.5525
      ],
      [
       -71.55830000000002,
       -16.5488
      ],
      [
       -71.55830000000002,
       -16.545499999999997
      ],
      [
       -71.5576,
       -16.5424
      ],
      [
       -71.5566,
       -16.5408
      ],
      [
       -71.55449999999999,
       -16.539999999999996
      ],
      [
       -71.55310000000001,
       -16.540299999999995
      ],
      [
       -71.55109999999999,
       -16.5398
      ],
      [
       -71.5501,
       -16.537799999999994
      ],
      [
       -71.55109999999999,
       -16.5348
      ],
      [
       -71.554,
       -16.532300000000006
      ],
      [
       -71.5576,
       -16.5295
      ],
      [
       -71.55830000000002,
       -16.5275
      ],
      [
       -71.5598,
       -16.52519999999999
      ],
      [
       -71.5607,
       -16.5235
      ],
      [
       -71.5617,
       -16.5209
      ],
      [
       -71.5641,
       -16.5197
      ],
      [
       -71.5677,
       -16.519900000000007
      ],
      [
       -71.57,
       -16.5209
      ],
      [
       -71.5728,
       -16.5207
      ],
      [
       -71.57419999999999,
       -16.5197
      ],
      [
       -71.57780000000001,
       -16.5195
      ],
      [
       -71.5803,
       -16.51769999999999
      ],
      [
       -71.577,
       -16.5165
      ],
      [
       -71.57379999999999,
       -16.5141
      ],
      [
       -71.5713,
       -16.512599999999992
      ],
      [
       -71.5705,
       -16.5106
      ],
      [
       -71.5716,
       -16.5094
      ],
      [
       -71.5771,
       -16.5081
      ],
      [
       -71.58149999999999,
       -16.5083
      ],
      [
       -71.5844,
       -16.508399999999998
      ],
      [
       -71.5837,
       -16.5068
      ],
      [
       -71.5838,
       -16.5043
      ],
      [
       -71.5843,
       -16.5024
      ],
      [
       -71.5874,
       -16.5
      ],
      [
       -71.5921,
       -16.498300000000008
      ],
      [
       -71.5942,
       -16.4967
      ],
      [
       -71.5979,
       -16.4927
      ],
      [
       -71.6004,
       -16.4905
      ],
      [
       -71.6043,
       -16.4898
      ],
      [
       -71.6082,
       -16.4883
      ],
      [
       -71.6109,
       -16.4851
      ],
      [
       -71.61399999999999,
       -16.4817
      ],
      [
       -71.6164,
       -16.478600000000007
      ],
      [
       -71.6181,
       -16.47489999999999
      ],
      [
       -71.6198,
       -16.4726
      ],
      [
       -71.62169999999999,
       -16.4726
      ],
      [
       -71.6204,
       -16.474899999999998
      ],
      [
       -71.61919999999999,
       -16.4778
      ],
      [
       -71.6182,
       -16.480000000000008
      ],
      [
       -71.61659999999999,
       -16.4815
      ],
      [
       -71.6151,
       -16.483299999999996
      ],
      [
       -71.61229999999999,
       -16.4864
      ],
      [
       -71.6122,
       -16.488799999999998
      ],
      [
       -71.6133,
       -16.490199999999998
      ],
      [
       -71.6146,
       -16.492200000000004
      ],
      [
       -71.61529999999999,
       -16.4935
      ],
      [
       -71.6159,
       -16.495499999999996
      ],
      [
       -71.6169,
       -16.4986
      ],
      [
       -71.6169,
       -16.5006
      ],
      [
       -71.6169,
       -16.5028
      ],
      [
       -71.6177,
       -16.5068
      ],
      [
       -71.6176,
       -16.508800000000008
      ],
      [
       -71.6168,
       -16.510199999999998
      ],
      [
       -71.6152,
       -16.511599999999998
      ],
      [
       -71.61399999999999,
       -16.512399999999992
      ],
      [
       -71.612,
       -16.51449999999999
      ],
      [
       -71.61149999999999,
       -16.516
      ],
      [
       -71.61229999999999,
       -16.516299999999998
      ],
      [
       -71.61449999999999,
       -16.5159
      ],
      [
       -71.6171,
       -16.515300000000007
      ],
      [
       -71.6199,
       -16.516199999999998
      ],
      [
       -71.62219999999999,
       -16.517599999999998
      ],
      [
       -71.624,
       -16.519199999999998
      ],
      [
       -71.6252,
       -16.522
      ],
      [
       -71.6229,
       -16.527699999999996
      ],
      [
       -71.6225,
       -16.5316
      ],
      [
       -71.6215,
       -16.5334
      ],
      [
       -71.6204,
       -16.5358
      ],
      [
       -71.6198,
       -16.5388
      ],
      [
       -71.6188,
       -16.540399999999998
      ],
      [
       -71.6171,
       -16.542300000000004
      ],
      [
       -71.6158,
       -16.5439
      ],
      [
       -71.61319999999999,
       -16.5446
      ],
      [
       -71.6117,
       -16.5462
      ],
      [
       -71.6117,
       -16.5485
      ],
      [
       -71.6097,
       -16.5502
      ],
      [
       -71.6061,
       -16.551299999999998
      ],
      [
       -71.60549999999999,
       -16.5522
      ],
      [
       -71.60459999999999,
       -16.552899999999998
      ],
      [
       -71.6007,
       -16.553
      ],
      [
       -71.5988,
       -16.5523
      ],
      [
       -71.5972,
       -16.552699999999998
      ],
      [
       -71.5945,
       -16.5538
      ],
      [
       -71.5938,
       -16.5545
      ],
      [
       -71.59389999999999,
       -16.556299999999993
      ],
      [
       -71.5945,
       -16.5585
      ],
      [
       -71.5945,
       -16.5599
      ],
      [
       -71.5947,
       -16.5611
      ],
      [
       -71.5954,
       -16.562299999999993
      ],
      [
       -71.5972,
       -16.5626
      ],
      [
       -71.59819999999999,
       -16.5629
      ],
      [
       -71.5994,
       -16.56339999999999
      ],
      [
       -71.59920000000001,
       -16.5644
      ],
      [
       -71.5985,
       -16.5655
      ],
      [
       -71.5974,
       -16.567000000000007
      ],
      [
       -71.5954,
       -16.5681
      ],
      [
       -71.5942,
       -16.5686
      ],
      [
       -71.5933,
       -16.5689
      ],
      [
       -71.5916,
       -16.569500000000005
      ],
      [
       -71.5906,
       -16.5698
      ],
      [
       -71.5891,
       -16.570100000000007
      ],
      [
       -71.5887,
       -16.5701
      ],
      [
       -71.5882,
       -16.5702
      ],
      [
       -71.5874,
       -16.57
      ],
      [
       -71.5864,
       -16.569199999999995
      ],
      [
       -71.58579999999999,
       -16.568199999999994
      ],
      [
       -71.5856,
       -16.5672
      ],
      [
       -71.58579999999999,
       -16.565799999999992
      ],
      [
       -71.5856,
       -16.5645
      ],
      [
       -71.5852,
       -16.5627
      ],
      [
       -71.5848,
       -16.561899999999998
      ],
      [
       -71.5837,
       -16.5613
      ],
      [
       -71.5821,
       -16.5608
      ]
     ]
    ]
   }
  },
  {
   "type": "Feature",
   "properties": {
    "fid": 3397,
    "iso3": "PER",
    "area_km2": 7.6474
   },
   "geometry": {
    "type": "Polygon",
    "coordinates": [
     [
      [
       -71.6021,
       -16.5984
      ],
      [
       -71.606,
       -16.5984
      ],
      [
       -71.60889999999999,
       -16.5995
      ],
      [
       -71.60929999999999,
       -16.602899999999998
      ],
      [
       -71.6074,
       -16.60439999999999
      ],
      [
       -71.6073,
       -16.606400000000004
      ],
      [
       -71.6096,
       -16.6095
      ],
      [
       -71.6108,
       -16.611400000000007
      ],
      [
       -71.6109,
       -16.6135
      ],
      [
       -71.6101,
       -16.615299999999998
      ],
      [
       -71.6091,
       -16.6174
      ],
      [
       -71.6081,
       -16.618299999999998
      ],
      [
       -71.60589999999999,
       -16.61839999999999
      ],
      [
       -71.6023,
       -16.6174
      ],
      [
       -71.59949999999999,
       -16.6164
      ],
      [
       -71.597,
       -16.615099999999998
      ],
      [
       -71.59349999999999,
       -16.6135
      ],
      [
       -71.5908,
       -16.6142
      ],
      [
       -71.5881,
       -16.610699999999998
      ],
      [
       -71.5878,
       -16.609299999999998
      ],
      [
       -71.5868,
       -16.607900000000008
      ],
      [
       -71.5842,
       -16.6073
      ],
      [
       -71.5803,
       -16.6063
      ],
      [
       -71.579,
       -16.6071
      ],
      [
       -71.5777,
       -16.6082
      ],
      [
       -71.5766,
       -16.6094
      ],
      [
       -71.57469999999999,
       -16.609099999999998
      ],
      [
       -71.5744,
       -16.6069
      ],
      [
       -71.57520000000001,
       -16.6049
      ],
      [
       -71.5737,
       -16.6043
      ],
      [
       -71.5744,
       -16.602
      ],
      [
       -71.5769,
       -16.602
      ],
      [
       -71.57939999999999,
       -16.6019
      ],
      [
       -71.5816,
       -16.6018
      ],
      [
       -71.5822,
       -16.6012
      ],
      [
       -71.5831,
       -16.5997
      ],
      [
       -71.5839,
       -16.598200000000002
      ],
      [
       -71.5833,
       -16.5961
      ],
      [
       -71.58019999999999,
       -16.595799999999993
      ],
      [
       -71.5756,
       -16.596000000000004
      ],
      [
       -71.574,
       -16.5956
      ],
      [
       -71.57469999999999,
       -16.5928
      ],
      [
       -71.5771,
       -16.5918
      ],
      [
       -71.5775,
       -16.5892
      ],
      [
       -71.57589999999999,
       -16.5876
      ],
      [
       -71.574,
       -16.5853
      ],
      [
       -71.5727,
       -16.583099999999998
      ],
      [
       -71.5709,
       -16.581
      ],
      [
       -71.5716,
       -16.5794
      ],
      [
       -71.5758,
       -16.5811
      ],
      [
       -71.57780000000001,
       -16.5851
      ],
      [
       -71.5818,
       -16.587899999999998
      ],
      [
       -71.5837,
       -16.5896
      ],
      [
       -71.5853,
       -16.592
      ],
      [
       -71.5867,
       -16.5936
      ],
      [
       -71.58789999999999,
       -16.5949
      ],
      [
       -71.58879999999999,
       -16.596399999999992
      ],
      [
       -71.5907,
       -16.598
      ],
      [
       -71.5924,
       -16.6011
      ],
      [
       -71.5924,
       -16.5983
      ],
      [
       -71.5933,
       -16.595799999999993
      ],
      [
       -71.59389999999999,
       -16.5943
      ],
      [
       -71.59479999999999,
       -16.5915
      ],
      [
       -71.59519999999999,
       -16.590399999999992
      ],
      [
       -71.5954,
       -16.5888
      ],
      [
       -71.5958,
       -16.587
      ],
      [
       -71.59779999999999,
       -16.5871
      ],
      [
       -71.6004,
       -16.587699999999995
      ],
      [
       -71.6002,
       -16.5898
      ],
      [
       -71.59949999999999,
       -16.5914
      ],
      [
       -71.5989,
       -16.5936
      ],
      [
       -71.599,
       -16.5951
      ],
      [
       -71.5993,
       -16.5961
      ],
      [
       -71.5997,
       -16.598100000000006
      ],
      [
       -71.5997,
       -16.5994
      ],
      [
       -71.60119999999999,
       -16.5983
      ],
      [
       -71.6021,
       -16.5984
      ]
     ]
    ]
   }
  },
  {
   "type": "Feature",
   "properties": {
    "fid": 38271,
    "iso3": "PER",
    "area_km2": 1.0341
   },
   "geometry": {
    "type": "Polygon",
    "coordinates": [
     [
      [
       -71.64724199999999,
       -16.430857999999997
      ],
      [
       -71.647789,
       -16.431042999999995
      ],
      [
       -71.64863700000001,
       -16.431587999999998
      ],
      [
       -71.649463,
       -16.431856
      ],
      [
       -71.649967,
       -16.431948
      ],
      [
       -71.649635,
       -16.432494
      ],
      [
       -71.649592,
       -16.432813
      ],
      [
       -71.649098,
       -16.433121999999997
      ],
      [
       -71.648798,
       -16.433491999999998
      ],
      [
       -71.64872299999999,
       -16.433677
      ],
      [
       -71.648229,
       -16.433861999999998
      ],
      [
       -71.648015,
       -16.43434599999999
      ],
      [
       -71.648476,
       -16.435539999999996
      ],
      [
       -71.64883,
       -16.436013
      ],
      [
       -71.64883,
       -16.436898
      ],
      [
       -71.64809,
       -16.43733
      ],
      [
       -71.647511,
       -16.437577
      ],
      [
       -71.647446,
       -16.437094
      ],
      [
       -71.647167,
       -16.436785
      ],
      [
       -71.64679199999999,
       -16.436702999999998
      ],
      [
       -71.64609399999999,
       -16.437258
      ],
      [
       -71.64496799999999,
       -16.437979
      ],
      [
       -71.64456,
       -16.437999
      ],
      [
       -71.64369099999999,
       -16.437732
      ],
      [
       -71.643541,
       -16.437948
      ],
      [
       -71.64358399999999,
       -16.438617000000008
      ],
      [
       -71.643176,
       -16.43838
      ],
      [
       -71.643219,
       -16.437638999999994
      ],
      [
       -71.64356200000002,
       -16.43705199999999
      ],
      [
       -71.643283,
       -16.436939
      ],
      [
       -71.642382,
       -16.437464
      ],
      [
       -71.641663,
       -16.438029999999994
      ],
      [
       -71.641159,
       -16.438451999999998
      ],
      [
       -71.640526,
       -16.439069
      ],
      [
       -71.640376,
       -16.439737999999995
      ],
      [
       -71.640569,
       -16.440006000000004
      ],
      [
       -71.64094399999999,
       -16.440541000000007
      ],
      [
       -71.64113800000001,
       -16.440200999999995
      ],
      [
       -71.64165299999999,
       -16.441004
      ],
      [
       -71.641438,
       -16.441066
      ],
      [
       -71.640204,
       -16.440356
      ],
      [
       -71.639732,
       -16.440911
      ],
      [
       -71.639571,
       -16.441467
      ],
      [
       -71.639518,
       -16.442402999999995
      ],
      [
       -71.638992,
       -16.442897
      ],
      [
       -71.638734,
       -16.44294899999999
      ],
      [
       -71.63838,
       -16.442331000000003
      ],
      [
       -71.638166,
       -16.442042999999998
      ],
      [
       -71.63758600000001,
       -16.442373000000003
      ],
      [
       -71.637061,
       -16.442434
      ],
      [
       -71.636685,
       -16.442259
      ],
      [
       -71.636159,
       -16.442536999999994
      ],
      [
       -71.636031,
       -16.442383
      ],
      [
       -71.636567,
       -16.441775999999997
      ],
      [
       -71.63676,
       -16.441138
      ],
      [
       -71.63676,
       -16.440767
      ],
      [
       -71.636353,
       -16.440839
      ],
      [
       -71.63604099999999,
       -16.441498000000006
      ],
      [
       -71.635859,
       -16.441662
      ],
      [
       -71.635441,
       -16.441755
      ],
      [
       -71.635065,
       -16.442424
      ],
      [
       -71.634486,
       -16.443020999999998
      ],
      [
       -71.634164,
       -16.443607
      ],
      [
       -71.634078,
       -16.443956999999997
      ],
      [
       -71.633724,
       -16.444378999999998
      ],
      [
       -71.633692,
       -16.444708
      ],
      [
       -71.633198,
       -16.444966
      ],
      [
       -71.63283299999999,
       -16.444739
      ],
      [
       -71.632308,
       -16.444184
      ],
      [
       -71.632437,
       -16.443895000000005
      ],
      [
       -71.632791,
       -16.443865000000006
      ],
      [
       -71.633177,
       -16.443474000000005
      ],
      [
       -71.63376699999999,
       -16.443587
      ],
      [
       -71.63376699999999,
       -16.443124000000008
      ],
      [
       -71.632941,
       -16.442424000000006
      ],
      [
       -71.633316,
       -16.441848000000007
      ],
      [
       -71.63296199999999,
       -16.441302
      ],
      [
       -71.63286599999999,
       -16.440757000000005
      ],
      [
       -71.63342399999999,
       -16.439697
      ],
      [
       -71.633263,
       -16.439429999999998
      ],
      [
       -71.632898,
       -16.439018000000008
      ],
      [
       -71.633778,
       -16.438617000000004
      ],
      [
       -71.63396,
       -16.438205
      ],
      [
       -71.633896,
       -16.437937000000005
      ],
      [
       -71.634067,
       -16.437598000000005
      ],
      [
       -71.63450700000001,
       -16.437588
      ],
      [
       -71.634818,
       -16.437299
      ],
      [
       -71.63513999999999,
       -16.437207
      ],
      [
       -71.635119,
       -16.437649
      ],
      [
       -71.635752,
       -16.437907
      ],
      [
       -71.636589,
       -16.437999
      ],
      [
       -71.63697499999999,
       -16.43839
      ],
      [
       -71.637264,
       -16.43892499999999
      ],
      [
       -71.638091,
       -16.438349
      ],
      [
       -71.638294,
       -16.437804
      ],
      [
       -71.63868099999999,
       -16.43753599999999
      ],
      [
       -71.63856299999999,
       -16.437289000000007
      ],
      [
       -71.63855199999999,
       -16.436990999999995
      ],
      [
       -71.638477,
       -16.436795
      ],
      [
       -71.63800499999999,
       -16.436919
      ],
      [
       -71.637576,
       -16.437279
      ],
      [
       -71.637543,
       -16.436650999999998
      ],
      [
       -71.63811199999999,
       -16.436137
      ],
      [
       -71.638874,
       -16.435838
      ],
      [
       -71.639603,
       -16.435931000000004
      ],
      [
       -71.63947499999999,
       -16.435674
      ],
      [
       -71.639421,
       -16.434686
      ],
      [
       -71.63901299999999,
       -16.434686
      ],
      [
       -71.638294,
       -16.434511
      ],
      [
       -71.638209,
       -16.434264
      ],
      [
       -71.63821899999999,
       -16.433729
      ],
      [
       -71.638691,
       -16.433564
      ],
      [
       -71.639303,
       -16.432741
      ],
      [
       -71.639786,
       -16.4327
      ],
      [
       -71.640301,
       -16.432381
      ],
      [
       -71.640365,
       -16.432760999999996
      ],
      [
       -71.640708,
       -16.432935999999998
      ],
      [
       -71.641266,
       -16.432885
      ],
      [
       -71.64220999999999,
       -16.432813000000007
      ],
      [
       -71.64280099999999,
       -16.433122
      ],
      [
       -71.643519,
       -16.43379
      ],
      [
       -71.644045,
       -16.433873
      ],
      [
       -71.64439899999999,
       -16.43377
      ],
      [
       -71.64439899999999,
       -16.432997999999998
      ],
      [
       -71.6447,
       -16.43259699999999
      ],
      [
       -71.644893,
       -16.431835
      ],
      [
       -71.64529,
       -16.431444
      ],
      [
       -71.64622299999999,
       -16.430816000000007
      ],
      [
       -71.64667399999999,
       -16.431568000000002
      ],
      [
       -71.64724199999999,
       -16.430857999999997
      ]
     ]
    ]
   }
  },
  {
   "type": "Feature",
   "properties": {
    "fid": 38272,
    "iso3": "PER",
    "area_km2": 0.0814
   },
   "geometry": {
    "type": "Polygon",
    "coordinates": [
     [
      [
       -71.634067,
       -16.446031000000005
      ],
      [
       -71.634158,
       -16.446220999999998
      ],
      [
       -71.634062,
       -16.446406
      ],
      [
       -71.634014,
       -16.446828
      ],
      [
       -71.63410499999999,
       -16.447111
      ],
      [
       -71.633729,
       -16.447326999999998
      ],
      [
       -71.633445,
       -16.447667
      ],
      [
       -71.63337,
       -16.447934
      ],
      [
       -71.632764,
       -16.448206999999996
      ],
      [
       -71.632238,
       -16.449061
      ],
      [
       -71.631954,
       -16.449267
      ],
      [
       -71.631449,
       -16.44955
      ],
      [
       -71.631063,
       -16.450146999999998
      ],
      [
       -71.630833,
       -16.450599
      ],
      [
       -71.630344,
       -16.45078999999999
      ],
      [
       -71.63045199999999,
       -16.449437
      ],
      [
       -71.63055899999999,
       -16.449097
      ],
      [
       -71.630715,
       -16.448916999999998
      ],
      [
       -71.631219,
       -16.448294000000008
      ],
      [
       -71.631546,
       -16.447888000000006
      ],
      [
       -71.63159999999999,
       -16.447651
      ],
      [
       -71.63180899999999,
       -16.447049
      ],
      [
       -71.632066,
       -16.446735
      ],
      [
       -71.632233,
       -16.446314000000008
      ],
      [
       -71.632243,
       -16.446009999999998
      ],
      [
       -71.63242,
       -16.445979000000005
      ],
      [
       -71.632769,
       -16.446164000000003
      ],
      [
       -71.63332199999999,
       -16.446195
      ],
      [
       -71.634067,
       -16.446031000000005
      ]
     ]
    ]
   }
  },
  {
   "type": "Feature",
   "properties": {
    "fid": 38273,
    "iso3": "PER",
    "area_km2": 0.3209
   },
   "geometry": {
    "type": "Polygon",
    "coordinates": [
     [
      [
       -71.65214499999999,
       -16.449987
      ],
      [
       -71.65147999999999,
       -16.451221999999998
      ],
      [
       -71.65118,
       -16.451601999999998
      ],
      [
       -71.650364,
       -16.45188
      ],
      [
       -71.6506,
       -16.452517999999994
      ],
      [
       -71.650718,
       -16.452806
      ],
      [
       -71.650193,
       -16.452992
      ],
      [
       -71.649452,
       -16.452755
      ],
      [
       -71.64863700000001,
       -16.453043
      ],
      [
       -71.64811100000001,
       -16.45364
      ],
      [
       -71.646738,
       -16.454113
      ],
      [
       -71.645794,
       -16.454998
      ],
      [
       -71.64541799999999,
       -16.45719
      ],
      [
       -71.645365,
       -16.458125999999996
      ],
      [
       -71.644807,
       -16.459474
      ],
      [
       -71.64428099999999,
       -16.461367
      ],
      [
       -71.643573,
       -16.461582999999994
      ],
      [
       -71.642865,
       -16.461305
      ],
      [
       -71.64220999999999,
       -16.460102
      ],
      [
       -71.64233899999999,
       -16.459227000000002
      ],
      [
       -71.643058,
       -16.457786
      ],
      [
       -71.643423,
       -16.456716
      ],
      [
       -71.643863,
       -16.455964999999992
      ],
      [
       -71.644346,
       -16.455523
      ],
      [
       -71.644421,
       -16.45508
      ],
      [
       -71.64426999999999,
       -16.45437
      ],
      [
       -71.64439899999999,
       -16.453865999999998
      ],
      [
       -71.644603,
       -16.453187
      ],
      [
       -71.644818,
       -16.452302
      ],
      [
       -71.645021,
       -16.451973
      ],
      [
       -71.64547200000001,
       -16.452023999999998
      ],
      [
       -71.64574,
       -16.452302
      ],
      [
       -71.646287,
       -16.452477
      ],
      [
       -71.646266,
       -16.452116999999998
      ],
      [
       -71.64662,
       -16.452261
      ],
      [
       -71.64711400000002,
       -16.452106999999998
      ],
      [
       -71.64811100000001,
       -16.451777
      ],
      [
       -71.648648,
       -16.451684999999998
      ],
      [
       -71.64930199999999,
       -16.451695
      ],
      [
       -71.64988199999999,
       -16.451541
      ],
      [
       -71.650622,
       -16.450995000000002
      ],
      [
       -71.650772,
       -16.450491000000007
      ],
      [
       -71.65112599999999,
       -16.450141
      ],
      [
       -71.651491,
       -16.449832999999998
      ],
      [
       -71.651856,
       -16.449718999999998
      ],
      [
       -71.65214499999999,
       -16.449987
      ]
     ]
    ]
   }
  }
 ],
 "license": "CC-BY-SA-4.0",
 "attribution": "Maus et al. 2022 (doi:10.1594/PANGAEA.942325)"
}
