{
 "type": "FeatureCollection",
 "features": [
  {
   "type": "Feature",
   "properties": {
    "fid": 2359,
    "iso3": "CHL",
    "area_km2": 0.4474
   },
   "geometry": {
    "type": "Polygon",
    "coordinates": [
     [
      [
       -69.1142,
       -23.0412
      ],
      [
       -69.1157,
       -23.0432
      ],
      [
       -69.1104,
       -23.046799999999994
      ],
      [
       -69.1064,
       -23.048999999999992
      ],
      [
       -69.1051,
       -23.045299999999997
      ],
      [
       -69.11229999999999,
       -23.041
      ],
      [
       -69.1142,
       -23.0412
      ]
     ]
    ]
   }
  },
  {
   "type": "Feature",
   "properties": {
    "fid": 2362,
    "iso3": "CHL",
    "area_km2": 0.6269
   },
   "geometry": {
    "type": "Polygon",
    "coordinates": [
     [
      [
       -69.0855,
       -23.027099999999997
      ],
      [
       -69.0829,
       -23.0325
      ],
      [
       -69.077,
       -23.032300000000003
      ],
      [
       -69.075,
       -23.027900000000006
      ],
      [
       -69.0791,
       -23.0257
      ],
      [
       -69.08180000000002,
       -23.024699999999996
      ],
      [
       -69.0855,
       -23.027099999999997
      ]
     ]
    ]
   }
  },
  {
   "type": "Feature",
   "properties": {
    "fid": 2629,
    "iso3": "CHL",
    "area_km2": 89.0095
   },
   "geometry": {
    "type": "Polygon",
    "coordinates": [
     [
      [
       -69.1289,
       -22.962600000000005
      ],
      [
       -69.1382,
       -23.006100000000004
      ],
      [
       -69.1394,
       -23.014299999999995
      ],
      [
       -69.1221,
       -23.017300000000002
      ],
      [
       -69.0915,
       -23.0211
      ],
      [
       -69.0865,
       -23.013100000000005
      ],
      [
       -69.06739999999999,
       -23.0156
      ],
      [
       -69.0496,
       -23.0003
      ],
      [
       -69.0458,
       -22.990499999999997
      ],
      [
       -69.03479999999999,
       -22.975300000000004
      ],
      [
       -69.0381,
       -22.968
      ],
      [
       -69.0496,
       -22.9549
      ],
      [
       -69.017,
       -22.956699999999998
      ],
      [
       -69.01339999999999,
       -22.946099999999998
      ],
      [
       -69.0252,
       -22.938499999999998
      ],
      [
       -69.0606,
       -22.9301
      ],
      [
       -69.07119999999999,
       -22.9333
      ],
      [
       -69.097,
       -22.9227
      ],
      [
       -69.1128,
       -22.9254
      ],
      [
       -69.1023,
       -22.9358
      ],
      [
       -69.1184,
       -22.9393
      ],
      [
       -69.1275,
       -22.954099999999997
      ],
      [
       -69.1289,
       -22.962600000000005
      ]
     ]
    ]
   }
  }
 ],
 "license": "CC-BY-SA-4.0",
 "attribution": "Maus et al. 2022 (doi:10.1594/PANGAEA.942325)"
}
