{
 "type": "FeatureCollection",
 "features": [
  {
   "type": "Feature",
   "properties": {
    "fid": 11558,
    "iso3": "POL",
    "area_km2": 0.3991
   },
   "geometry": {
    "type": "Polygon",
    "coordinates": [
     [
      [
       19.423099999999998,
       51.210899999999995
      ],
      [
       19.4227,
       51.2095
      ],
      [
       19.4238,
       51.2073
      ],
      [
       19.427,
       51.2018
      ],
      [
       19.432799999999993,
       51.2044
      ],
      [
       19.433699999999995,
       51.2055
      ],
      [
       19.4256,
       51.210899999999995
      ],
      [
       19.423099999999998,
       51.210899999999995
      ]
     ]
    ]
   }
  },
  {
   "type": "Feature",
   "properties": {
    "fid": 11576,
    "iso3": "POL",
    "area_km2": 0.2044
   },
   "geometry": {
    "type": "Polygon",
    "coordinates": [
     [
      [
       19.241099999999996,
       51.262899999999995
      ],
      [
       19.2385,
       51.262499999999996
      ],
      [
       19.235300000000006,
       51.2604
      ],
      [
       19.2396,
       51.258599999999994
      ],
      [
       19.242,
       51.2577
      ],
      [
       19.2452,
       51.257799999999996
      ],
      [
       19.244999999999994,
       51.258599999999994
      ],
      [
       19.241899999999998,
       51.261199999999995
      ],
      [
       19.241099999999996,
       51.262899999999995
      ]
     ]
    ]
   }
  },
  {
   "type": "Feature",
   "properties": {
    "fid": 11577,
    "iso3": "POL",
    "area_km2": 0.0774
   },
   "geometry": {
    "type": "Polygon",
    "coordinates": [
     [
      [
       19.2316,
       51.2652
      ],
      [
       19.228299999999997,
       51.263
      ],
      [
       19.2307,
       51.262
      ],
      [
       19.2341,
       51.2633
      ],
      [
       19.2329,
       51.2649
      ],
      [
       19.2316,
       51.2652
      ]
     ]
    ]
   }
  },
  {
   "type": "Feature",
   "properties": {
    "fid": 11569,
    "iso3": "POL",
    "area_km2": 34.2575
   },
   "geometry": {
    "type": "Polygon",
    "coordinates": [
     [
      [
       19.0499,
       51.28120000000001
      ],
      [
       19.0287,
       51.264300000000006
      ],
      [
       19.0287,
       51.2596
      ],
      [
       19.051999999999996,
       51.2469
      ],
      [
       19.0977,
       51.249700000000004
      ],
      [
       19.1018,
       51.226000000000006
      ],
      [
       19.113499999999995,
       51.21960000000001
      ],
      [
       19.1375,
       51.221700000000006
      ],
      [
       19.145699999999998,
       51.225199999999994
      ],
      [
       19.1681,
       51.221700000000006
      ],
      [
       19.1722,
       51.242599999999996
      ],
      [
       19.1698,
       51.2583
      ],
      [
       19.1426,
       51.2587
      ],
      [
       19.1251,
       51.2574
      ],
      [
       19.1117,
       51.2602
      ],
      [
       19.097299999999994,
       51.2608
      ],
      [
       19.085999999999995,
       51.2757
      ],
      [
       19.075,
       51.2834
      ],
      [
       19.0499,
       51.28120000000001
      ]
     ]
    ]
   }
  },
  {
   "type": "Feature",
   "properties": {
    "fid": 11572,
    "iso3": "POL",
    "area_km2": 39.4157
   },
   "geometry": {
    "type": "Polygon",
    "coordinates": [
     [
      [
       19.2717,
       51.259299999999996
      ],
      [
       19.235300000000002,
       51.2558
      ],
      [
       19.2211,
       51.254599999999996
      ],
      [
       19.2094,
       51.250600000000006
      ],
      [
       19.2062,
       51.2485
      ],
      [
       19.2101,
       51.2434
      ],
      [
       19.21129999999999,
       51.2412
      ],
      [
       19.214700000000004,
       51.2403
      ],
      [
       19.2149,
       51.235699999999994
      ],
      [
       19.2139,
       51.2335
      ],
      [
       19.216100000000004,
       51.230999999999995
      ],
      [
       19.2196,
       51.22890000000001
      ],
      [
       19.2254,
       51.2275
      ],
      [
       19.2391,
       51.2284
      ],
      [
       19.2453,
       51.228699999999996
      ],
      [
       19.2513,
       51.229200000000006
      ],
      [
       19.2561,
       51.2296
      ],
      [
       19.261300000000002,
       51.229499999999994
      ],
      [
       19.2666,
       51.22909999999999
      ],
      [
       19.2728,
       51.229099999999995
      ],
      [
       19.277100000000004,
       51.229099999999995
      ],
      [
       19.282,
       51.2284
      ],
      [
       19.287199999999995,
       51.22959999999999
      ],
      [
       19.294699999999995,
       51.23079999999999
      ],
      [
       19.3071,
       51.223299999999995
      ],
      [
       19.310499999999998,
       51.2224
      ],
      [
       19.3311,
       51.221700000000006
      ],
      [
       19.351,
       51.2215
      ],
      [
       19.374399999999998,
       51.2209
      ],
      [
       19.378999999999998,
       51.2211
      ],
      [
       19.3825,
       51.2228
      ],
      [
       19.3869,
       51.2241
      ],
      [
       19.3905,
       51.2254
      ],
      [
       19.3922,
       51.22759999999999
      ],
      [
       19.397,
       51.23249999999999
      ],
      [
       19.398900000000005,
       51.2341
      ],
      [
       19.393399999999996,
       51.237100000000005
      ],
      [
       19.387399999999992,
       51.2429
      ],
      [
       19.3558,
       51.2487
      ],
      [
       19.2992,
       51.258199999999995
      ],
      [
       19.281299999999998,
       51.25999999999999
      ],
      [
       19.2717,
       51.259299999999996
      ]
     ]
    ]
   }
  },
  {
   "type": "Feature",
   "properties": {
    "fid": 11579,
    "iso3": "POL",
    "area_km2": 5.6791
   },
   "geometry": {
    "type": "Polygon",
    "coordinates": [
     [
      [
       19.298699999999997,
       51.2746
      ],
      [
       19.296799999999998,
       51.2739
      ],
      [
       19.2963,
       51.2669
      ],
      [
       19.29199999999999,
       51.266000000000005
      ],
      [
       19.291999999999994,
       51.26340000000001
      ],
      [
       19.298199999999998,
       51.2619
      ],
      [
       19.299400000000006,
       51.25899999999999
      ],
      [
       19.328399999999995,
       51.254900000000006
      ],
      [
       19.3354,
       51.2577
      ],
      [
       19.3392,
       51.261599999999994
      ],
      [
       19.338300000000007,
       51.27410000000001
      ],
      [
       19.298699999999997,
       51.2746
      ]
     ]
    ]
   }
  },
  {
   "type": "Feature",
   "properties": {
    "fid": 11580,
    "iso3": "POL",
    "area_km2": 4.7304
   },
   "geometry": {
    "type": "Polygon",
    "coordinates": [
     [
      [
       19.245800000000003,
       51.276700000000005
      ],
      [
       19.244300000000006,
       51.2652
      ],
      [
       19.2525,
       51.25999999999999
      ],
      [
       19.271000000000008,
       51.261199999999995
      ],
      [
       19.27349999999999,
       51.2628
      ],
      [
       19.27639999999999,
       51.2618
      ],
      [
       19.279799999999998,
       51.2631
      ],
      [
       19.2777,
       51.2656
      ],
      [
       19.2856,
       51.2731
      ],
      [
       19.281499999999998,
       51.279199999999996
      ],
      [
       19.278399999999998,
       51.279199999999996
      ],
      [
       19.263000000000005,
       51.278099999999995
      ],
      [
       19.245800000000003,
       51.276700000000005
      ]
     ]
    ]
   }
  },
  {
   "type": "Feature",
   "properties": {
    "fid": 11578,
    "iso3": "POL",
    "area_km2": 0.5548
   },
   "geometry": {
    "type": "Polygon",
    "coordinates": [
     [
      [
       19.224,
       51.272999999999996
      ],
      [
       19.221899999999998,
       51.273599999999995
      ],
      [
       19.2208,
       51.2729
      ],
      [
       19.2209,
       51.271899999999995
      ],
      [
       19.217,
       51.270700000000005
      ],
      [
       19.214199999999998,
       51.2689
      ],
      [
       19.2247,
       51.264700000000005
      ],
      [
       19.226599999999998,
       51.265499999999996
      ],
      [
       19.229200000000006,
       51.270300000000006
      ],
      [
       19.224,
       51.272999999999996
      ]
     ]
    ]
   }
  }
 ],
 "license": "CC-BY-SA-4.0",
 "attribution": "Maus et al. 2022 (doi:10.1594/PANGAEA.942325)"
}
