{
 "type": "FeatureCollection",
 "features": [
  {
   "type": "Feature",
   "properties": {
    "fid": 4028,
    "iso3": "IDN",
    "area_km2": 0.0182
   },
   "geometry": {
    "type": "Polygon",
    "coordinates": [
     [
      [
       137.0933,
       -4.1223
      ],
      [
       137.0934,
       -4.122800000000001
      ],
      [
       137.0934,
       -4.1232
      ],
      [
       137.09359999999998,
       -4.1232999999999995
      ],
      [
       137.0939,
       -4.1232999999999995
      ],
      [
       137.0944,
       -4.1232
      ],
      [
       137.0948,
       -4.123
      ],
      [
       137.0948,
       -4.122700000000002
      ],
      [
       137.0951,
       -4.122199999999999
      ],
      [
       137.09449999999998,
       -4.122199999999999
      ],
      [
       137.0933,
       -4.1223
      ]
     ]
    ]
   }
  },
  {
   "type": "Feature",
   "properties": {
    "fid": 4032,
    "iso3": "IDN",
    "area_km2": 0.0161
   },
   "geometry": {
    "type": "Polygon",
    "coordinates": [
     [
      [
       137.0958,
       -4.1178
      ],
      [
       137.09619999999998,
       -4.1192
      ],
      [
       137.0968,
       -4.119299999999998
      ],
      [
       137.0969,
       -4.118100000000002
      ],
      [
       137.0969,
       -4.1179
      ],
      [
       137.0966,
       -4.117800000000002
      ],
      [
       137.0961,
       -4.1175999999999995
      ],
      [
       137.0958,
       -4.1178
      ]
     ]
    ]
   }
  },
  {
   "type": "Feature",
   "properties": {
    "fid": 4059,
    "iso3": "IDN",
    "area_km2": 1.1181
   },
   "geometry": {
    "type": "Polygon",
    "coordinates": [
     [
      [
       137.1096,
       -4.0953
      ],
      [
       137.1078,
       -4.094800000000002
      ],
      [
       137.1068,
       -4.0949
      ],
      [
       137.1052,
       -4.095
      ],
      [
       137.1041,
       -4.0953
      ],
      [
       137.10299999999998,
       -4.095500000000001
      ],
      [
       137.1024,
       -4.0954
      ],
      [
       137.10129999999998,
       -4.0952
      ],
      [
       137.10129999999998,
       -4.095999999999998
      ],
      [
       137.1017,
       -4.097500000000002
      ],
      [
       137.102,
       -4.0988
      ],
      [
       137.1019,
       -4.1008
      ],
      [
       137.1015,
       -4.1017
      ],
      [
       137.10129999999998,
       -4.1032
      ],
      [
       137.10049999999998,
       -4.104700000000002
      ],
      [
       137.0986,
       -4.1057999999999995
      ],
      [
       137.0968,
       -4.1067
      ],
      [
       137.0958,
       -4.107
      ],
      [
       137.0949,
       -4.107299999999998
      ],
      [
       137.0942,
       -4.1079
      ],
      [
       137.0939,
       -4.1089
      ],
      [
       137.0942,
       -4.109900000000001
      ],
      [
       137.0956,
       -4.1094
      ],
      [
       137.0967,
       -4.109000000000002
      ],
      [
       137.0967,
       -4.1097
      ],
      [
       137.0967,
       -4.1114
      ],
      [
       137.0983,
       -4.1116
      ],
      [
       137.0993,
       -4.1121
      ],
      [
       137.1007,
       -4.1121
      ],
      [
       137.101,
       -4.1114
      ],
      [
       137.1044,
       -4.1051
      ],
      [
       137.1053,
       -4.1019999999999985
      ],
      [
       137.10469999999998,
       -4.100799999999998
      ],
      [
       137.10469999999998,
       -4.099700000000001
      ],
      [
       137.1052,
       -4.0985
      ],
      [
       137.1092,
       -4.0979
      ],
      [
       137.1096,
       -4.0953
      ]
     ]
    ]
   }
  },
  {
   "type": "Feature",
   "properties": {
    "fid": 4067,
    "iso3": "IDN",
    "area_km2": 0.723
   },
   "geometry": {
    "type": "Polygon",
    "coordinates": [
     [
      [
       137.1118,
       -4.0931999999999995
      ],
      [
       137.11159999999998,
       -4.0935999999999995
      ],
      [
       137.1115,
       -4.0941
      ],
      [
       137.1113,
       -4.0947
      ],
      [
       137.1112,
       -4.0952
      ],
      [
       137.11069999999998,
       -4.0961
      ],
      [
       137.1106,
       -4.0967
      ],
      [
       137.1104,
       -4.0972
      ],
      [
       137.1103,
       -4.0976
      ],
      [
       137.11069999999998,
       -4.0979
      ],
      [
       137.1114,
       -4.098
      ],
      [
       137.1121,
       -4.0977
      ],
      [
       137.1126,
       -4.097400000000001
      ],
      [
       137.113,
       -4.0971
      ],
      [
       137.1137,
       -4.0969999999999995
      ],
      [
       137.1145,
       -4.097000000000001
      ],
      [
       137.1145,
       -4.0966
      ],
      [
       137.1144,
       -4.0961
      ],
      [
       137.1153,
       -4.0957
      ],
      [
       137.1171,
       -4.094500000000002
      ],
      [
       137.1192,
       -4.0935999999999995
      ],
      [
       137.1203,
       -4.092899999999998
      ],
      [
       137.1209,
       -4.0924
      ],
      [
       137.1217,
       -4.091400000000002
      ],
      [
       137.12199999999999,
       -4.0903
      ],
      [
       137.12269999999998,
       -4.089799999999999
      ],
      [
       137.12269999999998,
       -4.0888
      ],
      [
       137.12279999999998,
       -4.088
      ],
      [
       137.1225,
       -4.087
      ],
      [
       137.12199999999999,
       -4.0866999999999996
      ],
      [
       137.12099999999998,
       -4.087199999999998
      ],
      [
       137.1207,
       -4.087199999999998
      ],
      [
       137.1203,
       -4.086899999999998
      ],
      [
       137.12,
       -4.0870999999999995
      ],
      [
       137.12,
       -4.0876
      ],
      [
       137.11939999999998,
       -4.087899999999999
      ],
      [
       137.11849999999998,
       -4.0885
      ],
      [
       137.1175,
       -4.0892
      ],
      [
       137.1172,
       -4.0891
      ],
      [
       137.11669999999998,
       -4.0895
      ],
      [
       137.11679999999998,
       -4.0899
      ],
      [
       137.114,
       -4.091400000000002
      ],
      [
       137.1118,
       -4.0931999999999995
      ]
     ]
    ]
   }
  },
  {
   "type": "Feature",
   "properties": {
    "fid": 4046,
    "iso3": "IDN",
    "area_km2": 2.4436
   },
   "geometry": {
    "type": "Polygon",
    "coordinates": [
     [
      [
       137.1367,
       -4.070200000000002
      ],
      [
       137.1328,
       -4.0718
      ],
      [
       137.13110000000003,
       -4.0736
      ],
      [
       137.1301,
       -4.075400000000002
      ],
      [
       137.12879999999998,
       -4.0765
      ],
      [
       137.12709999999998,
       -4.077499999999999
      ],
      [
       137.1273,
       -4.0790000000000015
      ],
      [
       137.1277,
       -4.0805
      ],
      [
       137.1292,
       -4.0825
      ],
      [
       137.1318,
       -4.083699999999999
      ],
      [
       137.13370000000003,
       -4.0844
      ],
      [
       137.1353,
       -4.0847
      ],
      [
       137.1366,
       -4.085300000000002
      ],
      [
       137.138,
       -4.0862
      ],
      [
       137.1385,
       -4.085999999999999
      ],
      [
       137.1385,
       -4.0847
      ],
      [
       137.1393,
       -4.083399999999998
      ],
      [
       137.14159999999998,
       -4.082199999999998
      ],
      [
       137.1437,
       -4.0819
      ],
      [
       137.1452,
       -4.0816
      ],
      [
       137.1453,
       -4.0797
      ],
      [
       137.1453,
       -4.0779000000000005
      ],
      [
       137.1452,
       -4.076
      ],
      [
       137.1446,
       -4.073799999999999
      ],
      [
       137.14339999999999,
       -4.0722
      ],
      [
       137.1417,
       -4.0709
      ],
      [
       137.14,
       -4.0703
      ],
      [
       137.13899999999998,
       -4.0698
      ],
      [
       137.1372,
       -4.069599999999999
      ],
      [
       137.1367,
       -4.070200000000002
      ]
     ]
    ]
   }
  },
  {
   "type": "Feature",
   "properties": {
    "fid": 4057,
    "iso3": "IDN",
    "area_km2": 19.8291
   },
   "geometry": {
    "type": "Polygon",
    "coordinates": [
     [
      [
       137.08050000000003,
       -4.0371
      ],
      [
       137.08169999999998,
       -4.04
      ],
      [
       137.0827,
       -4.0424
      ],
      [
       137.0838,
       -4.047199999999999
      ],
      [
       137.08509999999998,
       -4.0514
      ],
      [
       137.0865,
       -4.0527
      ],
      [
       137.087,
       -4.054099999999998
      ],
      [
       137.0845,
       -4.055100000000001
      ],
      [
       137.083,
       -4.056400000000001
      ],
      [
       137.0823,
       -4.057799999999999
      ],
      [
       137.0831,
       -4.0588999999999995
      ],
      [
       137.0846,
       -4.059299999999998
      ],
      [
       137.0861,
       -4.060099999999999
      ],
      [
       137.0866,
       -4.0613
      ],
      [
       137.0848,
       -4.0625
      ],
      [
       137.084,
       -4.063200000000002
      ],
      [
       137.0829,
       -4.0641
      ],
      [
       137.08089999999999,
       -4.0648
      ],
      [
       137.0786,
       -4.0659
      ],
      [
       137.0764,
       -4.066300000000002
      ],
      [
       137.07340000000002,
       -4.066799999999999
      ],
      [
       137.0747,
       -4.0689
      ],
      [
       137.07659999999998,
       -4.070499999999998
      ],
      [
       137.0786,
       -4.0713
      ],
      [
       137.0806,
       -4.0725999999999996
      ],
      [
       137.08339999999998,
       -4.073299999999998
      ],
      [
       137.0848,
       -4.0732
      ],
      [
       137.0874,
       -4.072
      ],
      [
       137.09109999999998,
       -4.0706
      ],
      [
       137.0929,
       -4.069700000000002
      ],
      [
       137.09529999999998,
       -4.0685
      ],
      [
       137.0977,
       -4.066699999999998
      ],
      [
       137.0993,
       -4.065599999999998
      ],
      [
       137.1024,
       -4.0656
      ],
      [
       137.1037,
       -4.066
      ],
      [
       137.1052,
       -4.0667
      ],
      [
       137.1053,
       -4.0686
      ],
      [
       137.10399999999998,
       -4.071099999999998
      ],
      [
       137.1036,
       -4.0744
      ],
      [
       137.1043,
       -4.0778
      ],
      [
       137.10569999999998,
       -4.077499999999999
      ],
      [
       137.1069,
       -4.0739
      ],
      [
       137.1077,
       -4.071899999999999
      ],
      [
       137.10909999999998,
       -4.0704
      ],
      [
       137.1101,
       -4.0687999999999995
      ],
      [
       137.1113,
       -4.0691
      ],
      [
       137.113,
       -4.069599999999999
      ],
      [
       137.11419999999998,
       -4.069700000000002
      ],
      [
       137.1157,
       -4.0689
      ],
      [
       137.11769999999999,
       -4.0678
      ],
      [
       137.1192,
       -4.0687
      ],
      [
       137.1201,
       -4.070000000000001
      ],
      [
       137.12099999999998,
       -4.0713
      ],
      [
       137.1207,
       -4.0731
      ],
      [
       137.1205,
       -4.075699999999999
      ],
      [
       137.1205,
       -4.078100000000001
      ],
      [
       137.12,
       -4.0805
      ],
      [
       137.12,
       -4.0817
      ],
      [
       137.1207,
       -4.0824
      ],
      [
       137.1229,
       -4.0813999999999995
      ],
      [
       137.1243,
       -4.0802
      ],
      [
       137.12529999999998,
       -4.0786999999999995
      ],
      [
       137.12539999999998,
       -4.077
      ],
      [
       137.12529999999998,
       -4.075100000000001
      ],
      [
       137.1247,
       -4.0733999999999995
      ],
      [
       137.1246,
       -4.0716
      ],
      [
       137.12439999999998,
       -4.069700000000002
      ],
      [
       137.1238,
       -4.0684
      ],
      [
       137.1238,
       -4.0667
      ],
      [
       137.12529999999998,
       -4.0651
      ],
      [
       137.1264,
       -4.063399999999998
      ],
      [
       137.1275,
       -4.061999999999998
      ],
      [
       137.12850000000003,
       -4.0613
      ],
      [
       137.1307,
       -4.061
      ],
      [
       137.1319,
       -4.0619
      ],
      [
       137.1338,
       -4.0619
      ],
      [
       137.1358,
       -4.061999999999999
      ],
      [
       137.1378,
       -4.0618
      ],
      [
       137.13979999999998,
       -4.061700000000002
      ],
      [
       137.141,
       -4.0611999999999995
      ],
      [
       137.1405,
       -4.0591
      ],
      [
       137.1389,
       -4.0569999999999995
      ],
      [
       137.138,
       -4.055399999999998
      ],
      [
       137.1376,
       -4.0543
      ],
      [
       137.13739999999999,
       -4.0531
      ],
      [
       137.1379,
       -4.0519
      ],
      [
       137.13649999999998,
       -4.0501
      ],
      [
       137.1344,
       -4.047899999999999
      ],
      [
       137.1267,
       -4.0439
      ],
      [
       137.12189999999998,
       -4.0443
      ],
      [
       137.1187,
       -4.0432
      ],
      [
       137.1179,
       -4.0407
      ],
      [
       137.11509999999998,
       -4.0388
      ],
      [
       137.1145,
       -4.0363999999999995
      ],
      [
       137.1132,
       -4.035299999999999
      ],
      [
       137.1104,
       -4.0359
      ],
      [
       137.1068,
       -4.0367999999999995
      ],
      [
       137.1052,
       -4.0373
      ],
      [
       137.1025,
       -4.0371
      ],
      [
       137.0998,
       -4.0367
      ],
      [
       137.0974,
       -4.037600000000001
      ],
      [
       137.09709999999998,
       -4.040300000000002
      ],
      [
       137.09619999999998,
       -4.0409000000000015
      ],
      [
       137.0943,
       -4.040300000000002
      ],
      [
       137.093,
       -4.0390999999999995
      ],
      [
       137.09199999999998,
       -4.0379
      ],
      [
       137.09,
       -4.036399999999998
      ],
      [
       137.087,
       -4.0358
      ],
      [
       137.0845,
       -4.035699999999999
      ],
      [
       137.082,
       -4.036
      ],
      [
       137.08050000000003,
       -4.0371
      ]
     ]
    ]
   }
  }
 ],
 "license": "CC-BY-SA-4.0",
 "attribution": "Maus et al. 2022 (doi:10.1594/PANGAEA.942325)"
}
