{
 "type": "FeatureCollection",
 "features": [
  {
   "type": "Feature",
   "properties": {
    "fid": 4394,
    "iso3": "BRA",
    "area_km2": 13.5741
   },
   "geometry": {
    "type": "Polygon",
    "coordinates": [
     [
      [
       -50.294799999999995,
       -6.042899999999998
      ],
      [
       -50.29199999999999,
       -6.0569
      ],
      [
       -50.285199999999996,
       -6.057600000000001
      ],
      [
       -50.2778,
       -6.0451
      ],
      [
       -50.26750000000001,
       -6.045500000000001
      ],
      [
       -50.272,
       -6.029200000000001
      ],
      [
       -50.2795,
       -6.019200000000001
      ],
      [
       -50.289899999999996,
       -6.020000000000001
      ],
      [
       -50.2908,
       -6.005499999999998
      ],
      [
       -50.2999,
       -6.002499999999998
      ],
      [
       -50.305,
       -6.0108
      ],
      [
       -50.314600000000006,
       -6.0123999999999995
      ],
      [
       -50.313399999999994,
       -6.0207999999999995
      ],
      [
       -50.3011,
       -6.0234999999999985
      ],
      [
       -50.29779999999999,
       -6.0276000000000005
      ],
      [
       -50.2994,
       -6.035900000000001
      ],
      [
       -50.29000000000001,
       -6.0362
      ],
      [
       -50.294799999999995,
       -6.042899999999998
      ]
     ]
    ]
   }
  },
  {
   "type": "Feature",
   "properties": {
    "fid": 23353,
    "iso3": "BRA",
    "area_km2": 0.0495
   },
   "geometry": {
    "type": "Polygon",
    "coordinates": [
     [
      [
       -50.227861,
       -6.095985000000001
      ],
      [
       -50.228933999999995,
       -6.0968279999999995
      ],
      [
       -50.229878,
       -6.097308
      ],
      [
       -50.230168000000006,
       -6.097543
      ],
      [
       -50.228547999999996,
       -6.098726999999999
      ],
      [
       -50.227163999999995,
       -6.096998999999999
      ],
      [
       -50.227218,
       -6.09638
      ],
      [
       -50.227861,
       -6.095985000000001
      ]
     ]
    ]
   }
  },
  {
   "type": "Feature",
   "properties": {
    "fid": 4390,
    "iso3": "BRA",
    "area_km2": 3.2007
   },
   "geometry": {
    "type": "Polygon",
    "coordinates": [
     [
      [
       -50.07589999999998,
       -6.0611
      ],
      [
       -50.0749,
       -6.0813999999999995
      ],
      [
       -50.0571,
       -6.072399999999998
      ],
      [
       -50.062100000000015,
       -6.0614
      ],
      [
       -50.07589999999998,
       -6.0611
      ]
     ]
    ]
   }
  },
  {
   "type": "Feature",
   "properties": {
    "fid": 23880,
    "iso3": "BRA",
    "area_km2": 0.1764
   },
   "geometry": {
    "type": "Polygon",
    "coordinates": [
     [
      [
       -50.082958,
       -5.951348000000001
      ],
      [
       -50.084395,
       -5.954122000000002
      ],
      [
       -50.08431,
       -5.955487999999998
      ],
      [
       -50.08347299999999,
       -5.956106999999999
      ],
      [
       -50.082743,
       -5.956812
      ],
      [
       -50.082207,
       -5.956405999999999
      ],
      [
       -50.08199200000001,
       -5.9553389999999995
      ],
      [
       -50.08147700000001,
       -5.9541439999999985
      ],
      [
       -50.079718,
       -5.953119
      ],
      [
       -50.081005,
       -5.951241000000001
      ],
      [
       -50.082958,
       -5.951348000000001
      ]
     ]
    ]
   }
  },
  {
   "type": "Feature",
   "properties": {
    "fid": 44133,
    "iso3": "BRA",
    "area_km2": 0.2306
   },
   "geometry": {
    "type": "Polygon",
    "coordinates": [
     [
      [
       -50.22519618356014,
       -6.124658233377614
      ],
      [
       -50.2254,
       -6.124600000000002
      ],
      [
       -50.22559796029835,
       -6.124649490198871
      ],
      [
       -50.226079999999996,
       -6.124639
      ],
      [
       -50.226183355682814,
       -6.1247958389343
      ],
      [
       -50.2262,
       -6.1248
      ],
      [
       -50.226228798746334,
       -6.124864797290524
      ],
      [
       -50.226853,
       -6.125812
      ],
      [
       -50.2264005375986,
       -6.1265019353617305
      ],
      [
       -50.2269,
       -6.1283
      ],
      [
       -50.22541242804483,
       -6.129192543202712
      ],
      [
       -50.225362762321,
       -6.129255856702914
      ],
      [
       -50.2244,
       -6.1307
      ],
      [
       -50.2238382574994,
       -6.131218532585853
      ],
      [
       -50.223334,
       -6.1318719999999995
      ],
      [
       -50.223213220297026,
       -6.131795489295791
      ],
      [
       -50.22310000000001,
       -6.1319
      ],
      [
       -50.22295312173559,
       -6.1316307236629966
      ],
      [
       -50.22239,
       -6.1312739999999994
      ],
      [
       -50.2225347351489,
       -6.130105298723825
      ],
      [
       -50.2226,
       -6.128799999999998
      ],
      [
       -50.22287162699988,
       -6.128605981291315
      ],
      [
       -50.222926,
       -6.1284149999999995
      ],
      [
       -50.223634,
       -6.127669
      ],
      [
       -50.22311899999999,
       -6.1262599999999985
      ],
      [
       -50.22341434329836,
       -6.126043030044465
      ],
      [
       -50.223400000000005,
       -6.1259999999999994
      ],
      [
       -50.224700000000006,
       -6.124799999999998
      ],
      [
       -50.225084753200896,
       -6.124690070644862
      ],
      [
       -50.22511499999999,
       -6.124660000000001
      ],
      [
       -50.22519618356014,
       -6.124658233377614
      ]
     ]
    ]
   }
  },
  {
   "type": "Feature",
   "properties": {
    "fid": 44134,
    "iso3": "BRA",
    "area_km2": 12.6118
   },
   "geometry": {
    "type": "Polygon",
    "coordinates": [
     [
      [
       -50.27837342997922,
       -6.107455745684419
      ],
      [
       -50.279531000000006,
       -6.107443
      ],
      [
       -50.28142,
       -6.109491000000001
      ],
      [
       -50.284166,
       -6.108637
      ],
      [
       -50.28820290312655,
       -6.1068680700779465
      ],
      [
       -50.28830000000001,
       -6.1057999999999995
      ],
      [
       -50.2849,
       -6.104600000000001
      ],
      [
       -50.285,
       -6.091700000000001
      ],
      [
       -50.2847,
       -6.0882
      ],
      [
       -50.2833,
       -6.084800000000001
      ],
      [
       -50.2789,
       -6.0763
      ],
      [
       -50.279799999999994,
       -6.0718
      ],
      [
       -50.2854,
       -6.078500000000001
      ],
      [
       -50.28819999999999,
       -6.0812
      ],
      [
       -50.2904,
       -6.0767
      ],
      [
       -50.2938,
       -6.077699999999998
      ],
      [
       -50.2928,
       -6.086700000000001
      ],
      [
       -50.292186419267054,
       -6.094369792561906
      ],
      [
       -50.29335,
       -6.096348000000001
      ],
      [
       -50.304936999999995,
       -6.0942989999999995
      ],
      [
       -50.305291076389395,
       -6.095223216357083
      ],
      [
       -50.305499999999995,
       -6.095199999999999
      ],
      [
       -50.3105,
       -6.0992999999999995
      ],
      [
       -50.3185,
       -6.0969999999999995
      ],
      [
       -50.3191026113484,
       -6.098248278182058
      ],
      [
       -50.323563,
       -6.099419999999999
      ],
      [
       -50.323992,
       -6.102322000000002
      ],
      [
       -50.321674,
       -6.103773
      ],
      [
       -50.32089632212491,
       -6.1043046250832145
      ],
      [
       -50.32019999999999,
       -6.106899999999998
      ],
      [
       -50.31709999999998,
       -6.110399999999999
      ],
      [
       -50.31729367138072,
       -6.113821539759895
      ],
      [
       -50.317554,
       -6.115294000000001
      ],
      [
       -50.317380223764914,
       -6.115350623085649
      ],
      [
       -50.31739999999999,
       -6.115700000000001
      ],
      [
       -50.31253165363013,
       -6.117102749292775
      ],
      [
       -50.311116999999996,
       -6.12306
      ],
      [
       -50.305108999999995,
       -6.123486999999998
      ],
      [
       -50.297641999999996,
       -6.123658
      ],
      [
       -50.29903537795373,
       -6.119240937734114
      ],
      [
       -50.2984,
       -6.118899999999998
      ],
      [
       -50.300273547091926,
       -6.115315829161902
      ],
      [
       -50.300388000000005,
       -6.114952999999998
      ],
      [
       -50.293779,
       -6.1164039999999975
      ],
      [
       -50.289229999999996,
       -6.116403999999999
      ],
      [
       -50.285625,
       -6.1121360000000005
      ],
      [
       -50.2802733653991,
       -6.113023002710592
      ],
      [
       -50.2803,
       -6.1133
      ],
      [
       -50.2758,
       -6.114400000000002
      ],
      [
       -50.2741,
       -6.114400000000002
      ],
      [
       -50.27394759913618,
       -6.11407139010227
      ],
      [
       -50.27378099999999,
       -6.1140989999999995
      ],
      [
       -50.273451079632345,
       -6.113000781370421
      ],
      [
       -50.2709,
       -6.107499999999998
      ],
      [
       -50.2731,
       -6.1053999999999995
      ],
      [
       -50.2767,
       -6.1067
      ],
      [
       -50.27837342997922,
       -6.107455745684419
      ]
     ]
    ]
   }
  },
  {
   "type": "Feature",
   "properties": {
    "fid": 44144,
    "iso3": "BRA",
    "area_km2": 73.7607
   },
   "geometry": {
    "type": "Polygon",
    "coordinates": [
     [
      [
       -50.14076620608876,
       -6.090983935302482
      ],
      [
       -50.14000000000001,
       -6.090999999999998
      ],
      [
       -50.138972285038065,
       -6.088891892581298
      ],
      [
       -50.137997,
       -6.088837
      ],
      [
       -50.134563,
       -6.083034
      ],
      [
       -50.13082617324134,
       -6.081418306147504
      ],
      [
       -50.13071258459255,
       -6.082369619122245
      ],
      [
       -50.131302,
       -6.088667000000002
      ],
      [
       -50.1311923101474,
       -6.0887234101604415
      ],
      [
       -50.1376,
       -6.095900000000001
      ],
      [
       -50.136500000000005,
       -6.1034000000000015
      ],
      [
       -50.1325,
       -6.1065
      ],
      [
       -50.12469999999999,
       -6.1036
      ],
      [
       -50.1204,
       -6.100700000000002
      ],
      [
       -50.1199,
       -6.0946
      ],
      [
       -50.11969999999999,
       -6.088100000000001
      ],
      [
       -50.119499999999995,
       -6.0828999999999995
      ],
      [
       -50.1194,
       -6.078700000000001
      ],
      [
       -50.1198,
       -6.0729999999999995
      ],
      [
       -50.12456990698726,
       -6.066993462061402
      ],
      [
       -50.123595765741804,
       -6.062248154551046
      ],
      [
       -50.121530783514245,
       -6.057161217633723
      ],
      [
       -50.11907866011011,
       -6.053178773579138
      ],
      [
       -50.1162,
       -6.0527999999999995
      ],
      [
       -50.1146824567974,
       -6.049981719677838
      ],
      [
       -50.111561,
       -6.048723
      ],
      [
       -50.11083110938946,
       -6.04615500146194
      ],
      [
       -50.1102,
       -6.0458
      ],
      [
       -50.107,
       -6.0405999999999995
      ],
      [
       -50.1066,
       -6.0363
      ],
      [
       -50.10991612837179,
       -6.03756159360031
      ],
      [
       -50.110873999999995,
       -6.032164
      ],
      [
       -50.119972,
       -6.022603999999999
      ],
      [
       -50.121688999999996,
       -6.0263599999999995
      ],
      [
       -50.116023999999996,
       -6.03831
      ],
      [
       -50.130787,
       -6.0454799999999995
      ],
      [
       -50.130745393453054,
       -6.046883990489319
      ],
      [
       -50.1331,
       -6.048000000000002
      ],
      [
       -50.132,
       -6.0566999999999975
      ],
      [
       -50.1324,
       -6.064900000000001
      ],
      [
       -50.13361820318898,
       -6.069192741736095
      ],
      [
       -50.139885,
       -6.072451000000002
      ],
      [
       -50.143393800714,
       -6.073135144164109
      ],
      [
       -50.14747003140508,
       -6.071402754988499
      ],
      [
       -50.145378,
       -6.0664760000000015
      ],
      [
       -50.150870999999995,
       -6.064086
      ],
      [
       -50.150565562349236,
       -6.054965632896145
      ],
      [
       -50.15018027690661,
       -6.054048290321566
      ],
      [
       -50.146750999999995,
       -6.056063
      ],
      [
       -50.14441858068926,
       -6.0613460613796235
      ],
      [
       -50.143699999999995,
       -6.0637
      ],
      [
       -50.14342582110143,
       -6.062690536893869
      ],
      [
       -50.140743,
       -6.058453
      ],
      [
       -50.138512000000006,
       -6.051625
      ],
      [
       -50.139177025898135,
       -6.046994563691429
      ],
      [
       -50.137100000000004,
       -6.039300000000002
      ],
      [
       -50.13693195060306,
       -6.030057313131305
      ],
      [
       -50.134907,
       -6.026701
      ],
      [
       -50.134735,
       -6.017824
      ],
      [
       -50.1301,
       -6.012532000000001
      ],
      [
       -50.114822,
       -5.998361999999999
      ],
      [
       -50.105381,
       -6.001094000000001
      ],
      [
       -50.112075999999995,
       -5.988118999999999
      ],
      [
       -50.123577,
       -5.995289000000001
      ],
      [
       -50.127182,
       -6.001606
      ],
      [
       -50.127182,
       -6.002117999999999
      ],
      [
       -50.130444000000004,
       -6.006728000000001
      ],
      [
       -50.142632,
       -6.0106540000000015
      ],
      [
       -50.141602,
       -6.026018999999998
      ],
      [
       -50.14473324358466,
       -6.027846771406629
      ],
      [
       -50.1453,
       -6.028099999999998
      ],
      [
       -50.145599594345214,
       -6.028352472867986
      ],
      [
       -50.149497999999994,
       -6.030627999999999
      ],
      [
       -50.1565909691337,
       -6.036030380509693
      ],
      [
       -50.1592,
       -6.036499999999999
      ],
      [
       -50.1618,
       -6.034199999999999
      ],
      [
       -50.1652473892238,
       -6.0337075297503535
      ],
      [
       -50.173531,
       -6.029262000000002
      ],
      [
       -50.17557382952249,
       -6.032564077951769
      ],
      [
       -50.1763,
       -6.0325000000000015
      ],
      [
       -50.18185257187318,
       -6.033276185690241
      ],
      [
       -50.186062,
       -6.030628
      ],
      [
       -50.191212,
       -6.023287000000001
      ],
      [
       -50.198764999999995,
       -6.029432999999998
      ],
      [
       -50.201683,
       -6.035407999999999
      ],
      [
       -50.20093377452031,
       -6.037063598996954
      ],
      [
       -50.2014,
       -6.0402000000000005
      ],
      [
       -50.1986,
       -6.045099999999998
      ],
      [
       -50.19925428726143,
       -6.051134007961194
      ],
      [
       -50.199794999999995,
       -6.052478
      ],
      [
       -50.199795,
       -6.057176018404491
      ],
      [
       -50.199999999999996,
       -6.0598
      ],
      [
       -50.199200000000005,
       -6.0645
      ],
      [
       -50.195299999999996,
       -6.078300000000001
      ],
      [
       -50.199799999999996,
       -6.089099999999999
      ],
      [
       -50.197199999999995,
       -6.096699999999999
      ],
      [
       -50.196,
       -6.107000000000001
      ],
      [
       -50.191,
       -6.114999999999999
      ],
      [
       -50.17839999999999,
       -6.113799999999998
      ],
      [
       -50.169599999999996,
       -6.1026
      ],
      [
       -50.168099999999995,
       -6.095099999999998
      ],
      [
       -50.1727,
       -6.0892
      ],
      [
       -50.16886144367736,
       -6.0873970558345
      ],
      [
       -50.165977000000005,
       -6.089690999999999
      ],
      [
       -50.164604,
       -6.100785999999998
      ],
      [
       -50.160140999999996,
       -6.101126999999998
      ],
      [
       -50.16219934839259,
       -6.084242548420273
      ],
      [
       -50.16189999999999,
       -6.084099999999999
      ],
      [
       -50.161743260774514,
       -6.083968852503846
      ],
      [
       -50.157394,
       -6.081496999999998
      ],
      [
       -50.157356625168475,
       -6.083362486235824
      ],
      [
       -50.1577,
       -6.086600000000001
      ],
      [
       -50.15728165389857,
       -6.087104480705722
      ],
      [
       -50.157222999999995,
       -6.090031999999998
      ],
      [
       -50.154476229227654,
       -6.090487490345433
      ],
      [
       -50.154300000000006,
       -6.0907
      ],
      [
       -50.15303449165442,
       -6.090726564327007
      ],
      [
       -50.152072999999994,
       -6.090885999999999
      ],
      [
       -50.15165068417587,
       -6.090755608496557
      ],
      [
       -50.14703490986222,
       -6.0908524615774295
      ],
      [
       -50.148398799999995,
       -6.0966716
      ],
      [
       -50.14423850000001,
       -6.113025899999999
      ],
      [
       -50.1415128,
       -6.119911999999999
      ],
      [
       -50.139504300000006,
       -6.123641899999999
      ],
      [
       -50.138213199999996,
       -6.1278022
      ],
      [
       -50.137926300000004,
       -6.1303844
      ],
      [
       -50.1380698,
       -6.1335405
      ],
      [
       -50.1389305,
       -6.1398527
      ],
      [
       -50.137926300000004,
       -6.140713500000001
      ],
      [
       -50.13548750000001,
       -6.1421481
      ],
      [
       -50.133766,
       -6.1412873
      ],
      [
       -50.1313272,
       -6.138131200000002
      ],
      [
       -50.129031900000015,
       -6.1344012999999995
      ],
      [
       -50.128458,
       -6.1313887
      ],
      [
       -50.1264496,
       -6.1242157
      ],
      [
       -50.1293188,
       -6.119194699999998
      ],
      [
       -50.1313272,
       -6.115464700000001
      ],
      [
       -50.135631000000004,
       -6.1092960000000005
      ],
      [
       -50.137926300000004,
       -6.105279200000002
      ],
      [
       -50.1400782,
       -6.098393200000001
      ],
      [
       -50.1405086,
       -6.0929417
      ],
      [
       -50.14076620608876,
       -6.090983935302482
      ]
     ]
    ]
   }
  }
 ],
 "license": "CC-BY-SA-4.0",
 "attribution": "Maus et al. 2022 (doi:10.1594/PANGAEA.942325)"
}
