{
 "type": "FeatureCollection",
 "features": [
  {
   "type": "Feature",
   "properties": {
    "fid": 3978,
    "iso3": "PER",
    "area_km2": 39.2119
   },
   "geometry": {
    "type": "Polygon",
    "coordinates": [
     [
      [
       -77.0633,
       -9.512699999999999
      ],
      [
       -77.067,
       -9.523900000000003
      ],
      [
       -77.0787,
       -9.531300000000002
      ],
      [
       -77.079,
       -9.5434
      ],
      [
       -77.08829999999999,
       -9.554400000000003
      ],
      [
       -77.071,
       -9.5574
      ],
      [
       -77.0548,
       -9.5711
      ],
      [
       -77.0394,
       -9.606299999999997
      ],
      [
       -77.0313,
       -9.603299999999999
      ],
      [
       -77.0282,
       -9.576000000000002
      ],
      [
       -77.0088,
       -9.567399999999996
      ],
      [
       -77.01899999999999,
       -9.5486
      ],
      [
       -77.0495,
       -9.518000000000002
      ],
      [
       -77.0633,
       -9.512699999999999
      ]
     ]
    ]
   }
  },
  {
   "type": "Feature",
   "properties": {
    "fid": 3977,
    "iso3": "PER",
    "area_km2": 0.5661
   },
   "geometry": {
    "type": "Polygon",
    "coordinates": [
     [
      [
       -77.08149999999999,
       -9.5009
      ],
      [
       -77.0831,
       -9.5026
      ],
      [
       -77.08279999999999,
       -9.505099999999999
      ],
      [
       -77.08,
       -9.5054
      ],
      [
       -77.0714,
       -9.511
      ],
      [
       -77.0692,
       -9.5117
      ],
      [
       -77.068,
       -9.510299999999999
      ],
      [
       -77.079,
       -9.5026
      ],
      [
       -77.08149999999999,
       -9.5009
      ]
     ]
    ]
   }
  },
  {
   "type": "Feature",
   "properties": {
    "fid": 3972,
    "iso3": "PER",
    "area_km2": 0.5278
   },
   "geometry": {
    "type": "Polygon",
    "coordinates": [
     [
      [
       -77.07719999999999,
       -9.492799999999999
      ],
      [
       -77.07809999999999,
       -9.4934
      ],
      [
       -77.079,
       -9.4963
      ],
      [
       -77.0784,
       -9.497
      ],
      [
       -77.07459999999999,
       -9.4953
      ],
      [
       -77.073,
       -9.493999999999998
      ],
      [
       -77.0713,
       -9.4948
      ],
      [
       -77.07039999999999,
       -9.4963
      ],
      [
       -77.067,
       -9.4972
      ],
      [
       -77.06649999999999,
       -9.494699999999996
      ],
      [
       -77.068,
       -9.4923
      ],
      [
       -77.07039999999999,
       -9.4917
      ],
      [
       -77.07509999999999,
       -9.4917
      ],
      [
       -77.07719999999999,
       -9.492799999999999
      ]
     ]
    ]
   }
  }
 ],
 "license": "CC-BY-SA-4.0",
 "attribution": "Maus et al. 2022 (doi:10.1594/PANGAEA.942325)"
}
